{
  "type": "FeatureCollection",
  "features": [
    {
      "type": "Feature",
      "properties": {
        "record": "26TMP-058655",
        "address": "1191 AVONDALE AVE SE, ATLANTA GA 30312",
        "status": "",
        "date": "09/03/2026",
        "description": null,
        "owner": null,
        "tree_dbh": null,
        "tree_location": null,
        "reason_removal": null,
        "tree_description": null,
        "tree_number": null,
        "species": null
      },
      "geometry": {
        "type": "Point",
        "coordinates": [
          -84.363577934128,
          33.722104509338
        ]
      }
    },
    {
      "type": "Feature",
      "properties": {
        "record": "BA-202604440",
        "address": "379 PATTERSON AVE SE, ATLANTA GA 30316",
        "status": "ACA Pending",
        "date": "09/03/2026",
        "description": null,
        "owner": "Victoria Bormey",
        "tree_dbh": "24",
        "tree_location": "Back yard.  Front left of garage.",
        "reason_removal": "Other",
        "tree_description": "24\" DBH dead pecan tree.Reason for Removal:Dead tree\n\t\t\n\t\t\n\t\t\tTree number:2Species:Water OakTree Size (DBH):30Tree location:Back yard.  Front left of garage.Description of Tree:Tree is growing into the house.  Destroying foundation.Reason for Removal:OtherComments:As the tree is growing into the fence and house I couldn't put a tape measure on it.  It's at least 30\" DBH.\n\t\t\n\t\n\t\n                                \n                            \n                        \n                    \n                        \n                            \n                                \n                                    \n                                        \n                                         Parcel Information\n                                \n                            \n                            \n                                \n                                    \n\t\tParcel Number:15 177 02 026 *Block:--Lot:--Subdivision:--",
        "tree_number": "1",
        "species": "Pecan"
      },
      "geometry": {
        "type": "Point",
        "coordinates": [
          -84.342947695594,
          33.743060415578
        ]
      }
    },
    {
      "type": "Feature",
      "properties": {
        "record": "BA-202604432",
        "address": "1805 MT PARAN RD NW, ATLANTA GA 30327",
        "status": "ACA Pending",
        "date": "09/03/2026",
        "description": null,
        "owner": "LINDA BARISH",
        "tree_dbh": "37",
        "tree_location": "front",
        "reason_removal": "Significant cavity/area of decay",
        "tree_description": "Tree declined by more than 50%Reason for Removal:Dying tree\n\t\t\n\t\t\n\t\t\tTree number:2Species:pineTree Size (DBH):39Tree location:frontDescription of Tree:Areas of ganoderma are present at the trunk & multiple large pitch cankers are visible throughout the canopyReason for Removal:Significant cavity/area of decay\n\t\t\n\t\n\t\n                                \n                            \n                        \n                    \n                        \n                            \n                                \n                                    \n                                        \n                                         Parcel Information\n                                \n                            \n                            \n                                \n                                    \n\t\tParcel Number:17 02000002011 *Block:--Lot:--Subdivision:--",
        "tree_number": "1",
        "species": "Silver Maple"
      },
      "geometry": {
        "type": "Point",
        "coordinates": [
          -84.433868241537,
          33.868387551379
        ]
      }
    },
    {
      "type": "Feature",
      "properties": {
        "record": "26TMP-058652",
        "address": "1853 SUMTER ST NW, ATLANTA GA 30318",
        "status": "",
        "date": "09/03/2026",
        "description": null,
        "owner": null,
        "tree_dbh": null,
        "tree_location": null,
        "reason_removal": null,
        "tree_description": null,
        "tree_number": null,
        "species": null
      },
      "geometry": {
        "type": "Point",
        "coordinates": [
          -84.448958826164,
          33.814811699805
        ]
      }
    },
    {
      "type": "Feature",
      "properties": {
        "record": "BA-202604430",
        "address": "3722 NARMORE DR NE, ATLANTA GA 30319",
        "status": "ACA Pending",
        "date": "09/03/2026",
        "description": null,
        "owner": "Katie Jennison",
        "tree_dbh": "28",
        "tree_location": "Backyard",
        "reason_removal": "Dead tree",
        "tree_description": "Dead White Oak Tree in backyard.Reason for Removal:Dead tree\n\t\t\n\t\t\n\t\t\tTree number:2Species:PoplarTree Size (DBH):15Tree location:BackyardDescription of Tree:Dead Poplar Tree in backyard.Reason for Removal:Dead tree\n\t\t\n\t\t\n\t\t\tTree number:3Species:PoplarTree Size (DBH):15Tree location:BackyardDescription of Tree:Dead Poplar Tree in backyard.Reason for Removal:Dead tree\n\t\t\n\t\n\t\n                                \n                            \n                        \n                    \n                        \n                            \n                                \n                                    \n                                        \n                                         Parcel Information\n                                \n                            \n                            \n                                \n                                    \n\t\tParcel Number:17 00100004041 *Block:--Lot:--Subdivision:--",
        "tree_number": "1",
        "species": "Poplar"
      },
      "geometry": {
        "type": "Point",
        "coordinates": [
          -84.354878129622,
          33.855988632515
        ]
      }
    },
    {
      "type": "Feature",
      "properties": {
        "record": "26TMP-058489",
        "address": "3808 BOULDER PARK DR SW, ATLANTA GA 30331",
        "status": "",
        "date": "09/03/2026",
        "description": null,
        "owner": null,
        "tree_dbh": null,
        "tree_location": null,
        "reason_removal": null,
        "tree_description": null,
        "tree_number": null,
        "species": null
      },
      "geometry": {
        "type": "Point",
        "coordinates": [
          -84.512082887139,
          33.747323785966
        ]
      }
    },
    {
      "type": "Feature",
      "properties": {
        "record": "BA-202604443",
        "address": "3393 JONESBORO RD SE, ATLANTA GA 30354",
        "status": "ACA Pending",
        "date": "09/03/2026",
        "description": null,
        "owner": "Justin Golshir",
        "tree_dbh": "60",
        "tree_location": "Front left",
        "reason_removal": "Invasive/undesirable tree",
        "tree_description": "Canopy dieback and history of large branch failures.Reason for Removal:Dying tree\n\t\t\n\t\t\n\t\t\tTree number:2Species:Loblolly PineTree Size (DBH):14Tree location:North end of lot, inland about 430 ftDescription of Tree:Tree has uplifted SRP.Reason for Removal:Uncorrectable defect\n\t\t\n\t\t\n\t\t\tTree number:3Species:Loblolly PineTree Size (DBH):12Tree location:South end of the lot, inland 250ftDescription of Tree:Tree has uplifted SRPReason for Removal:Uncorrectable defect\n\t\t\n\t\t\n\t\t\tTree number:4Species:Bradford PearTree Size (DBH):6Tree location:behind buildingDescription of Tree:Invasive species.Reason for Removal:Invasive/undesirable tree\n\t\t\n\t\t\n\t\t\tTree number:5Species:Bradford PearTree Size (DBH):6Tree location:behind buildingDescription of Tree:Invasive species.Reason for Removal:Invasive/undesirable tree\n\t\t\n\t\n\t\n                                \n                            \n                        \n                    \n                        \n                            \n                                \n                                    \n                                        \n                                         Parcel Information\n                                \n                            \n                            \n                                \n                                    \n\t\tParcel Number:14 0034  LL021 *Block:--Lot:--Subdivision:--",
        "tree_number": "1",
        "species": "Loblolly Pine"
      },
      "geometry": {
        "type": "Point",
        "coordinates": [
          -84.372782547459,
          33.661049531851
        ]
      }
    },
    {
      "type": "Feature",
      "properties": {
        "record": "BA-202604444",
        "address": "908 OAKHILL AVE SW, ATLANTA GA 30310",
        "status": "ACA Pending",
        "date": "09/03/2026",
        "description": null,
        "owner": null,
        "tree_dbh": null,
        "tree_location": null,
        "reason_removal": null,
        "tree_description": null,
        "tree_number": null,
        "species": null
      },
      "geometry": {
        "type": "Point",
        "coordinates": [
          -84.409210487203,
          33.730681582114
        ]
      }
    },
    {
      "type": "Feature",
      "properties": {
        "record": "26TMP-057322",
        "address": "3345 VALLEY RD NW, ATLANTA GA 30305",
        "status": "",
        "date": "09/03/2026",
        "description": null,
        "owner": null,
        "tree_dbh": null,
        "tree_location": null,
        "reason_removal": null,
        "tree_description": null,
        "tree_number": null,
        "species": null
      },
      "geometry": {
        "type": "Point",
        "coordinates": [
          -84.384542404195,
          33.845762362984
        ]
      }
    },
    {
      "type": "Feature",
      "properties": {
        "record": "BA-202604427",
        "address": "1282 CAMPBELLTON RD SW, ATLANTA GA 30310",
        "status": "ACA Pending",
        "date": "09/03/2026",
        "description": null,
        "owner": "SMITH ERICA D",
        "tree_dbh": "11",
        "tree_location": "FRONT RIGHT",
        "reason_removal": "Dead tree",
        "tree_description": "COVER IN IVY AND FALLING APART Reason for Removal:Dead tree\n\t\t\n\t\n\t\n                                \n                            \n                        \n                    \n                        \n                            \n                                \n                                    \n                                        \n                                         Parcel Information\n                                \n                            \n                            \n                                \n                                    \n\t\tParcel Number:14 01370007033 *Block:--Lot:--Subdivision:--",
        "tree_number": "1",
        "species": "OAK"
      },
      "geometry": {
        "type": "Point",
        "coordinates": [
          -84.429986698574,
          33.716407474726
        ]
      }
    },
    {
      "type": "Feature",
      "properties": {
        "record": "26TMP-058430",
        "address": "643 MARTIN L KING JR DR NW, ATLANTA GA 30314",
        "status": "",
        "date": "09/03/2026",
        "description": null,
        "owner": null,
        "tree_dbh": null,
        "tree_location": null,
        "reason_removal": null,
        "tree_description": null,
        "tree_number": null,
        "species": null
      },
      "geometry": {
        "type": "Point",
        "coordinates": [
          -84.408822657971,
          33.754757860907
        ]
      }
    },
    {
      "type": "Feature",
      "properties": {
        "record": "BA-202604428",
        "address": "579 CONNALLY ST SE, ATLANTA GA 30312",
        "status": "ACA Pending",
        "date": "09/03/2026",
        "description": null,
        "owner": "Bob Nelson",
        "tree_dbh": "14",
        "tree_location": "Front",
        "reason_removal": "Significant cavity/area of decay",
        "tree_description": "Decay in trunk, 2/3 of the canopy is deadReason for Removal:Significant cavity/area of decayComments:Orange paint\n\t\t\n\t\n\t\n                                \n                            \n                        \n                    \n                        \n                            \n                                \n                                    \n                                        \n                                         Parcel Information\n                                \n                            \n                            \n                                \n                                    \n\t\tParcel Number:14 00530011063 *Block:--Lot:--Subdivision:--",
        "tree_number": "1",
        "species": "Red Maple"
      },
      "geometry": {
        "type": "Point",
        "coordinates": [
          -84.38159774672,
          33.739120842299
        ]
      }
    },
    {
      "type": "Feature",
      "properties": {
        "record": "BA-202604435",
        "address": "1342 HILL ST SE, ATLANTA GA 30315",
        "status": "ACA Pending",
        "date": "09/03/2026",
        "description": null,
        "owner": "CALDWELL LOY W",
        "tree_dbh": "54",
        "tree_location": "front",
        "reason_removal": "Dying tree",
        "tree_description": "Conditions of Concern (photos below): tree has multiple stems with included bark, internal decay in the center of the trunk, multiple large hazardous dead limbs. Tree is dropping dead limbs.Reason for Removal:Significant cavity/area of decay\n\t\t\n\t\t\n\t\t\tTree number:2Species:Tree Species: elmTree Size (DBH):32Tree location:sideDescription of Tree:Removal Recommendation: no- prune hazardous dead limbs from over the home",
        "tree_number": "1",
        "species": "Red mulberry (Morus rubra)"
      },
      "geometry": {
        "type": "Point",
        "coordinates": [
          -84.378712355859,
          33.718330819354
        ]
      }
    },
    {
      "type": "Feature",
      "properties": {
        "record": "26TMP-058683",
        "address": "4300 ROSWELL RD NE, #1, ATLANTA GA 30342",
        "status": "",
        "date": "09/03/2026",
        "description": null,
        "owner": null,
        "tree_dbh": null,
        "tree_location": null,
        "reason_removal": null,
        "tree_description": null,
        "tree_number": null,
        "species": null
      },
      "geometry": {
        "type": "Point",
        "coordinates": [
          -84.381112114628,
          33.872289398253
        ]
      }
    },
    {
      "type": "Feature",
      "properties": {
        "record": "BA-202604437",
        "address": "1731 FORT VALLEY DR SW, ATLANTA GA 30311",
        "status": "ACA Pending",
        "date": "09/03/2026",
        "description": null,
        "owner": "BORDERS WILLIAM H SR",
        "tree_dbh": "34",
        "tree_location": "Back yard",
        "reason_removal": "Other",
        "tree_description": "Dead/Dying tree Reason for Removal:Dead tree\n\t\t\n\t\t\n\t\t\tTree number:2Species:PineTree Size (DBH):20Tree location:Back YardDescription of Tree:large dead pine tree in the back on the rightReason for Removal:Dead tree\n\t\t\n\t\t\n\t\t\tTree number:3Species:PineTree Size (DBH):12Tree location:Back yardDescription of Tree:severely leaning pine tree Reason for Removal:Other\n\t\t\n\t\n\t\n                                \n                            \n                        \n                    \n                        \n                            \n                                \n                                    \n                                        \n                                         Parcel Information\n                                \n                            \n                            \n                                \n                                    \n\t\tParcel Number:14 01680006005 *Block:--Lot:--Subdivision:--",
        "tree_number": "1",
        "species": "Pin Oak"
      },
      "geometry": {
        "type": "Point",
        "coordinates": [
          -84.450549718991,
          33.70702021285
        ]
      }
    },
    {
      "type": "Feature",
      "properties": {
        "record": "BA-202604438",
        "address": "152 HOLIDAY AVE NE, ATLANTA GA 30307",
        "status": "ACA Pending",
        "date": "09/03/2026",
        "description": null,
        "owner": "WILLIAMS JOE",
        "tree_dbh": "29",
        "tree_location": "Rear Yard, under power lines",
        "reason_removal": "Other",
        "tree_description": "Tree is a common hackberry. A lot of canopy has been removed by Georgia PowerReason for Removal:OtherComments:Tree was planted by a prior owner directly under power lines. >1/3 of the canopy has been removed by Georgia Power owing to the tree growing up into the power lines.\n\t\t\n\t\n\t\n                                \n                            \n                        \n                    \n                        \n                            \n                                \n                                    \n                                        \n                                         Parcel Information\n                                \n                            \n                            \n                                \n                                    \n\t\tParcel Number:14 00140012010 *Block:--Lot:--Subdivision:--",
        "tree_number": "1",
        "species": "Celtis Occidentalis"
      },
      "geometry": {
        "type": "Point",
        "coordinates": [
          -84.350955924031,
          33.757329263347
        ]
      }
    },
    {
      "type": "Feature",
      "properties": {
        "record": "BA-202604433",
        "address": "330 RALPH MCGILL BLVD NE, ATLANTA GA 30312",
        "status": "ACA Pending",
        "date": "09/03/2026",
        "description": null,
        "owner": "John M Johnson",
        "tree_dbh": "12",
        "tree_location": "Fronnt of Building 10",
        "reason_removal": "Diseased",
        "tree_description": "Quercus Has dropped more than half of its foliage and appears to be declining rapidly Reason for Removal:Dying treeComments:Tree spec provided by Brandon Miller GO-380412A ISA Certified \n\t\t\n\t\t\n\t\t\tTree number:331Species:OakTree Size (DBH):18Tree location:Between building 10 and 11 Description of Tree:Quercus small fruiting bodies at the root flair and heavy phototrophism towards the building.  The roots are encircled due to its proximity to the retaining wall.",
        "tree_number": "122",
        "species": "Oak"
      },
      "geometry": {
        "type": "Point",
        "coordinates": [
          -84.375180484981,
          33.764070092937
        ]
      }
    },
    {
      "type": "Feature",
      "properties": {
        "record": "26TMP-058524",
        "address": "747 CARON CIR NW, ATLANTA GA 30318",
        "status": "",
        "date": "09/03/2026",
        "description": null,
        "owner": null,
        "tree_dbh": null,
        "tree_location": null,
        "reason_removal": null,
        "tree_description": null,
        "tree_number": null,
        "species": null
      },
      "geometry": {
        "type": "Point",
        "coordinates": [
          -84.485387360907,
          33.775481922477
        ]
      }
    },
    {
      "type": "Feature",
      "properties": {
        "record": "BA-202604434",
        "address": "501 EMILY REED LN NE, ATLANTA GA 30342",
        "status": "ACA Pending",
        "date": "09/03/2026",
        "description": null,
        "owner": null,
        "tree_dbh": "19",
        "tree_location": "Front left",
        "reason_removal": "Other",
        "tree_description": "Oak with crown completely engulfed in ivyReason for Removal:Uncorrectable defect\n\t\t\n\t\t\n\t\t\tTree number:11Species:PineTree Size (DBH):22Tree location:FrontDescription of Tree:Tree 11 previously approved as T27 on BA-202406063 DDH tree permit.Reason for Removal:Other\n\t\t\n\t\t\n\t\t\tTree number:12Species:PineTree Size (DBH):22Tree location:FrontDescription of Tree:Tree 12 previously approved as T16 on BA-202406063 DDH tree permit.Reason for Removal:Other\n\t\t\n\t\t\n\t\t\tTree number:13Species:PineTree Size (DBH):24Tree location:FrontDescription of Tree:Tree 13 previously approved as T40 on BA-202406063 DDH tree permit.Reason for Removal:Other\n\t\t\n\t\t\n\t\t\tTree number:14Species:OakTree Size (DBH):13Tree location:Front centerDescription of Tree:Oak that has the crown completely engulfed in ivyReason for Removal:Uncorrectable defect\n\t\t\n\t\t\n\t\t\tTree number:16Species:PineTree Size (DBH):29Tree location:Front centerDescription of Tree:Tree 16 previously approved as T10 on BA-202406063 DDH tree permit.Reason for Removal:Other\n\t\t\n\t\t\n\t\t\tTree number:17Species:PoplarTree Size (DBH):16Tree location:Front centerDescription of Tree:Tree 17 previously approved as T48 on BA-202406063 DDH tree permit.Reason for Removal:Other\n\t\t\n\t\t\n\t\t\tTree number:22Species:PoplarTree Size (DBH):18Tree location:Center leftDescription of Tree:Tree 22 previously approved as T56 on BA-202406063 DDH tree permit.Reason for Removal:Other\n\t\t\n\t\t\n\t\t\tTree number:29Species:OakTree Size (DBH):17Tree location:CenterDescription of Tree:Tree 29 previously approved as T42 on BA-202406063 DDH tree permit.Reason for Removal:Other\n\t\t\n\t\t\n\t\t\tTree number:30Species:PineTree Size (DBH):27Tree location:CenterDescription of Tree:Tree 30 previously approved as T45 on BA-202406063 DDH tree permit.Reason for Removal:Other\n\t\t\n\t\t\n\t\t\tTree number:37Species:PineTree Size (DBH):32Tree location:Center back leftDescription of Tree:Pine with decay at root flareReason for Removal:Significant cavity/area of decay\n\t\t\n\t\t\n\t\t\tTree number:54Species:PineTree Size (DBH):19Tree location:Back centerDescription of Tree:Root rot at baseReason for Removal:Uncorrectable defect\n\t\t\n\t\t\n\t\t\tTree number:68Species:HickoryTree Size (DBH):9Tree location:Far back rightDescription of Tree:Hickory with crown completely engulfed in ivyReason for Removal:Uncorrectable defect\n\t\t\n\t\t\n\t\t\tTree number:70Species:SweetgumTree Size (DBH):12Tree location:Middle rightDescription of Tree:Sweetgum with crown completely engulfed in ivyReason for Removal:Uncorrectable defect\n\t\t\n\t\t\n\t\t\tTree number:73Species:BeechTree Size (DBH):15Tree location:Middle rightDescription of Tree:Tree 73 previously approved as T36 on BA-202406063 DDH tree permit.Reason for Removal:Other\n\t\t\n\t\t\n\t\t\tTree number:75Species:PineTree Size (DBH):28Tree location:RightDescription of Tree:Tree 75 previously approved as T46 on BA-202406063 DDH tree permit.Reason for Removal:Other\n\t\t\n\t\t\n\t\t\tTree number:78Species:MapleTree Size (DBH):23Tree location:RightDescription of Tree:Tree 78 previously approved as T57 on BA-202406063 DDH tree permit.Reason for Removal:Other\n\t\t\n\t\t\n\t\t\tTree number:79Species:PineTree Size (DBH):23Tree location:RightDescription of Tree:Tree 39 previously approved as T47 on BA-202406063 DDH tree permit.Reason for Removal:Other\n\t\t\n\t\t\n\t\t\tTree number:80Species:HickoryTree Size (DBH):24Tree location:RightDescription of Tree:Tree 80 previously approved as T26 on BA-202406063 DDH tree permit.Reason for Removal:Other\n\t\t\n\t\t\n\t\t\tTree number:81Species:PineTree Size (DBH):30Tree location:RightDescription of Tree:Tree 81 previously approved as T49 on BA-202406063 DDH tree permit.Reason for Removal:Other\n\t\t\n\t\t\n\t\t\tTree number:82Species:PineTree Size (DBH):27Tree location:RightDescription of Tree:Tree 82 previously approved as T51 on BA-202406063 DDH tree permit.Reason for Removal:Other\n\t\t\n\t\t\n\t\t\tTree number:85Species:PineTree Size (DBH):18Tree location:RightDescription of Tree:Tree 85 previously approved as T14 on BA-202406063 DDH tree permit.Reason for Removal:Other\n\t\t\n\t\n\t\n                                \n                            \n                        \n                    \n                        \n                            \n                                \n                                    \n                                        \n                                         Parcel Information\n                                \n                            \n                            \n                                \n                                    \n\t\tParcel Number:T17 00640004020 12 *Block:--Lot:--Subdivision:SD-21-012 1 EMMA LANE NE",
        "tree_number": "4",
        "species": "Oak"
      },
      "geometry": {
        "type": "Point",
        "coordinates": [
          -84.370633216651,
          33.916027714244
        ]
      }
    }
  ]
}