{
  "type": "FeatureCollection",
  "features": [
    {
      "type": "Feature",
      "properties": {
        "record": "BA-202603992",
        "address": "656 EAST PELHAM RD NE, ATLANTA GA 30324",
        "status": "ACA Pending",
        "date": "08/14/2026",
        "description": null,
        "owner": null,
        "tree_dbh": "1",
        "tree_location": "Front, east side of yard",
        "reason_removal": "Dying tree",
        "tree_description": "Very large oakReason for Removal:Dying treeComments:I had an arborist from Arbor-nomics come to the house today and they think the tree is dead.\n\t\t\n\t\n\t\n                                \n                            \n                        \n                    \n                        \n                            \n                                \n                                    \n                                        \n                                         Parcel Information\n                                \n                            \n                            \n                                \n                                    \n\t\tParcel Number:17 00510001015 *Block:--Lot:--Subdivision:--",
        "tree_number": "1",
        "species": "Oak"
      },
      "geometry": {
        "type": "Point",
        "coordinates": [
          -84.365395266761,
          33.801866447961
        ]
      }
    },
    {
      "type": "Feature",
      "properties": {
        "record": "BA-202603974",
        "address": "2657 FORREST AVE NW, ATLANTA GA 30318",
        "status": "ACA Pending",
        "date": "08/14/2026",
        "description": null,
        "owner": null,
        "tree_dbh": "27",
        "tree_location": "to the right of the home, just inside property line",
        "reason_removal": "Dying tree",
        "tree_description": "large, leaning tree, Arborist in the past noted it's dyingReason for Removal:Dying tree\n\t\t\n\t\t\n\t\t\tTree number:2Species:not sureTree Size (DBH):18Tree location:behind house along property lineReason for Removal:Dying tree\n\t\t\n\t\t\n\t\t\tTree number:3Species:not sureTree Size (DBH):12Tree location:to the right of the home, just inside property lineDescription of Tree:tall, leaning tree, limbs scrape the houseReason for Removal:Dying tree\n\t\t\n\t\n\t\n                                \n                            \n                        \n                    \n                        \n                            \n                                \n                                    \n                                        \n                                         Parcel Information\n                                \n                            \n                            \n                                \n                                    \n\t\tParcel Number:17 02520001036 *Block:--Lot:--Subdivision:--",
        "tree_number": "1",
        "species": "pecan"
      },
      "geometry": {
        "type": "Point",
        "coordinates": [
          -84.47448784411,
          33.812955261235
        ]
      }
    },
    {
      "type": "Feature",
      "properties": {
        "record": "BA-202603977",
        "address": "782 ROSEDALE AVE SE, ATLANTA GA 30312",
        "status": "ACA Pending",
        "date": "08/14/2026",
        "description": null,
        "owner": null,
        "tree_dbh": null,
        "tree_location": null,
        "reason_removal": null,
        "tree_description": null,
        "tree_number": null,
        "species": null
      },
      "geometry": {
        "type": "Point",
        "coordinates": [
          -84.36704951154,
          33.732492955452
        ]
      }
    },
    {
      "type": "Feature",
      "properties": {
        "record": "BA-202603980",
        "address": "618 IRWIN ST NE, ATLANTA GA 30312",
        "status": "ACA Pending",
        "date": "08/14/2026",
        "description": null,
        "owner": null,
        "tree_dbh": null,
        "tree_location": null,
        "reason_removal": null,
        "tree_description": null,
        "tree_number": null,
        "species": null
      },
      "geometry": {
        "type": "Point",
        "coordinates": [
          -84.367113731739,
          33.757646342107
        ]
      }
    },
    {
      "type": "Feature",
      "properties": {
        "record": "BA-202603978",
        "address": "490 BROWNLEE RD SW, ATLANTA GA 30311",
        "status": "ACA Pending",
        "date": "08/14/2026",
        "description": null,
        "owner": null,
        "tree_dbh": null,
        "tree_location": null,
        "reason_removal": null,
        "tree_description": null,
        "tree_number": null,
        "species": null
      },
      "geometry": {
        "type": "Point",
        "coordinates": [
          -84.496662276341,
          33.743008587807
        ]
      }
    },
    {
      "type": "Feature",
      "properties": {
        "record": "BA-202603973",
        "address": "3370 HABERSHAM RD NW, ATLANTA GA 30305",
        "status": "ACA Pending",
        "date": "08/14/2026",
        "description": null,
        "owner": null,
        "tree_dbh": "39",
        "tree_location": "See site map",
        "reason_removal": "Other",
        "tree_description": "Numbered flagging tape Reason for Removal:OtherComments:Advanced basal decay with visible wood loss.\n\t\t\n\t\t\n\t\t\tTree number:2Species:White Oak Tree Size (DBH):39Tree location:See site map Description of Tree:Numbered flagging tape Reason for Removal:OtherComments:Large mechanical wound at the base with substantial bark and wood loss. Canopy dieback present.\n\t\t\n\t\t\n\t\t\tTree number:3Species:MulberryTree Size (DBH):23Tree location:See site map Description of Tree:Numbered flagging tape Reason for Removal:OtherComments:Multi-trunk tree with two stems dead or in advanced decline. Mulberry is an invasive, undesired species.\n\t\t\n\t\t\n\t\t\tTree number:4Species:White Oak Tree Size (DBH):36Tree location:See site map Description of Tree:Numbered flagging tape Reason for Removal:OtherComments:Sounding and probing of the basal area with a 4? probe indicated punky, decayed wood at the base. A small opening beneath the trunk allowed the probe to be inserted approximately 2? into a larger concealed basal cavity.\n\t\t\n\t\t\n\t\t\tTree number:5Species:Emily Brunner Holly Tree Size (DBH):16Tree location:See site map Description of Tree:Numbered flagging tape Reason for Removal:OtherComments:Chinese Holly hybrid; undesired species.\n\t\t\n\t\t\n\t\t\tTree number:6Species:Cherrylaurel Tree Size (DBH):14Tree location:See site map Description of Tree:Numbered flagging tape Reason for Removal:OtherComments:Undesired species.\n\t\t\n\t\t\n\t\t\tTree number:7Species:Foster Holly Tree Size (DBH):11Tree location:See site map Description of Tree:Numbered flagging tape Reason for Removal:OtherComments:Chinese Holly hybrid; undesired species.\n\t\t\n\t\n\t\n                                \n                            \n                        \n                    \n                        \n                            \n                                \n                                    \n                                        \n                                         Parcel Information\n                                \n                            \n                            \n                                \n                                    \n\t\tParcel Number:17 0115  LL077 *Block:--Lot:--Subdivision:--",
        "tree_number": "1",
        "species": "Magnolia"
      },
      "geometry": {
        "type": "Point",
        "coordinates": [
          -84.393696689145,
          33.847063382762
        ]
      }
    },
    {
      "type": "Feature",
      "properties": {
        "record": "BA-202603975",
        "address": "2478 FERNLEAF CT NW, ATLANTA GA 30318",
        "status": "ACA Pending",
        "date": "08/14/2026",
        "description": null,
        "owner": null,
        "tree_dbh": null,
        "tree_location": null,
        "reason_removal": null,
        "tree_description": null,
        "tree_number": null,
        "species": null
      },
      "geometry": {
        "type": "Point",
        "coordinates": [
          -84.439779272805,
          33.820862421328
        ]
      }
    },
    {
      "type": "Feature",
      "properties": {
        "record": "BA-202603976",
        "address": "712 GASKILL ST SE, ATLANTA GA 30316",
        "status": "ACA Pending",
        "date": "08/14/2026",
        "description": null,
        "owner": "Alessandro Marazzi Sassoon",
        "tree_dbh": "11",
        "tree_location": "back right corner of house",
        "reason_removal": "Invasive/undesirable tree",
        "tree_description": "Small cherry tree growing too close to the house and has roots growing under the foundation. Reason for Removal:Invasive/undesirable tree\n\t\t\n\t\t\n\t\t\tTree number:2Species:MulberryTree Size (DBH):11.4Tree location:back right of the house, behind the deckDescription of Tree:Triple stem mulberry (7.6\", 9.6\", 11.4\") Reason for Removal:Invasive/undesirable treeComments:Unfortunately did not take a photograph of this tree.\n\t\t\n\t\t\n\t\t\tTree number:3Species:Choke cherryTree Size (DBH):7.5Tree location:back right property line along fenceDescription of Tree:Tree is growing into the fence and beginning to become problematic.Reason for Removal:Invasive/undesirable treeComments:Unfortunately did not get a photograph of this tree.\n\t\t\n\t\t\n\t\t\tTree number:4Species:Cherry laurelTree Size (DBH):5.4Tree location:back right property line along fenceDescription of Tree:Double stemmed cherry laurel (4.6\" and 5.4\") that is also growing into the fence and becoming problematic. Reason for Removal:Invasive/undesirable treeComments:Did not capture a photograph of this tree.\n\t\t\n\t\n\t\n                                \n                            \n                        \n                    \n                        \n                            \n                                \n                                    \n                                        \n                                         Parcel Information\n                                \n                            \n                            \n                                \n                                    \n\t\tParcel Number:14 00200008135 *Block:--Lot:--Subdivision:--",
        "tree_number": "1",
        "species": "Black cherry"
      },
      "geometry": {
        "type": "Point",
        "coordinates": [
          -84.364420214314,
          33.748283859583
        ]
      }
    },
    {
      "type": "Feature",
      "properties": {
        "record": "BA-202603987",
        "address": "720 HILL ST SE, ATLANTA GA 30315",
        "status": "ACA Pending",
        "date": "08/14/2026",
        "description": null,
        "owner": "James Armstrong",
        "tree_dbh": "37",
        "tree_location": "Nearest right rear corner of home",
        "reason_removal": "Uncorrectable defect",
        "tree_description": "lightning struck tree, significant canopy failures (specifically (1) failed top in major leader overhanging the back yard)Reason for Removal:Uncorrectable defectComments:Ribbon\n\t\t\n\t\n\t\n                                \n                            \n                        \n                    \n                        \n                            \n                                \n                                    \n                                        \n                                         Parcel Information\n                                \n                            \n                            \n                                \n                                    \n\t\tParcel Number:14 00430003018 *Block:--Lot:--Subdivision:--",
        "tree_number": "1",
        "species": "Water OaK"
      },
      "geometry": {
        "type": "Point",
        "coordinates": [
          -84.378366785395,
          33.734984845725
        ]
      }
    },
    {
      "type": "Feature",
      "properties": {
        "record": "BA-202603989",
        "address": "1776 HELEN DR NE, ATLANTA GA 30306",
        "status": "ACA Pending",
        "date": "08/14/2026",
        "description": null,
        "owner": "Allison Kays",
        "tree_dbh": "11",
        "tree_location": "Backyard",
        "reason_removal": "Significant cavity/area of decay",
        "tree_description": "Likely around 80 year old water oak. Mushrooms are growing on the trunk suggesting internal rot. Reason for Removal:Significant cavity/area of decayComments:We love this tree but do not want it to fall on our house. If it falls it will land on my sons bedroom\n\t\t\n\t\n\t\n                                \n                            \n                        \n                    \n                        \n                            \n                                \n                                    \n                                        \n                                         Parcel Information\n                                \n                            \n                            \n                                \n                                    \n\t\tParcel Number:18 056 01 040 *Block:--Lot:--Subdivision:--",
        "tree_number": "1",
        "species": "Water Oak"
      },
      "geometry": {
        "type": "Point",
        "coordinates": [
          -84.339355957546,
          33.801917985025
        ]
      }
    },
    {
      "type": "Feature",
      "properties": {
        "record": "BA-202603982",
        "address": "685 CARON CIR NW, ATLANTA GA 00000",
        "status": "ACA Pending",
        "date": "08/14/2026",
        "description": null,
        "owner": null,
        "tree_dbh": "140",
        "tree_location": "Side of home near Caron Circle",
        "reason_removal": "Other",
        "tree_description": "Red Oak tree approx. 80 ft - 100 ft.Reason for Removal:OtherComments:The tree roots are breaking through the garage wall and causing it to bow and crumble.\n\t\t\n\t\t\n\t\t\tTree number:2Species:Sweet GumTree Size (DBH):36Tree location:Side of home near Caron CircleDescription of Tree:Sweet Gum tree with roots that are growing under the garage door.Reason for Removal:OtherComments:The tree roots are breaking through the garage wall and causing it to bow and crumble.\n\t\t\n\t\n\t\n                                \n                            \n                        \n                    \n                        \n                            \n                                \n                                    \n                                        \n                                         Parcel Information\n                                \n                            \n                            \n                                \n                                    \n\t\tParcel Number:14 02400006049 *Block:--Lot:--Subdivision:--",
        "tree_number": "1",
        "species": "Red Oak"
      },
      "geometry": {
        "type": "Point",
        "coordinates": [
          -84.485386680335,
          33.774582945167
        ]
      }
    },
    {
      "type": "Feature",
      "properties": {
        "record": "BA-202603984",
        "address": "962 BOULEVARD SE, ATLANTA GA 30312",
        "status": "ACA Pending",
        "date": "08/14/2026",
        "description": null,
        "owner": "Eric Bloomquist",
        "tree_dbh": "12",
        "tree_location": "Right front corner of house",
        "reason_removal": "Other",
        "tree_description": null,
        "tree_number": "1",
        "species": "Leland Cypress"
      },
      "geometry": {
        "type": "Point",
        "coordinates": [
          -84.368324068055,
          33.72818312927
        ]
      }
    },
    {
      "type": "Feature",
      "properties": {
        "record": "BA-202603979",
        "address": "1218 WEST PACES FERRY RD NW, ATLANTA GA 30327",
        "status": "ACA Pending",
        "date": "08/14/2026",
        "description": null,
        "owner": "HEALEY INVESTMENTS L P  ET AL",
        "tree_dbh": "12",
        "tree_location": "parking lot above retaining wall",
        "reason_removal": "Dying tree",
        "tree_description": "12\" Pine, parking lot, above retaining wall, flagged with pink tape, declining",
        "tree_number": "1",
        "species": "Pine"
      },
      "geometry": {
        "type": "Point",
        "coordinates": [
          -84.428024466587,
          33.849645892053
        ]
      }
    },
    {
      "type": "Feature",
      "properties": {
        "record": "26TMP-053338",
        "address": "25 VALLEY RD NW, ATLANTA GA 30305",
        "status": "",
        "date": "08/14/2026",
        "description": null,
        "owner": null,
        "tree_dbh": null,
        "tree_location": null,
        "reason_removal": null,
        "tree_description": null,
        "tree_number": null,
        "species": null
      },
      "geometry": {
        "type": "Point",
        "coordinates": [
          -84.389025368805,
          33.849004371296
        ]
      }
    },
    {
      "type": "Feature",
      "properties": {
        "record": "BA-202603983",
        "address": "37 CLIFTON ST NE, ATLANTA GA 30317",
        "status": "ACA Pending",
        "date": "08/14/2026",
        "description": null,
        "owner": "Aaron Levitt",
        "tree_dbh": "59",
        "tree_location": "Front left corner of property",
        "reason_removal": "Significant cavity/area of decay",
        "tree_description": "significant decay at base, dieback/decline exceeding 1/3 total canopyReason for Removal:Significant cavity/area of decayComments:Ribbon\n\t\t\n\t\n\t\n                                \n                            \n                        \n                    \n                        \n                            \n                                \n                                    \n                                        \n                                         Parcel Information\n                                \n                            \n                            \n                                \n                                    \n\t\tParcel Number:15 207 01 004 *Block:--Lot:--Subdivision:--",
        "tree_number": "1",
        "species": "Southern Red Oak"
      },
      "geometry": {
        "type": "Point",
        "coordinates": [
          -84.33168472165,
          33.754169823258
        ]
      }
    }
  ]
}