{
  "type": "FeatureCollection",
  "features": [
    {
      "type": "Feature",
      "properties": {
        "record": "26TMP-066455",
        "address": "155 LAKEVIEW AVE NE, ATLANTA GA 30305",
        "status": "",
        "date": "10/08/2026",
        "description": null,
        "owner": null,
        "tree_dbh": null,
        "tree_location": null,
        "reason_removal": null,
        "tree_description": null,
        "tree_number": null,
        "species": null,
        "comments": null,
        "tree_count": null,
        "trees": null
      },
      "geometry": {
        "type": "Point",
        "coordinates": [
          -84.382163131548,
          33.824479112456
        ]
      }
    },
    {
      "type": "Feature",
      "properties": {
        "record": "BA-202605259",
        "address": "1812 DEFOOR AVE NW, ATLANTA GA 30318",
        "status": "ACA Pending",
        "date": "10/08/2026",
        "description": null,
        "owner": "KELLY JAMES T",
        "tree_dbh": "12",
        "tree_location": "right side of drive",
        "reason_removal": "Other",
        "tree_description": "12\" Pecan, right side of drive, declining",
        "tree_number": "1",
        "species": "Pecan",
        "comments": "12\" Pecan, right side of drive, declining",
        "tree_count": 1,
        "trees": [
          {
            "tree_number": "1",
            "species": "Pecan",
            "tree_dbh": "12",
            "tree_location": "right side of drive",
            "tree_description": "12\" Pecan, right side of drive, declining",
            "reason_removal": "Other",
            "comments": "12\" Pecan, right side of drive, declining"
          }
        ]
      },
      "geometry": {
        "type": "Point",
        "coordinates": [
          -84.42292409883,
          33.804714767818
        ]
      }
    },
    {
      "type": "Feature",
      "properties": {
        "record": "BA-202605274",
        "address": "1410 WILLIS MILL RD SW, ATLANTA GA 30311",
        "status": "ACA Pending",
        "date": "10/08/2026",
        "description": null,
        "owner": "BAILEY MICHAELA",
        "tree_dbh": "0",
        "tree_location": "Front Yard",
        "reason_removal": "Dying tree",
        "tree_description": null,
        "tree_number": "4",
        "species": "PINE",
        "comments": null,
        "tree_count": 1,
        "trees": [
          {
            "tree_number": "4",
            "species": "PINE",
            "tree_dbh": "0",
            "tree_location": "Front Yard",
            "tree_description": null,
            "reason_removal": "Dying tree",
            "comments": null
          }
        ]
      },
      "geometry": {
        "type": "Point",
        "coordinates": [
          -84.469165892446,
          33.71735590568
        ]
      }
    },
    {
      "type": "Feature",
      "properties": {
        "record": "BA-202605269",
        "address": "145 VALLEY RD NW, ATLANTA GA 30305",
        "status": "ACA Pending",
        "date": "10/08/2026",
        "description": null,
        "owner": null,
        "tree_dbh": null,
        "tree_location": null,
        "reason_removal": null,
        "tree_description": null,
        "tree_number": null,
        "species": null,
        "comments": null,
        "tree_count": null,
        "trees": null
      },
      "geometry": {
        "type": "Point",
        "coordinates": [
          -84.39202642646,
          33.853396174967
        ]
      }
    },
    {
      "type": "Feature",
      "properties": {
        "record": "BA-202605267",
        "address": "457 LYNN VALLEY RD SW, ATLANTA GA 30311",
        "status": "ACA Pending",
        "date": "10/08/2026",
        "description": null,
        "owner": null,
        "tree_dbh": null,
        "tree_location": null,
        "reason_removal": null,
        "tree_description": null,
        "tree_number": null,
        "species": null,
        "comments": null,
        "tree_count": null,
        "trees": null
      },
      "geometry": {
        "type": "Point",
        "coordinates": [
          -84.484641706951,
          33.738292545937
        ]
      }
    },
    {
      "type": "Feature",
      "properties": {
        "record": "BA-202605264",
        "address": "640 TIMM VALLEY RD NE, ATLANTA GA 30305",
        "status": "ACA Pending",
        "date": "10/08/2026",
        "description": null,
        "owner": null,
        "tree_dbh": null,
        "tree_location": null,
        "reason_removal": null,
        "tree_description": null,
        "tree_number": null,
        "species": null,
        "comments": null,
        "tree_count": null,
        "trees": null
      },
      "geometry": {
        "type": "Point",
        "coordinates": [
          -84.365233972696,
          33.836621669862
        ]
      }
    },
    {
      "type": "Feature",
      "properties": {
        "record": "26TMP-066451",
        "address": "172 CAMPBELL ST SE, ATLANTA GA 30317",
        "status": "",
        "date": "10/08/2026",
        "description": null,
        "owner": null,
        "tree_dbh": null,
        "tree_location": null,
        "reason_removal": null,
        "tree_description": null,
        "tree_number": null,
        "species": null,
        "comments": null,
        "tree_count": null,
        "trees": null
      },
      "geometry": {
        "type": "Point",
        "coordinates": [
          -84.325159605754,
          33.748669755964
        ]
      }
    },
    {
      "type": "Feature",
      "properties": {
        "record": "BA-202605276",
        "address": "444 MCWILLIAMS AVE SE, ATLANTA GA 30316",
        "status": "Accepted",
        "date": "10/08/2026",
        "description": null,
        "owner": null,
        "tree_dbh": null,
        "tree_location": null,
        "reason_removal": null,
        "tree_description": null,
        "tree_number": null,
        "species": null,
        "comments": null,
        "tree_count": null,
        "trees": null
      },
      "geometry": {
        "type": "Point",
        "coordinates": [
          -84.33601513028,
          33.741731497535
        ]
      }
    },
    {
      "type": "Feature",
      "properties": {
        "record": "BA-202605252",
        "address": "1848 WESTWOOD AVE SW, ATLANTA GA 30310",
        "status": "ACA Pending",
        "date": "10/08/2026",
        "description": null,
        "owner": null,
        "tree_dbh": null,
        "tree_location": null,
        "reason_removal": null,
        "tree_description": null,
        "tree_number": null,
        "species": null,
        "comments": null,
        "tree_count": null,
        "trees": null
      },
      "geometry": {
        "type": "Point",
        "coordinates": [
          -84.448339855923,
          33.738728329048
        ]
      }
    },
    {
      "type": "Feature",
      "properties": {
        "record": "26TMP-066673",
        "address": "380 SPRINGSIDE DR SE, ATLANTA GA 30354",
        "status": "",
        "date": "10/08/2026",
        "description": null,
        "owner": null,
        "tree_dbh": null,
        "tree_location": null,
        "reason_removal": null,
        "tree_description": null,
        "tree_number": null,
        "species": null,
        "comments": null,
        "tree_count": null,
        "trees": null
      },
      "geometry": {
        "type": "Point",
        "coordinates": [
          -84.377859215634,
          33.676681217672
        ]
      }
    },
    {
      "type": "Feature",
      "properties": {
        "record": "BA-202605254",
        "address": "742 GREENVIEW AVE NE, ATLANTA GA 30305",
        "status": "ACA Pending",
        "date": "10/08/2026",
        "description": null,
        "owner": null,
        "tree_dbh": null,
        "tree_location": null,
        "reason_removal": null,
        "tree_description": null,
        "tree_number": null,
        "species": null,
        "comments": null,
        "tree_count": null,
        "trees": null
      },
      "geometry": {
        "type": "Point",
        "coordinates": [
          -84.363400021876,
          33.837732751148
        ]
      }
    },
    {
      "type": "Feature",
      "properties": {
        "record": "BA-202605275",
        "address": "3840 CLUB DR NE, ATLANTA GA 30319",
        "status": "Accepted",
        "date": "10/08/2026",
        "description": null,
        "owner": "BOYDSTON ANNE E",
        "tree_dbh": "20",
        "tree_location": "Front Left",
        "reason_removal": "Dying tree",
        "tree_description": "Significant dieback",
        "tree_number": "1",
        "species": "Cherry",
        "comments": null,
        "tree_count": 1,
        "trees": [
          {
            "tree_number": "1",
            "species": "Cherry",
            "tree_dbh": "20",
            "tree_location": "Front Left",
            "tree_description": "Significant dieback",
            "reason_removal": "Dying tree",
            "comments": null
          }
        ]
      },
      "geometry": {
        "type": "Point",
        "coordinates": [
          -84.350782798981,
          33.859247836406
        ]
      }
    },
    {
      "type": "Feature",
      "properties": {
        "record": "BA-202605270",
        "address": "1728 HOMESTEAD AVE NE, ATLANTA GA 30306",
        "status": "ACA Pending",
        "date": "10/08/2026",
        "description": null,
        "owner": "ALEXANDRE WATINE",
        "tree_dbh": "26",
        "tree_location": "Backyard, approximately 4 feet from the residence",
        "reason_removal": "Other",
        "tree_description": "large mature pine located approximately 4 ft from the residence",
        "tree_number": "1",
        "species": "Pine",
        "comments": "large mature pine located approximately 4 feet from the residence. The arborist observed that the tree's roots extend beneath the patio, are lifting the stone pavers, and are contributing to movement/settlement of the adjacent low retaining wall. removal is requested due to the tree's extreme proximity to the residence and the ongoing structural/hardscape impact from the root system.",
        "tree_count": 2,
        "trees": [
          {
            "tree_number": "1",
            "species": "Pine",
            "tree_dbh": "26",
            "tree_location": "Backyard, approximately 4 feet from the residence",
            "tree_description": "large mature pine located approximately 4 ft from the residence",
            "reason_removal": "Other",
            "comments": "large mature pine located approximately 4 feet from the residence. The arborist observed that the tree's roots extend beneath the patio, are lifting the stone pavers, and are contributing to movement/settlement of the adjacent low retaining wall. removal is requested due to the tree's extreme proximity to the residence and the ongoing structural/hardscape impact from the root system."
          },
          {
            "tree_number": "2",
            "species": "Hickory",
            "tree_dbh": "23",
            "tree_location": "front yard",
            "tree_description": "mature hickory tree with visible cavity/decay at the base of the trunk and deterioration around the root flare",
            "reason_removal": "Significant cavity/area of decay",
            "comments": "arborist observed deterioration and a cavity at the base of the trunk and expressed concern about possible root decay and reduced structural stability"
          }
        ]
      },
      "geometry": {
        "type": "Point",
        "coordinates": [
          -84.347998829982,
          33.801661816855
        ]
      }
    },
    {
      "type": "Feature",
      "properties": {
        "record": "BA-202605256",
        "address": "839 CARDOVA DR NE, ATLANTA GA 30324",
        "status": "ACA Pending",
        "date": "10/08/2026",
        "description": null,
        "owner": "CDSI INV INC",
        "tree_dbh": "25",
        "tree_location": "behind house near storage shed",
        "reason_removal": "Other",
        "tree_description": "25\" Pine, behind house near storage shed, causing damage to retaining wall and storage shed foundation",
        "tree_number": "1",
        "species": "Pine",
        "comments": "25\" Pine, behind house near storage shed, causing damage to retaining wall and storage shed foundation",
        "tree_count": 1,
        "trees": [
          {
            "tree_number": "1",
            "species": "Pine",
            "tree_dbh": "25",
            "tree_location": "behind house near storage shed",
            "tree_description": "25\" Pine, behind house near storage shed, causing damage to retaining wall and storage shed foundation",
            "reason_removal": "Other",
            "comments": "25\" Pine, behind house near storage shed, causing damage to retaining wall and storage shed foundation"
          }
        ]
      },
      "geometry": {
        "type": "Point",
        "coordinates": [
          -84.360328074153,
          33.816674234368
        ]
      }
    },
    {
      "type": "Feature",
      "properties": {
        "record": "BA-202605268",
        "address": "139 WEST LAKE AVE NW, ATLANTA GA 30314",
        "status": "ACA Pending",
        "date": "10/08/2026",
        "description": null,
        "owner": null,
        "tree_dbh": null,
        "tree_location": null,
        "reason_removal": null,
        "tree_description": null,
        "tree_number": null,
        "species": null,
        "comments": null,
        "tree_count": null,
        "trees": null
      },
      "geometry": {
        "type": "Point",
        "coordinates": [
          -84.444198804116,
          33.757858800508
        ]
      }
    },
    {
      "type": "Feature",
      "properties": {
        "record": "BA-202605272",
        "address": "1344 LA FRANCE ST NE, ATLANTA GA 30307",
        "status": "ACA Pending",
        "date": "10/08/2026",
        "description": null,
        "owner": "BROAD FIELDS INC",
        "tree_dbh": "22",
        "tree_location": "right side of home",
        "reason_removal": "Dead tree",
        "tree_description": null,
        "tree_number": "1",
        "species": "hardwood",
        "comments": null,
        "tree_count": 1,
        "trees": [
          {
            "tree_number": "1",
            "species": "hardwood",
            "tree_dbh": "22",
            "tree_location": "right side of home",
            "tree_description": null,
            "reason_removal": "Dead tree",
            "comments": null
          }
        ]
      },
      "geometry": {
        "type": "Point",
        "coordinates": [
          -84.343603367075,
          33.760451923801
        ]
      }
    },
    {
      "type": "Feature",
      "properties": {
        "record": "BA-202605273",
        "address": "575 JONES AVE NW, ATLANTA GA 30314",
        "status": "ACA Pending",
        "date": "10/08/2026",
        "description": null,
        "owner": null,
        "tree_dbh": null,
        "tree_location": null,
        "reason_removal": null,
        "tree_description": null,
        "tree_number": null,
        "species": null,
        "comments": null,
        "tree_count": null,
        "trees": null
      },
      "geometry": {
        "type": "Point",
        "coordinates": [
          -84.40626487066,
          33.764315858767
        ]
      }
    },
    {
      "type": "Feature",
      "properties": {
        "record": "BA-202605262",
        "address": "393 DEERING RD NW, ATLANTA GA 30309",
        "status": "ACA Pending",
        "date": "10/08/2026",
        "description": null,
        "owner": null,
        "tree_dbh": "26",
        "tree_location": "back yard",
        "reason_removal": "Dead tree",
        "tree_description": "Dead Magnolia in the back center of the backyard.",
        "tree_number": "1",
        "species": "Magnolia",
        "comments": null,
        "tree_count": 6,
        "trees": [
          {
            "tree_number": "1",
            "species": "Magnolia",
            "tree_dbh": "26",
            "tree_location": "back yard",
            "tree_description": "Dead Magnolia in the back center of the backyard.",
            "reason_removal": "Dead tree",
            "comments": null
          },
          {
            "tree_number": "2",
            "species": "Water Oak",
            "tree_dbh": "24",
            "tree_location": "Back left corner of house.",
            "tree_description": "Hazardous Water Oak growing extremely close to house with a lean on fence and towards house.",
            "reason_removal": "Other",
            "comments": null
          },
          {
            "tree_number": "3",
            "species": "Water Oak",
            "tree_dbh": "24",
            "tree_location": "backyard along fence line.",
            "tree_description": "1 of 2 Water Oaks growing on fence line, between properties, damaging fence and property.",
            "reason_removal": "Other",
            "comments": null
          },
          {
            "tree_number": "4",
            "species": "Water Oak",
            "tree_dbh": "24",
            "tree_location": "backyard along fence line.",
            "tree_description": "2 of 2 Water Oaks growing on fence line, between properties, damaging fence and property.",
            "reason_removal": "Other",
            "comments": null
          },
          {
            "tree_number": "5",
            "species": "Black Walnut",
            "tree_dbh": "12",
            "tree_location": "Backyard",
            "tree_description": "1 of 2 Black Walnut trees growing along fence line in backyard.",
            "reason_removal": "Dying tree",
            "comments": "Damaging neighbor's garage."
          },
          {
            "tree_number": "6",
            "species": "Black Walnut",
            "tree_dbh": "6",
            "tree_location": "Backyard.",
            "tree_description": "2 of 2 Black Walnut trees growing along fence line in backyard.",
            "reason_removal": "Dying tree",
            "comments": "Damaging neighbor's garage."
          }
        ]
      },
      "geometry": {
        "type": "Point",
        "coordinates": [
          -84.400876673237,
          33.796242307023
        ]
      }
    },
    {
      "type": "Feature",
      "properties": {
        "record": "BA-202605261",
        "address": "2488 DELLWOOD DR NW, ATLANTA GA 30305",
        "status": "ACA Pending",
        "date": "10/08/2026",
        "description": null,
        "owner": "Matthew Bean",
        "tree_dbh": "30",
        "tree_location": "Left side of front yard",
        "reason_removal": "Uncorrectable defect",
        "tree_description": "Tree has extensive tip die back throughout the entire upper canopy. The decline is beyond what pruning and/or soil care could reasonably be expected to cure.",
        "tree_number": "1",
        "species": "Maple",
        "comments": "Pink tape",
        "tree_count": 1,
        "trees": [
          {
            "tree_number": "1",
            "species": "Maple",
            "tree_dbh": "30",
            "tree_location": "Left side of front yard",
            "tree_description": "Tree has extensive tip die back throughout the entire upper canopy. The decline is beyond what pruning and/or soil care could reasonably be expected to cure.",
            "reason_removal": "Uncorrectable defect",
            "comments": "Pink tape"
          }
        ]
      },
      "geometry": {
        "type": "Point",
        "coordinates": [
          -84.398306780434,
          33.823167605534
        ]
      }
    },
    {
      "type": "Feature",
      "properties": {
        "record": "BA-202605260",
        "address": "3455 PACES FOREST RD NW, ATLANTA GA 30327",
        "status": "Accepted",
        "date": "10/08/2026",
        "description": null,
        "owner": "HUNDLEY RACHEL",
        "tree_dbh": "28",
        "tree_location": "right side drive in holly hedge",
        "reason_removal": "Other",
        "tree_description": "28\" Pine, right side drive, in holly hedge, in decline",
        "tree_number": "1",
        "species": "Pine",
        "comments": "28\" Pine, right side drive, in holly hedge, in decline",
        "tree_count": 2,
        "trees": [
          {
            "tree_number": "1",
            "species": "Pine",
            "tree_dbh": "28",
            "tree_location": "right side drive in holly hedge",
            "tree_description": "28\" Pine, right side drive, in holly hedge, in decline",
            "reason_removal": "Other",
            "comments": "28\" Pine, right side drive, in holly hedge, in decline"
          },
          {
            "tree_number": "2",
            "species": "Pine",
            "tree_dbh": "24",
            "tree_location": "right side of drive closer to street",
            "tree_description": "24\" Pine, right side drive, closer to street, in decline",
            "reason_removal": "Other",
            "comments": "24\" Pine, right side drive, closer to street, in decline"
          }
        ]
      },
      "geometry": {
        "type": "Point",
        "coordinates": [
          -84.424967918339,
          33.849561378483
        ]
      }
    },
    {
      "type": "Feature",
      "properties": {
        "record": "BA-202605253",
        "address": "1999 BAKER RD NW, ATLANTA GA 30318",
        "status": "ACA Pending",
        "date": "10/08/2026",
        "description": null,
        "owner": "Joseph Redding",
        "tree_dbh": "10",
        "tree_location": "end of the driveway",
        "reason_removal": "Uncorrectable defect",
        "tree_description": "Dangerous Leaning tree towards the driveway",
        "tree_number": "1",
        "species": "Oak",
        "comments": null,
        "tree_count": 1,
        "trees": [
          {
            "tree_number": "1",
            "species": "Oak",
            "tree_dbh": "10",
            "tree_location": "end of the driveway",
            "tree_description": "Dangerous Leaning tree towards the driveway",
            "reason_removal": "Uncorrectable defect",
            "comments": null
          }
        ]
      },
      "geometry": {
        "type": "Point",
        "coordinates": [
          -84.452342340278,
          33.770166047331
        ]
      }
    },
    {
      "type": "Feature",
      "properties": {
        "record": "BA-202605266",
        "address": "190 BOLLING RD NE, ATLANTA GA 30305",
        "status": "ACA Pending",
        "date": "10/08/2026",
        "description": null,
        "owner": null,
        "tree_dbh": null,
        "tree_location": null,
        "reason_removal": null,
        "tree_description": null,
        "tree_number": null,
        "species": null,
        "comments": null,
        "tree_count": null,
        "trees": null
      },
      "geometry": {
        "type": "Point",
        "coordinates": [
          -84.380144077368,
          33.829696964456
        ]
      }
    },
    {
      "type": "Feature",
      "properties": {
        "record": "BA-202605277",
        "address": "166 HILLTOP DR SW, ATLANTA GA 0",
        "status": "ACA Pending",
        "date": "10/08/2026",
        "description": null,
        "owner": null,
        "tree_dbh": "25",
        "tree_location": "Left of the driveway",
        "reason_removal": "Other",
        "tree_description": "Tree is danger of falling",
        "tree_number": "2",
        "species": "Pine",
        "comments": null,
        "tree_count": 8,
        "trees": [
          {
            "tree_number": "2",
            "species": "Pine",
            "tree_dbh": "25",
            "tree_location": "Left of the driveway",
            "tree_description": "Tree is danger of falling",
            "reason_removal": "Other",
            "comments": null
          },
          {
            "tree_number": "3",
            "species": "Pine",
            "tree_dbh": "24",
            "tree_location": "Front right of the driveway",
            "tree_description": "Pine",
            "reason_removal": "Other",
            "comments": "Danger of falling"
          },
          {
            "tree_number": "4",
            "species": "Pine",
            "tree_dbh": "20",
            "tree_location": "Front right of house",
            "tree_description": "Pine",
            "reason_removal": "Other",
            "comments": "Branches falling on the house"
          },
          {
            "tree_number": "5",
            "species": "Pine",
            "tree_dbh": "20",
            "tree_location": "Right side of the house",
            "tree_description": "Pine",
            "reason_removal": "Dead tree",
            "comments": "Risk of falling"
          },
          {
            "tree_number": "6",
            "species": "Water Oak",
            "tree_dbh": "31",
            "tree_location": "Right corner of the house",
            "tree_description": "Oak",
            "reason_removal": "Other",
            "comments": "Damage to the house foundation"
          },
          {
            "tree_number": "7",
            "species": "Sweet Gum",
            "tree_dbh": "39",
            "tree_location": "Front left side of the house",
            "tree_description": "Sweet Gum",
            "reason_removal": "Dead tree",
            "comments": "Risk of falling"
          },
          {
            "tree_number": "8",
            "species": "Red Tip",
            "tree_dbh": "9",
            "tree_location": "Left front of the house",
            "tree_description": "Red Tip",
            "reason_removal": "Other",
            "comments": "Tree is in the power line"
          },
          {
            "tree_number": "1",
            "species": "Pine",
            "tree_dbh": "17",
            "tree_location": "Front of the house",
            "tree_description": "Pine",
            "reason_removal": "Dead tree",
            "comments": "Risk of falling"
          }
        ]
      },
      "geometry": {
        "type": "Point",
        "coordinates": [
          -84.395086046312,
          33.698972890755
        ]
      }
    },
    {
      "type": "Feature",
      "properties": {
        "record": "BA-202605265",
        "address": "778 EDGEWOOD AVE NE, ATLANTA GA 30307",
        "status": "ACA Pending",
        "date": "10/08/2026",
        "description": null,
        "owner": "BARROW IAN E",
        "tree_dbh": "58",
        "tree_location": "back yard",
        "reason_removal": "Other",
        "tree_description": "lost a very large limb in late summer storm",
        "tree_number": "1",
        "species": "oak",
        "comments": null,
        "tree_count": 2,
        "trees": [
          {
            "tree_number": "1",
            "species": "oak",
            "tree_dbh": "58",
            "tree_location": "back yard",
            "tree_description": "lost a very large limb in late summer storm",
            "reason_removal": "Other",
            "comments": null
          },
          {
            "tree_number": "2",
            "species": "oak?",
            "tree_dbh": "40",
            "tree_location": "left fenceline",
            "tree_description": "straddles fence",
            "reason_removal": "Other",
            "comments": "lots of overhang"
          }
        ]
      },
      "geometry": {
        "type": "Point",
        "coordinates": [
          -84.362084306938,
          33.755139755767
        ]
      }
    },
    {
      "type": "Feature",
      "properties": {
        "record": "BA-202605263",
        "address": "1110 WEDGEWOOD DR NW, ATLANTA GA 30318",
        "status": "ACA Pending",
        "date": "10/08/2026",
        "description": null,
        "owner": null,
        "tree_dbh": null,
        "tree_location": null,
        "reason_removal": null,
        "tree_description": null,
        "tree_number": null,
        "species": null,
        "comments": null,
        "tree_count": null,
        "trees": null
      },
      "geometry": {
        "type": "Point",
        "coordinates": [
          -84.475866178244,
          33.785664760088
        ]
      }
    },
    {
      "type": "Feature",
      "properties": {
        "record": "BA-202605249",
        "address": "2355 HOWELL MILL RD NW, ATLANTA GA 30318",
        "status": "ACA Pending",
        "date": "10/08/2026",
        "description": null,
        "owner": "PETERS SUZANNE F",
        "tree_dbh": "32",
        "tree_location": "Front left of property",
        "reason_removal": "Other",
        "tree_description": "Large Pine losing large branches",
        "tree_number": "1",
        "species": "Pine",
        "comments": "Tree is losing large branches and is close to house and neighbors driveway. Homeowner is worried about house damage or someone getting hurt from a falling branch",
        "tree_count": 1,
        "trees": [
          {
            "tree_number": "1",
            "species": "Pine",
            "tree_dbh": "32",
            "tree_location": "Front left of property",
            "tree_description": "Large Pine losing large branches",
            "reason_removal": "Other",
            "comments": "Tree is losing large branches and is close to house and neighbors driveway. Homeowner is worried about house damage or someone getting hurt from a falling branch"
          }
        ]
      },
      "geometry": {
        "type": "Point",
        "coordinates": [
          -84.416520021795,
          33.82012458829
        ]
      }
    },
    {
      "type": "Feature",
      "properties": {
        "record": "BA-202605250",
        "address": "1051 DELAWARE AVE SE, ATLANTA GA 30316",
        "status": "ACA Pending",
        "date": "10/08/2026",
        "description": null,
        "owner": "VANDIVER JEFFREY",
        "tree_dbh": "23",
        "tree_location": "Right side of backyard",
        "reason_removal": "Other",
        "tree_description": "Tree has been dropping branches and damaging neighbors property and a branch has fallen and hit their dog",
        "tree_number": "1",
        "species": "Pecan",
        "comments": "Tree has been dropping branches and damaging neighbors property and a branch has fallen and hit their dog. Neighbor is very concerned about the tree continuing to damage their property.",
        "tree_count": 1,
        "trees": [
          {
            "tree_number": "1",
            "species": "Pecan",
            "tree_dbh": "23",
            "tree_location": "Right side of backyard",
            "tree_description": "Tree has been dropping branches and damaging neighbors property and a branch has fallen and hit their dog",
            "reason_removal": "Other",
            "comments": "Tree has been dropping branches and damaging neighbors property and a branch has fallen and hit their dog. Neighbor is very concerned about the tree continuing to damage their property."
          }
        ]
      },
      "geometry": {
        "type": "Point",
        "coordinates": [
          -84.35302397772,
          33.731218819888
        ]
      }
    },
    {
      "type": "Feature",
      "properties": {
        "record": "BA-202605251",
        "address": "2735 NORTH HILLS DR NE, ATLANTA GA 30305",
        "status": "ACA Pending",
        "date": "10/08/2026",
        "description": null,
        "owner": null,
        "tree_dbh": "12",
        "tree_location": "back left corner.",
        "reason_removal": "Other",
        "tree_description": "Picture of tree",
        "tree_number": "1",
        "species": "Maple",
        "comments": "Cracked- Received Authorization via email to remove tree from Paul Hester",
        "tree_count": 2,
        "trees": [
          {
            "tree_number": "1",
            "species": "Maple",
            "tree_dbh": "12",
            "tree_location": "back left corner.",
            "tree_description": "Picture of tree",
            "reason_removal": "Other",
            "comments": "Cracked- Received Authorization via email to remove tree from Paul Hester"
          },
          {
            "tree_number": "2",
            "species": "Maple",
            "tree_dbh": "12",
            "tree_location": "Back left corner",
            "tree_description": "Picture of tree",
            "reason_removal": "Significant cavity/area of decay",
            "comments": "Received Authorization via email to remove tree from Paul Hester"
          }
        ]
      },
      "geometry": {
        "type": "Point",
        "coordinates": [
          -84.372941185313,
          33.829733867349
        ]
      }
    },
    {
      "type": "Feature",
      "properties": {
        "record": "26TMP-066720",
        "address": "91 LAKEVIEW DR NE, ATLANTA GA 30317",
        "status": "",
        "date": "10/08/2026",
        "description": null,
        "owner": null,
        "tree_dbh": null,
        "tree_location": null,
        "reason_removal": null,
        "tree_description": null,
        "tree_number": null,
        "species": null,
        "comments": null,
        "tree_count": null,
        "trees": null
      },
      "geometry": {
        "type": "Point",
        "coordinates": [
          -84.311782096017,
          33.754154493451
        ]
      }
    },
    {
      "type": "Feature",
      "properties": {
        "record": "BA-202605271",
        "address": "2791 VALLEY HEART DR NW, ATLANTA GA 30318",
        "status": "ACA Pending",
        "date": "10/08/2026",
        "description": null,
        "owner": "SIMS VERA J",
        "tree_dbh": "29",
        "tree_location": "back rs of home",
        "reason_removal": "Other",
        "tree_description": "colonized by ants/termites",
        "tree_number": "1",
        "species": "oak",
        "comments": null,
        "tree_count": 3,
        "trees": [
          {
            "tree_number": "1",
            "species": "oak",
            "tree_dbh": "29",
            "tree_location": "back rs of home",
            "tree_description": "colonized by ants/termites",
            "reason_removal": "Other",
            "comments": null
          },
          {
            "tree_number": "2",
            "species": "sweet gum",
            "tree_dbh": "13",
            "tree_location": "back right s of home",
            "tree_description": "dead",
            "reason_removal": "Dead tree",
            "comments": null
          },
          {
            "tree_number": "3",
            "species": "sweet gum",
            "tree_dbh": "24.5",
            "tree_location": "front corner",
            "tree_description": "dead and hanging over house and service linres to property and neighboring properties",
            "reason_removal": "Other",
            "comments": null
          }
        ]
      },
      "geometry": {
        "type": "Point",
        "coordinates": [
          -84.479581346045,
          33.762880302534
        ]
      }
    },
    {
      "type": "Feature",
      "properties": {
        "record": "BA-202605257",
        "address": "4346 HARRIS TRL NW, ATLANTA GA 30327",
        "status": "Accepted",
        "date": "10/08/2026",
        "description": null,
        "owner": null,
        "tree_dbh": "32.4",
        "tree_location": "As facing the house, the tree is on the right toward the front of the house",
        "reason_removal": "Dying tree",
        "tree_description": "Large tree next to the house. It is leaning and has a decaying area about 20 feet up. It recently lost several branches",
        "tree_number": "1",
        "species": "White Beech?",
        "comments": null,
        "tree_count": 1,
        "trees": [
          {
            "tree_number": "1",
            "species": "White Beech?",
            "tree_dbh": "32.4",
            "tree_location": "As facing the house, the tree is on the right toward the front of the house",
            "tree_description": "Large tree next to the house. It is leaning and has a decaying area about 20 feet up. It recently lost several branches",
            "reason_removal": "Dying tree",
            "comments": null
          }
        ]
      },
      "geometry": {
        "type": "Point",
        "coordinates": [
          -84.43465960288,
          33.874417319195
        ]
      }
    },
    {
      "type": "Feature",
      "properties": {
        "record": "BA-202605258",
        "address": "820 FAIRBURN RD SW, ATLANTA GA 30331",
        "status": "Issued",
        "date": "10/08/2026",
        "description": "DDH",
        "owner": "PVP STORAGE LLP",
        "tree_dbh": null,
        "tree_location": null,
        "reason_removal": null,
        "tree_description": null,
        "tree_number": null,
        "species": null,
        "comments": null,
        "tree_count": null,
        "trees": null
      },
      "geometry": {
        "type": "Point",
        "coordinates": [
          -84.510086105234,
          33.732430639128
        ]
      }
    }
  ]
}