{
  "type": "FeatureCollection",
  "features": [
    {
      "type": "Feature",
      "properties": {
        "record": "BA-202604636",
        "address": "1379 AVON AVE SW, ATLANTA GA 30310",
        "status": "Accepted",
        "date": "09/14/2026",
        "description": null,
        "owner": "Camille H Sears",
        "tree_dbh": "12",
        "tree_location": "Back yard",
        "reason_removal": "Dead tree",
        "tree_description": "I cut base of invasive vining.  Tree now has no foliage in canopy and the base appears to have withered significantly. Reason for Removal:Dead treeComments:Tree is between 2 houses and if it fails can pose significant damage to several homes\n\t\t\n\t\n\t\n                                \n                            \n                        \n                    \n                        \n                            \n                                \n                                    \n                                        \n                                         Parcel Information\n                                \n                            \n                            \n                                \n                                    \n\t\tParcel Number:14 01380005186 *Block:--Lot:--Subdivision:--",
        "tree_number": "1",
        "species": "White Oak or Sweet gum"
      },
      "geometry": {
        "type": "Point",
        "coordinates": [
          -84.433148353875,
          33.722470729915
        ]
      }
    },
    {
      "type": "Feature",
      "properties": {
        "record": "BA-202604630",
        "address": "4495 CLUB VALLEY DR NE, ATLANTA GA 30319",
        "status": "Accepted",
        "date": "09/14/2026",
        "description": null,
        "owner": null,
        "tree_dbh": "20",
        "tree_location": "rear center",
        "reason_removal": "Diseased",
        "tree_description": "Tagged",
        "tree_number": "1",
        "species": "Pine"
      },
      "geometry": {
        "type": "Point",
        "coordinates": [
          -84.353031361443,
          33.877723016293
        ]
      }
    },
    {
      "type": "Feature",
      "properties": {
        "record": "26TMP-060434",
        "address": "962 BOULEVARD SE, ATLANTA GA 30312",
        "status": "",
        "date": "09/14/2026",
        "description": null,
        "owner": null,
        "tree_dbh": null,
        "tree_location": null,
        "reason_removal": null,
        "tree_description": null,
        "tree_number": null,
        "species": null
      },
      "geometry": {
        "type": "Point",
        "coordinates": [
          -84.368324068055,
          33.72818312927
        ]
      }
    },
    {
      "type": "Feature",
      "properties": {
        "record": "BA-202604620",
        "address": "762 LORIDANS DR NE, ATLANTA GA 30342",
        "status": "Accepted",
        "date": "09/14/2026",
        "description": null,
        "owner": "Russell and Mollie Ann Holland",
        "tree_dbh": "22",
        "tree_location": "front right",
        "reason_removal": "Dying tree",
        "tree_description": null,
        "tree_number": "1",
        "species": "pine"
      },
      "geometry": {
        "type": "Point",
        "coordinates": [
          -84.362209333741,
          33.873349044123
        ]
      }
    },
    {
      "type": "Feature",
      "properties": {
        "record": "BA-202604643",
        "address": "217 THE PRADO NE, ATLANTA GA 30309",
        "status": "ACA Pending",
        "date": "09/14/2026",
        "description": null,
        "owner": "CHANDLER DOROTHY D",
        "tree_dbh": "20",
        "tree_location": "front yard",
        "reason_removal": "Dead tree",
        "tree_description": null,
        "tree_number": "1",
        "species": "maple"
      },
      "geometry": {
        "type": "Point",
        "coordinates": [
          -84.380858139029,
          33.795216578812
        ]
      }
    },
    {
      "type": "Feature",
      "properties": {
        "record": "BA-202604639",
        "address": "2575 WOODWARD WAY NW, ATLANTA GA 30305",
        "status": "Accepted",
        "date": "09/14/2026",
        "description": null,
        "owner": "HILLIARD HEATHER P",
        "tree_dbh": "30",
        "tree_location": "Left side of backyard",
        "reason_removal": "Dying tree",
        "tree_description": "Dying Reason for Removal:Dying tree\n\t\t\n\t\n\t\n                                \n                            \n                        \n                    \n                        \n                            \n                                \n                                    \n                                        \n                                         Parcel Information\n                                \n                            \n                            \n                                \n                                    \n\t\tParcel Number:17 01120001014 *Block:--Lot:--Subdivision:--",
        "tree_number": "1",
        "species": "White Oak"
      },
      "geometry": {
        "type": "Point",
        "coordinates": [
          -84.395829688575,
          33.82574180721
        ]
      }
    },
    {
      "type": "Feature",
      "properties": {
        "record": "BA-202604640",
        "address": "1917 ARDMORE RD NW, ATLANTA GA 30309",
        "status": "Accepted",
        "date": "09/14/2026",
        "description": null,
        "owner": "SCHACHNER ELIZABETH M",
        "tree_dbh": "44",
        "tree_location": "by main door",
        "reason_removal": "Diseased",
        "tree_description": "44\" White Oak, by main door, Declining, Visible root rot fungus at baseReason for Removal:DiseasedComments:44\" White Oak, by main door, Declining, Visible root rot fungus at base\n\t\t\n\t\n\t\n                                \n                            \n                        \n                    \n                        \n                            \n                                \n                                    \n                                        \n                                         Parcel Information\n                                \n                            \n                            \n                                \n                                    \n\t\tParcel Number:17 01100002006 *Block:--Lot:--Subdivision:--",
        "tree_number": "1",
        "species": "White Oak"
      },
      "geometry": {
        "type": "Point",
        "coordinates": [
          -84.398690424069,
          33.807060764971
        ]
      }
    },
    {
      "type": "Feature",
      "properties": {
        "record": "26TMP-060281",
        "address": "987 FLEETWOOD CIR SW, ATLANTA GA 30311",
        "status": "",
        "date": "09/14/2026",
        "description": null,
        "owner": null,
        "tree_dbh": null,
        "tree_location": null,
        "reason_removal": null,
        "tree_description": null,
        "tree_number": null,
        "species": null
      },
      "geometry": {
        "type": "Point",
        "coordinates": [
          -84.460162627987,
          33.73769430669
        ]
      }
    },
    {
      "type": "Feature",
      "properties": {
        "record": "BA-202604641",
        "address": "294 ROY ST SW, ATLANTA GA 30310",
        "status": "ACA Pending",
        "date": "09/14/2026",
        "description": null,
        "owner": "John Holmes",
        "tree_dbh": "41",
        "tree_location": "right side of the house",
        "reason_removal": "Significant cavity/area of decay",
        "tree_description": "covered with ivy and cavities on the trunkReason for Removal:Significant cavity/area of decay\n\t\t\n\t\n\t\n                                \n                            \n                        \n                    \n                        \n                            \n                                \n                                    \n                                        \n                                         Parcel Information\n                                \n                            \n                            \n                                \n                                    \n\t\tParcel Number:14 00740008036 *Block:--Lot:--Subdivision:--",
        "tree_number": "1",
        "species": "Oak"
      },
      "geometry": {
        "type": "Point",
        "coordinates": [
          -84.397530407516,
          33.724124275649
        ]
      }
    },
    {
      "type": "Feature",
      "properties": {
        "record": "26TMP-060592",
        "address": "1394 BOULEVARD LORRAINE SW, ATLANTA GA 30311",
        "status": "",
        "date": "09/14/2026",
        "description": null,
        "owner": null,
        "tree_dbh": null,
        "tree_location": null,
        "reason_removal": null,
        "tree_description": null,
        "tree_number": null,
        "species": null
      },
      "geometry": {
        "type": "Point",
        "coordinates": [
          -84.457857569653,
          33.717786667943
        ]
      }
    },
    {
      "type": "Feature",
      "properties": {
        "record": "BA-202604647",
        "address": "895 DEAN DR NW, ATLANTA GA 30318",
        "status": "ACA Pending",
        "date": "09/14/2026",
        "description": null,
        "owner": "Nathan Szoke",
        "tree_dbh": "35",
        "tree_location": "Front yard",
        "reason_removal": "Dying tree",
        "tree_description": "1 large Pine.  Facing house to the left in front yard.  Lightning strike.Reason for Removal:Dying treeComments:Pine tree struck by lightning with beetle infestation.  Top already dying out.  \n\t\t\n\t\n\t\n                                \n                            \n                        \n                    \n                        \n                            \n                                \n                                    \n                                        \n                                         Parcel Information\n                                \n                            \n                            \n                                \n                                    \n\t\tParcel Number:17 01840004010 *Block:--Lot:--Subdivision:--",
        "tree_number": "1",
        "species": "Pine"
      },
      "geometry": {
        "type": "Point",
        "coordinates": [
          -84.418216347808,
          33.819512237512
        ]
      }
    },
    {
      "type": "Feature",
      "properties": {
        "record": "26TMP-060633",
        "address": "2675 ARBOR AVE SE, ATLANTA GA 30317",
        "status": "",
        "date": "09/14/2026",
        "description": null,
        "owner": null,
        "tree_dbh": null,
        "tree_location": null,
        "reason_removal": null,
        "tree_description": null,
        "tree_number": null,
        "species": null
      },
      "geometry": {
        "type": "Point",
        "coordinates": [
          -84.299231878946,
          33.750185459549
        ]
      }
    },
    {
      "type": "Feature",
      "properties": {
        "record": "BA-202604624",
        "address": "3510 KNOLLWOOD DR NW, ATLANTA GA 30305",
        "status": "Accepted",
        "date": "09/14/2026",
        "description": null,
        "owner": "Trasher",
        "tree_dbh": "36",
        "tree_location": "Front right",
        "reason_removal": "Dead tree",
        "tree_description": "Dead T.Poplar next to road in front yard.Reason for Removal:Dead tree\n\t\t\n\t\n\t\n                                \n                            \n                        \n                    \n                        \n                            \n                                \n                                    \n                                        \n                                         Parcel Information\n                                \n                            \n                            \n                                \n                                    \n\t\tParcel Number:17 0115  LL069 *Block:--Lot:--Subdivision:--",
        "tree_number": "1",
        "species": "Poplar"
      },
      "geometry": {
        "type": "Point",
        "coordinates": [
          -84.395692605043,
          33.85099373522
        ]
      }
    },
    {
      "type": "Feature",
      "properties": {
        "record": "BA-202604626",
        "address": "47 2ND AVE SE, ATLANTA GA 30317",
        "status": "Issued",
        "date": "09/14/2026",
        "description": null,
        "owner": "Cara and Jason Pierce",
        "tree_dbh": "15",
        "tree_location": "Backyard",
        "reason_removal": "Uncorrectable defect",
        "tree_description": "Broken central leadReason for Removal:Uncorrectable defect\n\t\t\n\t\n\t\n                                \n                            \n                        \n                    \n                        \n                            \n                                \n                                    \n                                        \n                                         Parcel Information\n                                \n                            \n                            \n                                \n                                    \n\t\tParcel Number:15 204 05 096 *Block:--Lot:--Subdivision:--",
        "tree_number": "1",
        "species": "Elm"
      },
      "geometry": {
        "type": "Point",
        "coordinates": [
          -84.309775838576,
          33.750271437875
        ]
      }
    },
    {
      "type": "Feature",
      "properties": {
        "record": "BA-202604619",
        "address": "2591 HYDE MANOR DR NW, ATLANTA GA 30327",
        "status": "Accepted",
        "date": "09/14/2026",
        "description": null,
        "owner": null,
        "tree_dbh": "15",
        "tree_location": "along front right prop line -",
        "reason_removal": "Other",
        "tree_description": "open cavity - Reason for Removal:Significant cavity/area of decay\n\t\t\n\t\t\n\t\t\tTree number:2Species:pineTree Size (DBH):18Tree location:right front 10 ft from right side of homeDescription of Tree:open cavity 25; upReason for Removal:Dead tree\n\t\t\n\t\t\n\t\t\tTree number:3Species:pineTree Size (DBH):17Tree location:front yard close to houseDescription of Tree:defect Reason for Removal:Significant cavity/area of decay\n\t\t\n\t\t\n\t\t\tTree number:4Species:pineTree Size (DBH):12Tree location:front yardDescription of Tree:defected no needles  - hard to see w canopyReason for Removal:Uncorrectable defect\n\t\t\n\t\t\n\t\t\tTree number:5Species:pineTree Size (DBH):18Tree location:left of driveDescription of Tree:Open cavity 30 ft up in canopyReason for Removal:Significant cavity/area of decay\n\t\t\n\t\t\n\t\t\tTree number:6Species:pineTree Size (DBH):15Tree location:front yardDescription of Tree:lean toward roadReason for Removal:Other\n\t\t\n\t\t\n\t\t\tTree number:7Species:pineTree Size (DBH):20Tree location:front yardDescription of Tree:large cavity 30/40ft upReason for Removal:Significant cavity/area of decay\n\t\t\n\t\t\n\t\t\tTree number:8Species:pineTree Size (DBH):18Tree location:along front right prop line -Description of Tree:severe lean towards roadReason for Removal:Other\n\t\t\n\t\n\t\n                                \n                            \n                        \n                    \n                        \n                            \n                                \n                                    \n                                        \n                                         Parcel Information\n                                \n                            \n                            \n                                \n                                    \n\t\tParcel Number:17 01950007024 *Block:--Lot:--Subdivision:--",
        "tree_number": "1",
        "species": "pine"
      },
      "geometry": {
        "type": "Point",
        "coordinates": [
          -84.43478948745,
          33.825355731511
        ]
      }
    },
    {
      "type": "Feature",
      "properties": {
        "record": "BA-202604615",
        "address": "1853 SUMTER ST NW, ATLANTA GA 30318",
        "status": "Accepted",
        "date": "09/14/2026",
        "description": null,
        "owner": null,
        "tree_dbh": "28",
        "tree_location": "Right side of the driveway",
        "reason_removal": "Dying tree",
        "tree_description": "Remove one large sweetgum on the right side of the driveway, contains a DBH of 28in. The tree itself has been dropping limbs and there is cavity Reason for Removal:Dying tree\n\t\t\n\t\n\t\n                                \n                            \n                        \n                    \n                        \n                            \n                                \n                                    \n                                        \n                                         Parcel Information\n                                \n                            \n                            \n                                \n                                    \n\t\tParcel Number:17 02300006020 *Block:--Lot:--Subdivision:--",
        "tree_number": "1",
        "species": "Oak"
      },
      "geometry": {
        "type": "Point",
        "coordinates": [
          -84.448958826164,
          33.814811699805
        ]
      }
    },
    {
      "type": "Feature",
      "properties": {
        "record": "BA-202604617",
        "address": "1853 SUMTER ST NW, ATLANTA GA 30318",
        "status": "Accepted",
        "date": "09/14/2026",
        "description": null,
        "owner": null,
        "tree_dbh": "28",
        "tree_location": "right side of the driveway",
        "reason_removal": "Significant cavity/area of decay",
        "tree_description": "Tree removalReason for Removal:Significant cavity/area of decay\n\t\t\n\t\n\t\n                                \n                            \n                        \n                    \n                        \n                            \n                                \n                                    \n                                        \n                                         Parcel Information\n                                \n                            \n                            \n                                \n                                    \n\t\tParcel Number:17 02300006020 *Block:--Lot:--Subdivision:--",
        "tree_number": "1",
        "species": "sweetgum"
      },
      "geometry": {
        "type": "Point",
        "coordinates": [
          -84.448958826164,
          33.814811699805
        ]
      }
    },
    {
      "type": "Feature",
      "properties": {
        "record": "BA-202604627",
        "address": "921 COURTENAY DR NE, ATLANTA GA 30306",
        "status": "Accepted",
        "date": "09/14/2026",
        "description": null,
        "owner": null,
        "tree_dbh": "36",
        "tree_location": "back center",
        "reason_removal": "Dying tree",
        "tree_description": "This tree does not have enough live canopy to sustain life. The Sweetgum has low vigor and flux seeping at the base as well as basal decay. Reason for Removal:Dying tree\n\t\t\n\t\n\t\n                                \n                            \n                        \n                    \n                        \n                            \n                                \n                                    \n                                        \n                                         Parcel Information\n                                \n                            \n                            \n                                \n                                    \n\t\tParcel Number:17 00020010008 *Block:--Lot:--Subdivision:--",
        "tree_number": "1",
        "species": "sweetgum"
      },
      "geometry": {
        "type": "Point",
        "coordinates": [
          -84.356693100822,
          33.789874674312
        ]
      }
    },
    {
      "type": "Feature",
      "properties": {
        "record": "BA-202604618",
        "address": "45 VALLEY RD NW, ATLANTA GA 30305",
        "status": "Accepted",
        "date": "09/14/2026",
        "description": null,
        "owner": "WATKINS JOYCE M",
        "tree_dbh": "32",
        "tree_location": "front left of gate",
        "reason_removal": "Uncorrectable defect",
        "tree_description": "This mature loblolly pine exhibits a significant longitudinal trunk defect extending vertically along the lower stem. The affected area contains substantial bark loss, exposed and deteriorated woody tissue, irregular wound closure, and evidence of resin production associated with the damaged area. The defect appears chronic and has resulted in a localized loss of functional trunk tissue and potentially reduced structural integrity of the main stem.",
        "tree_number": "1",
        "species": "Pinus taeda"
      },
      "geometry": {
        "type": "Point",
        "coordinates": [
          -84.389391326335,
          33.849484856771
        ]
      }
    },
    {
      "type": "Feature",
      "properties": {
        "record": "BA-202604633",
        "address": "40 MILDRED PL NW, ATLANTA GA 30318",
        "status": "Accepted",
        "date": "09/14/2026",
        "description": null,
        "owner": "SIMS MAJORS JOYCE RENNELL",
        "tree_dbh": "8",
        "tree_location": "front yard",
        "reason_removal": "Dead tree",
        "tree_description": "dead tree that has not revived after year and a half and keeps getting worse with limbs breaking off constantly and attracting creatures attracted to dead treesReason for Removal:Dead treeComments:would like to remove tree\n\t\t\n\t\n\t\n                                \n                            \n                        \n                    \n                        \n                            \n                                \n                                    \n                                        \n                                         Parcel Information\n                                \n                            \n                            \n                                \n                                    \n\t\tParcel Number:17 02480015006 *Block:--Lot:--Subdivision:--",
        "tree_number": "1",
        "species": "N/A"
      },
      "geometry": {
        "type": "Point",
        "coordinates": [
          -84.456597067051,
          33.779540534364
        ]
      }
    },
    {
      "type": "Feature",
      "properties": {
        "record": "BA-202604635",
        "address": "760 SPRINGLAKE LN NW, ATLANTA GA 30318",
        "status": "Accepted",
        "date": "09/14/2026",
        "description": null,
        "owner": "ROLLINS JEAN R",
        "tree_dbh": "16",
        "tree_location": "Backyard left side",
        "reason_removal": "Uncorrectable defect",
        "tree_description": "Depleted CanopyReason for Removal:Uncorrectable defect\n\t\t\n\t\n\t\n                                \n                            \n                        \n                    \n                        \n                            \n                                \n                                    \n                                        \n                                         Parcel Information\n                                \n                            \n                            \n                                \n                                    \n\t\tParcel Number:17 01530013038 *Block:--Lot:--Subdivision:--",
        "tree_number": "1",
        "species": "Water Oak"
      },
      "geometry": {
        "type": "Point",
        "coordinates": [
          -84.412951444645,
          33.81084422027
        ]
      }
    },
    {
      "type": "Feature",
      "properties": {
        "record": "BA-202604648",
        "address": "19 SARATOGA PL NE, ATLANTA GA 30324",
        "status": "ACA Pending",
        "date": "09/14/2026",
        "description": null,
        "owner": "Jennifer Damis",
        "tree_dbh": "15",
        "tree_location": "Side of yard",
        "reason_removal": "Uncorrectable defect",
        "tree_description": "Kudzu on treeReason for Removal:Dying tree\n\t\t\n\t\t\n\t\t\tTree number:2Species:UnknownTree Size (DBH):16Tree location:BackyardDescription of Tree:KudzuReason for Removal:Dying tree\n\t\t\n\t\t\n\t\t\tTree number:3Species:UnknownTree Size (DBH):24Tree location:Backyard by deckDescription of Tree:Tree looks diseasedReason for Removal:Diseased\n\t\t\n\t\t\n\t\t\tTree number:4Species:UnknownTree Size (DBH):21Tree location:BackyardDescription of Tree:Tree is leaning and looks diseasedReason for Removal:Dying tree\n\t\t\n\t\t\n\t\t\tTree number:5Species:UnknownTree Size (DBH):15Tree location:Side of yardDescription of Tree:Leaning treeReason for Removal:Uncorrectable defect\n\t\t\n\t\n\t\n                                \n                            \n                        \n                    \n                        \n                            \n                                \n                                    \n                                        \n                                         Parcel Information\n                                \n                            \n                            \n                                \n                                    \n\t\tParcel Number:17 00070006025 *Block:--Lot:--Subdivision:--",
        "tree_number": "1",
        "species": "Unknown"
      },
      "geometry": {
        "type": "Point",
        "coordinates": [
          -84.35075888266,
          33.827427105958
        ]
      }
    },
    {
      "type": "Feature",
      "properties": {
        "record": "BA-202604622",
        "address": "525 MARTIN ST SE, ATLANTA GA 00000",
        "status": "Accepted",
        "date": "09/14/2026",
        "description": null,
        "owner": "ROBINSON ANGELA S",
        "tree_dbh": "100",
        "tree_location": "Side of House",
        "reason_removal": "Uncorrectable defect",
        "tree_description": "The tree is located on a hill right next to my house. While the wood does not look rotted, I have lost several huge branches and the root system is visibly curved, the tree is leaning, and the surrounding ground has been completely saturated with water recently. After seeing a neighbor's tree collapse onto a house this past weekend, I am very concerned about potential property damage.Reason for Removal:Uncorrectable defectComments:I do not know what DBH is. The root system is visibly curved, the tree is leaning, and the surrounding ground has been completely saturated with water \n\t\t\n\t\n\t\n                                \n                            \n                        \n                    \n                        \n                            \n                                \n                                    \n                                        \n                                         Parcel Information\n                                \n                            \n                            \n                                \n                                    \n\t\tParcel Number:14 00530007132 *Block:--Lot:--Subdivision:--",
        "tree_number": "1",
        "species": "Huge Tree Curved Root"
      },
      "geometry": {
        "type": "Point",
        "coordinates": [
          -84.384135230132,
          33.740160865318
        ]
      }
    },
    {
      "type": "Feature",
      "properties": {
        "record": "BA-202604644",
        "address": "699 STOVALL BLVD NE, ATLANTA GA 30342",
        "status": "ACA Pending",
        "date": "09/14/2026",
        "description": null,
        "owner": "JOHNS NANCY A",
        "tree_dbh": "20",
        "tree_location": "right side near house",
        "reason_removal": "Significant cavity/area of decay",
        "tree_description": "leaning towards house and weak unionReason for Removal:Significant cavity/area of decay\n\t\t\n\t\n\t\n                                \n                            \n                        \n                    \n                        \n                            \n                                \n                                    \n                                        \n                                         Parcel Information\n                                \n                            \n                            \n                                \n                                    \n\t\tParcel Number:17 00430006004 *Block:--Lot:--Subdivision:--",
        "tree_number": "1",
        "species": "bradford pear"
      },
      "geometry": {
        "type": "Point",
        "coordinates": [
          -84.364304842084,
          33.863166795394
        ]
      }
    },
    {
      "type": "Feature",
      "properties": {
        "record": "BA-202604634",
        "address": "2800 MEMORIAL DR SE, ATLANTA GA 30317",
        "status": "Accepted",
        "date": "09/14/2026",
        "description": null,
        "owner": "Eric Brooks",
        "tree_dbh": "47",
        "tree_location": "Front yard right side",
        "reason_removal": "Uncorrectable defect",
        "tree_description": "Fungal fruiting bodies, die back in the canopy, limbs fallingReason for Removal:Uncorrectable defect\n\t\t\n\t\n\t\n                                \n                            \n                        \n                    \n                        \n                            \n                                \n                                    \n                                        \n                                         Parcel Information\n                                \n                            \n                            \n                                \n                                    \n\t\tParcel Number:15 203 03 148 *Block:--Lot:--Subdivision:--",
        "tree_number": "1",
        "species": "White Oak"
      },
      "geometry": {
        "type": "Point",
        "coordinates": [
          -84.295185507152,
          33.747157605067
        ]
      }
    },
    {
      "type": "Feature",
      "properties": {
        "record": "BA-202604623",
        "address": "8 SCREVEN AVE NE, ATLANTA GA 30307",
        "status": "Accepted",
        "date": "09/14/2026",
        "description": null,
        "owner": "Vincent Fitch",
        "tree_dbh": "25",
        "tree_location": "leaning oak on the right rear",
        "reason_removal": "Uncorrectable defect",
        "tree_description": "Tree removalReason for Removal:Uncorrectable defectComments:codominant tree\n\t\t\n\t\t\n\t\t\tTree number:1Species:oakTree Size (DBH):37Tree location:right side of the propertyDescription of Tree:tree removalReason for Removal:Uncorrectable defectComments:codominant tree\n\t\t\n\t\n\t\n                                \n                            \n                        \n                    \n                        \n                            \n                                \n                                    \n                                        \n                                         Parcel Information\n                                \n                            \n                            \n                                \n                                    \n\t\tParcel Number:15 208 04 018 *Block:--Lot:--Subdivision:--",
        "tree_number": "1",
        "species": "Oak"
      },
      "geometry": {
        "type": "Point",
        "coordinates": [
          -84.348125702566,
          33.753556641294
        ]
      }
    },
    {
      "type": "Feature",
      "properties": {
        "record": "26TMP-060727",
        "address": "2675 ARBOR AVE SE, ATLANTA GA 30317",
        "status": "",
        "date": "09/14/2026",
        "description": null,
        "owner": null,
        "tree_dbh": null,
        "tree_location": null,
        "reason_removal": null,
        "tree_description": null,
        "tree_number": null,
        "species": null
      },
      "geometry": {
        "type": "Point",
        "coordinates": [
          -84.299231878946,
          33.750185459549
        ]
      }
    },
    {
      "type": "Feature",
      "properties": {
        "record": "BA-202604645",
        "address": "1241 CAMPBELLTON PL SW, ATLANTA GA 30310",
        "status": "ACA Pending",
        "date": "09/14/2026",
        "description": null,
        "owner": "JORDAN GAIL V",
        "tree_dbh": "51",
        "tree_location": "Left side of house.",
        "reason_removal": "Diseased",
        "tree_description": "Water Oak at end of anticipated life cycle infected with pathogenic fungus.Reason for Removal:DiseasedComments:Hypoxylon canker visible on fallen limb which is on the ground at the base of the tree and phytophthora on main trunk.\n\t\t\n\t\n\t\n                                \n                            \n                        \n                    \n                        \n                            \n                                \n                                    \n                                        \n                                         Parcel Information\n                                \n                            \n                            \n                                \n                                    \n\t\tParcel Number:14 01370006026 *Block:--Lot:--Subdivision:--",
        "tree_number": "1",
        "species": "Water Oak"
      },
      "geometry": {
        "type": "Point",
        "coordinates": [
          -84.428335122046,
          33.717524433927
        ]
      }
    },
    {
      "type": "Feature",
      "properties": {
        "record": "BA-202604638",
        "address": "643 NORFLEET RD NW, ATLANTA GA 30305",
        "status": "Accepted",
        "date": "09/14/2026",
        "description": null,
        "owner": "FITZSIMMONS SEAN T",
        "tree_dbh": "16",
        "tree_location": "maple on the left front",
        "reason_removal": "Unpermitted destruction",
        "tree_description": "Tree removalReason for Removal:Unpermitted destructionComments:Might destroy pathway if continued to grow.\n\t\t\n\t\n\t\n                                \n                            \n                        \n                    \n                        \n                            \n                                \n                                    \n                                        \n                                         Parcel Information\n                                \n                            \n                            \n                                \n                                    \n\t\tParcel Number:17 01540003030 *Block:--Lot:--Subdivision:--",
        "tree_number": "1",
        "species": "Maple"
      },
      "geometry": {
        "type": "Point",
        "coordinates": [
          -84.409404050471,
          33.812591472219
        ]
      }
    },
    {
      "type": "Feature",
      "properties": {
        "record": "BA-202604614",
        "address": "1849 VENETIAN DR SW, ATLANTA GA 30311",
        "status": "Accepted",
        "date": "09/14/2026",
        "description": null,
        "owner": "SANDERS CALVIN D",
        "tree_dbh": "33",
        "tree_location": "front",
        "reason_removal": "Significant cavity/area of decay",
        "tree_description": null,
        "tree_number": "1",
        "species": "Red maple (Acer rubrum)"
      },
      "geometry": {
        "type": "Point",
        "coordinates": [
          -84.448303001984,
          33.714761113265
        ]
      }
    },
    {
      "type": "Feature",
      "properties": {
        "record": "BA-202604637",
        "address": "151 6TH ST NW, ATLANTA GA 30313",
        "status": "Issued",
        "date": "09/14/2026",
        "description": null,
        "owner": "Georgia Tech",
        "tree_dbh": "36",
        "tree_location": "Behind 151 6th",
        "reason_removal": "Uncorrectable defect",
        "tree_description": "Actively failingReason for Removal:Uncorrectable defect\n\t\t\n\t\n\t\n                                \n                            \n                        \n                    \n                        \n                            \n                                \n                                    \n                                        \n                                         Parcel Information\n                                \n                            \n                            \n                                \n                                    \n\t\tParcel Number:14 00800002001 *Block:--Lot:--Subdivision:--",
        "tree_number": "1",
        "species": "Water Oak"
      },
      "geometry": {
        "type": "Point",
        "coordinates": [
          -84.392859725557,
          33.778220647881
        ]
      }
    },
    {
      "type": "Feature",
      "properties": {
        "record": "BA-202604629",
        "address": "857 WOODLEY DR NW, ATLANTA GA 30318",
        "status": "Accepted",
        "date": "09/14/2026",
        "description": null,
        "owner": "Jesse Nieminen",
        "tree_dbh": "30",
        "tree_location": "near where adjoining driveways meet",
        "reason_removal": "Dying tree",
        "tree_description": null,
        "tree_number": "1",
        "species": "oak"
      },
      "geometry": {
        "type": "Point",
        "coordinates": [
          -84.415629484477,
          33.818556411467
        ]
      }
    },
    {
      "type": "Feature",
      "properties": {
        "record": "BA-202604642",
        "address": "491 HARDENDORF AVE NE, ATLANTA GA 30307",
        "status": "ACA Pending",
        "date": "09/14/2026",
        "description": null,
        "owner": "PRESSMAN ADAM OR PRESSMAN MELISSA",
        "tree_dbh": "28",
        "tree_location": "front right close to intersection",
        "reason_removal": "Significant cavity/area of decay",
        "tree_description": "Codom lead comprising 40% of the canopy has failed.Reason for Removal:Uncorrectable defect\n\t\t\n\t\t\n\t\t\tTree number:2Species:Water oakTree Size (DBH):18Tree location:right sideDescription of Tree:Tree has a lopsided canopy over the roof.Reason for Removal:Uncorrectable defect\n\t\t\n\t\t\n\t\t\tTree number:3Species:Water OakTree Size (DBH):20Tree location:back right sideDescription of Tree:Tree has lopsided canopy over street.Reason for Removal:Uncorrectable defect\n\t\t\n\t\t\n\t\t\tTree number:4Species:Water OakTree Size (DBH):21Tree location:Back right sideDescription of Tree:Codom tree with extreme lean from one lead and cavity 30' along the stem.Reason for Removal:Significant cavity/area of decay\n\t\t\n\t\n\t\n                                \n                            \n                        \n                    \n                        \n                            \n                                \n                                    \n                                        \n                                         Parcel Information\n                                \n                            \n                            \n                                \n                                    \n\t\tParcel Number:15 239 01 129 *Block:--Lot:--Subdivision:--",
        "tree_number": "1",
        "species": "Water Oak"
      },
      "geometry": {
        "type": "Point",
        "coordinates": [
          -84.331768198585,
          33.767755750405
        ]
      }
    },
    {
      "type": "Feature",
      "properties": {
        "record": "BA-202604631",
        "address": "418 SINCLAIR AVE NE, ATLANTA GA 30307",
        "status": "Accepted",
        "date": "09/14/2026",
        "description": null,
        "owner": "Gayle Gross",
        "tree_dbh": "26",
        "tree_location": "Rear Right",
        "reason_removal": "Other",
        "tree_description": null,
        "tree_number": "1",
        "species": "Haardwood"
      },
      "geometry": {
        "type": "Point",
        "coordinates": [
          -84.352594303233,
          33.765876132645
        ]
      }
    },
    {
      "type": "Feature",
      "properties": {
        "record": "26TMP-060542",
        "address": "960 BURNS DR SW, ATLANTA GA 30310",
        "status": "",
        "date": "09/14/2026",
        "description": null,
        "owner": null,
        "tree_dbh": null,
        "tree_location": null,
        "reason_removal": null,
        "tree_description": null,
        "tree_number": null,
        "species": null
      },
      "geometry": {
        "type": "Point",
        "coordinates": [
          -84.419352915916,
          33.711902023107
        ]
      }
    },
    {
      "type": "Feature",
      "properties": {
        "record": "BA-202604613",
        "address": "102 PEACHTREE CIR NE, ATLANTA GA 00000",
        "status": "Accepted",
        "date": "09/14/2026",
        "description": null,
        "owner": null,
        "tree_dbh": "24",
        "tree_location": "back left corner",
        "reason_removal": "Dead tree",
        "tree_description": "One 24\" dead Hackberry located back left corner of propertyReason for Removal:Dead treeComments:One 24\" dead Hackberry located back left corner of property\n\t\t\n\t\n\t\n                                \n                            \n                        \n                    \n                        \n                            \n                                \n                                    \n                                        \n                                         Parcel Information\n                                \n                            \n                            \n                                \n                                    \n\t\tParcel Number:17 01050006033 *Block:--Lot:--Subdivision:--",
        "tree_number": "1",
        "species": "hackberry"
      },
      "geometry": {
        "type": "Point",
        "coordinates": [
          -84.383504258004,
          33.792016713851
        ]
      }
    },
    {
      "type": "Feature",
      "properties": {
        "record": "BA-202604625",
        "address": "4508 CLUB DR NE, ATLANTA GA 30319",
        "status": "Accepted",
        "date": "09/14/2026",
        "description": null,
        "owner": "FAIR MARK G MARTHA R",
        "tree_dbh": "25",
        "tree_location": "front right",
        "reason_removal": "Diseased",
        "tree_description": "Tagged\n*Multiple new beetle pitch tubes\n*Yellowing canopy\n*>20degree lean toward houseReason for Removal:DiseasedComments:*Multiple new beetle pitch tubes\n*Yellowing canopy\n*>20degree lean toward house\n*Multiple limb failures\n\t\t\n\t\n\t\n                                \n                            \n                        \n                    \n                        \n                            \n                                \n                                    \n                                        \n                                         Parcel Information\n                                \n                            \n                            \n                                \n                                    \n\t\tParcel Number:17 00120005036 *Block:--Lot:--Subdivision:--",
        "tree_number": "1",
        "species": "Pine"
      },
      "geometry": {
        "type": "Point",
        "coordinates": [
          -84.352638011127,
          33.876416403151
        ]
      }
    }
  ]
}