{
  "type": "FeatureCollection",
  "features": [
    {
      "type": "Feature",
      "properties": {
        "record": "BA-202604961",
        "address": "1337 FAIRVIEW RD NE, ATLANTA GA 30306",
        "status": "Accepted",
        "date": "09/25/2026",
        "description": null,
        "owner": "Rich and Carrie Lassiter",
        "tree_dbh": "6.7",
        "tree_location": "Front yard",
        "reason_removal": "Dead tree",
        "tree_description": "Multi-stem dogwood in front yard, approx 15 ft tall. Tree is completely dead: no leaves this growing season, bark peeling and splitting at the base, branches are brittle and lichen-covered",
        "tree_number": "1",
        "species": "Dogwood",
        "comments": "Tree died this year and poses a risk of falling toward the sidewalk and street.",
        "tree_count": 1,
        "trees": [
          {
            "tree_number": "1",
            "species": "Dogwood",
            "tree_dbh": "6.7",
            "tree_location": "Front yard",
            "tree_description": "Multi-stem dogwood in front yard, approx 15 ft tall. Tree is completely dead: no leaves this growing season, bark peeling and splitting at the base, branches are brittle and lichen-covered",
            "reason_removal": "Dead tree",
            "comments": "Tree died this year and poses a risk of falling toward the sidewalk and street."
          }
        ]
      },
      "geometry": {
        "type": "Point",
        "coordinates": [
          -84.343454438296,
          33.772695641583
        ]
      }
    },
    {
      "type": "Feature",
      "properties": {
        "record": "BA-202604968",
        "address": "2820 ANDREWS DR NW, ATLANTA GA 30305",
        "status": "Accepted",
        "date": "09/25/2026",
        "description": null,
        "owner": "BAZZLE KENNETH L",
        "tree_dbh": "23",
        "tree_location": "front yard",
        "reason_removal": "Uncorrectable defect",
        "tree_description": "Tree #1 - 23\" DBH post oak tree at the front of the property. The tree has an exaggerated lean in excess of 20 degrees in the direction of the street. Targets include passing cars, pedestrians, and utility lines.",
        "tree_number": "1",
        "species": "post oak",
        "comments": null,
        "tree_count": 4,
        "trees": [
          {
            "tree_number": "1",
            "species": "post oak",
            "tree_dbh": "23",
            "tree_location": "front yard",
            "tree_description": "Tree #1 - 23\" DBH post oak tree at the front of the property. The tree has an exaggerated lean in excess of 20 degrees in the direction of the street. Targets include passing cars, pedestrians, and utility lines.",
            "reason_removal": "Uncorrectable defect",
            "comments": null
          },
          {
            "tree_number": "2",
            "species": "loblolly pine",
            "tree_dbh": "32",
            "tree_location": "front yard",
            "tree_description": "Tree #2 - 32\" DBH pine in front yard. Canker visible ~60 feet up main stem on the side facing the house. Additionally, ~6 foot long canker visible on the left stem above bifurcation.",
            "reason_removal": "Significant cavity/area of decay",
            "comments": null
          },
          {
            "tree_number": "3",
            "species": "American Holly",
            "tree_dbh": "16",
            "tree_location": "front left",
            "tree_description": "16\" dbh American holly tree at front left with co-dominant stems and poor form.",
            "reason_removal": "Uncorrectable defect",
            "comments": null
          },
          {
            "tree_number": "4",
            "species": "hornbeam",
            "tree_dbh": "16",
            "tree_location": "front right",
            "tree_description": "16\" DBH hornbeam at front right with significant area of included bark and bifurcation.",
            "reason_removal": "Uncorrectable defect",
            "comments": null
          }
        ]
      },
      "geometry": {
        "type": "Point",
        "coordinates": [
          -84.388661109511,
          33.83194673223
        ]
      }
    },
    {
      "type": "Feature",
      "properties": {
        "record": "BA-202604960",
        "address": "1235 GRANT ST SE, ATLANTA GA 30315",
        "status": "Accepted",
        "date": "09/25/2026",
        "description": null,
        "owner": null,
        "tree_dbh": "15",
        "tree_location": "BACK YARD",
        "reason_removal": "Dying tree",
        "tree_description": "XLARGE TREE WITH WHOLE IN THE CENTER",
        "tree_number": "1",
        "species": "MAGNIFICENT OAK MAYBE",
        "comments": null,
        "tree_count": 1,
        "trees": [
          {
            "tree_number": "1",
            "species": "MAGNIFICENT OAK MAYBE",
            "tree_dbh": "15",
            "tree_location": "BACK YARD",
            "tree_description": "XLARGE TREE WITH WHOLE IN THE CENTER",
            "reason_removal": "Dying tree",
            "comments": null
          }
        ]
      },
      "geometry": {
        "type": "Point",
        "coordinates": [
          -84.37670910625,
          33.720939917154
        ]
      }
    },
    {
      "type": "Feature",
      "properties": {
        "record": "BA-202604966",
        "address": "2832 LENOX RD NE, ATLANTA GA 30324",
        "status": "Accepted",
        "date": "09/25/2026",
        "description": null,
        "owner": null,
        "tree_dbh": "6",
        "tree_location": "onsite",
        "reason_removal": "Other",
        "tree_description": "DDH BA-202601018",
        "tree_number": "35",
        "species": "mimosa",
        "comments": "see BB-202510868 Site Plan T-1 Remove for permitted structure demolition",
        "tree_count": 5,
        "trees": [
          {
            "tree_number": "35",
            "species": "mimosa",
            "tree_dbh": "6",
            "tree_location": "onsite",
            "tree_description": "DDH BA-202601018",
            "reason_removal": "Other",
            "comments": "see BB-202510868 Site Plan T-1 Remove for permitted structure demolition"
          },
          {
            "tree_number": "36",
            "species": "Mimosa",
            "tree_dbh": "12",
            "tree_location": "Onsite",
            "tree_description": "DDH BA-202601018",
            "reason_removal": "Other",
            "comments": "See BB-202510868 Site Plan T-1 Remove for permitted structure demolition"
          },
          {
            "tree_number": "37",
            "species": "Mimosa",
            "tree_dbh": "6",
            "tree_location": "Onsite",
            "tree_description": "Saved",
            "reason_removal": "Other",
            "comments": "See BB-202510868 Site Plan T-1 Remove for permitted structure demolition"
          },
          {
            "tree_number": "38",
            "species": "Mimosa",
            "tree_dbh": "12",
            "tree_location": "Onsite",
            "tree_description": "DDH BA-202601018",
            "reason_removal": "Other",
            "comments": "See BB-202510868 Site Plan T-1 Remove for permitted structure demolition"
          },
          {
            "tree_number": "39",
            "species": "Holly",
            "tree_dbh": "7",
            "tree_location": "Onsite",
            "tree_description": "Saved",
            "reason_removal": "Other",
            "comments": "See BB-202510868 Site Plan T-1 Remove for permitted structure demolition"
          }
        ]
      },
      "geometry": {
        "type": "Point",
        "coordinates": [
          -84.357146229623,
          33.833197944661
        ]
      }
    },
    {
      "type": "Feature",
      "properties": {
        "record": "BA-202604962",
        "address": "2185 VIRGINIA PL NE, ATLANTA GA 30305",
        "status": "Accepted",
        "date": "09/25/2026",
        "description": null,
        "owner": "Brent Cuddy",
        "tree_dbh": "10",
        "tree_location": "Beside deck",
        "reason_removal": "Invasive/undesirable tree",
        "tree_description": null,
        "tree_number": "1",
        "species": "cherry laurel",
        "comments": null,
        "tree_count": 4,
        "trees": [
          {
            "tree_number": "1",
            "species": "cherry laurel",
            "tree_dbh": "10",
            "tree_location": "Beside deck",
            "tree_description": null,
            "reason_removal": "Invasive/undesirable tree",
            "comments": null
          },
          {
            "tree_number": "1",
            "species": "box elder",
            "tree_dbh": "12",
            "tree_location": "back fence",
            "tree_description": "Tree is by fence in back cornder and it's top has fallen off in the past a",
            "reason_removal": "Uncorrectable defect",
            "comments": null
          },
          {
            "tree_number": "2",
            "species": "box elder",
            "tree_dbh": "14",
            "tree_location": "by fence",
            "tree_description": "trees are back towards fence and on either side of a very tall tree variety I am not sure the type. These trees are crowding the water oak",
            "reason_removal": "Other",
            "comments": null
          },
          {
            "tree_number": "1",
            "species": "unknown",
            "tree_dbh": "16",
            "tree_location": "back fence",
            "tree_description": "This tree is near the water oak and is large and tall. Want opinion if it is too close to water oak",
            "reason_removal": "Other",
            "comments": null
          }
        ]
      },
      "geometry": {
        "type": "Point",
        "coordinates": [
          -84.381624177756,
          33.814545677139
        ]
      }
    },
    {
      "type": "Feature",
      "properties": {
        "record": "BA-202604958",
        "address": "1282 WESLEY PL NW, ATLANTA GA 30327",
        "status": "Accepted",
        "date": "09/25/2026",
        "description": null,
        "owner": null,
        "tree_dbh": "32",
        "tree_location": "back right",
        "reason_removal": "Dying tree",
        "tree_description": "This tree has approximately 40% live canopy. Signs of root rot.",
        "tree_number": "1",
        "species": "WATER oak",
        "comments": null,
        "tree_count": 1,
        "trees": [
          {
            "tree_number": "1",
            "species": "WATER oak",
            "tree_dbh": "32",
            "tree_location": "back right",
            "tree_description": "This tree has approximately 40% live canopy. Signs of root rot.",
            "reason_removal": "Dying tree",
            "comments": null
          }
        ]
      },
      "geometry": {
        "type": "Point",
        "coordinates": [
          -84.430568892491,
          33.835589253036
        ]
      }
    },
    {
      "type": "Feature",
      "properties": {
        "record": "BA-202604945",
        "address": "3082 ARGONNE DR NW, ATLANTA GA 30305",
        "status": "Accepted",
        "date": "09/25/2026",
        "description": null,
        "owner": "BIRD JEAN RODDEY",
        "tree_dbh": "27",
        "tree_location": "Rear left",
        "reason_removal": "Diseased",
        "tree_description": "Kretzschmaria Deusta on the root flare",
        "tree_number": "1",
        "species": "Maple",
        "comments": null,
        "tree_count": 1,
        "trees": [
          {
            "tree_number": "1",
            "species": "Maple",
            "tree_dbh": "27",
            "tree_location": "Rear left",
            "tree_description": "Kretzschmaria Deusta on the root flare",
            "reason_removal": "Diseased",
            "comments": null
          }
        ]
      },
      "geometry": {
        "type": "Point",
        "coordinates": [
          -84.407297659767,
          33.839511736529
        ]
      }
    },
    {
      "type": "Feature",
      "properties": {
        "record": "BA-202604943",
        "address": "341 RHINEHILL RD SE, ATLANTA GA 30315",
        "status": "Accepted",
        "date": "09/25/2026",
        "description": null,
        "owner": "HAMPTON PATRICIA ANN",
        "tree_dbh": "30",
        "tree_location": "front of the house",
        "reason_removal": "Dying tree",
        "tree_description": "dying sweet gum tree with a lot of dead branches on top",
        "tree_number": "1",
        "species": "sweetgum",
        "comments": null,
        "tree_count": 1,
        "trees": [
          {
            "tree_number": "1",
            "species": "sweetgum",
            "tree_dbh": "30",
            "tree_location": "front of the house",
            "tree_description": "dying sweet gum tree with a lot of dead branches on top",
            "reason_removal": "Dying tree",
            "comments": null
          }
        ]
      },
      "geometry": {
        "type": "Point",
        "coordinates": [
          -84.377974801766,
          33.69151648829
        ]
      }
    },
    {
      "type": "Feature",
      "properties": {
        "record": "BA-202604974",
        "address": "1936 SYLVAN RIDGE DR SW, ATLANTA GA 30310",
        "status": "ACA Pending",
        "date": "09/25/2026",
        "description": null,
        "owner": "Taylor April",
        "tree_dbh": "30",
        "tree_location": "backyard near carport",
        "reason_removal": "Diseased",
        "tree_description": "Old pecan tree that I have tried to keep well but noticed it wasn't well and had 4 people look at it to determine best course. I the meanwhile, I have planted 4 saplings on my property",
        "tree_number": "1",
        "species": "pecan",
        "comments": "Tree is leaning now and 3 large limbs have fallen in the last 3 months.",
        "tree_count": 1,
        "trees": [
          {
            "tree_number": "1",
            "species": "pecan",
            "tree_dbh": "30",
            "tree_location": "backyard near carport",
            "tree_description": "Old pecan tree that I have tried to keep well but noticed it wasn't well and had 4 people look at it to determine best course. I the meanwhile, I have planted 4 saplings on my property",
            "reason_removal": "Diseased",
            "comments": "Tree is leaning now and 3 large limbs have fallen in the last 3 months."
          }
        ]
      },
      "geometry": {
        "type": "Point",
        "coordinates": [
          -84.419998197499,
          33.702775907517
        ]
      }
    },
    {
      "type": "Feature",
      "properties": {
        "record": "BA-202604963",
        "address": "491 HARDENDORF AVE NE, ATLANTA GA 30307",
        "status": "Accepted",
        "date": "09/25/2026",
        "description": null,
        "owner": "PRESSMAN ADAM OR PRESSMAN MELISSA",
        "tree_dbh": "18",
        "tree_location": "right side",
        "reason_removal": "Uncorrectable defect",
        "tree_description": "18in Water oak with an extreme lopsided canopy over roof of an occupied structure.",
        "tree_number": "1",
        "species": "Water oak",
        "comments": null,
        "tree_count": 1,
        "trees": [
          {
            "tree_number": "1",
            "species": "Water oak",
            "tree_dbh": "18",
            "tree_location": "right side",
            "tree_description": "18in Water oak with an extreme lopsided canopy over roof of an occupied structure.",
            "reason_removal": "Uncorrectable defect",
            "comments": null
          }
        ]
      },
      "geometry": {
        "type": "Point",
        "coordinates": [
          -84.331768198585,
          33.767755750405
        ]
      }
    },
    {
      "type": "Feature",
      "properties": {
        "record": "BA-202604944",
        "address": "1070 KATHERWOOD DR SW, ATLANTA GA 30310",
        "status": "Accepted",
        "date": "09/25/2026",
        "description": null,
        "owner": "LaShonda Jones",
        "tree_dbh": "8",
        "tree_location": "front yard",
        "reason_removal": "Dead tree",
        "tree_description": null,
        "tree_number": "1",
        "species": "oak",
        "comments": null,
        "tree_count": 1,
        "trees": [
          {
            "tree_number": "1",
            "species": "oak",
            "tree_dbh": "8",
            "tree_location": "front yard",
            "tree_description": null,
            "reason_removal": "Dead tree",
            "comments": null
          }
        ]
      },
      "geometry": {
        "type": "Point",
        "coordinates": [
          -84.423342906988,
          33.70997387844
        ]
      }
    },
    {
      "type": "Feature",
      "properties": {
        "record": "BA-202604947",
        "address": "250 RICHARDSON ST SW, ATLANTA GA 30312",
        "status": "Accepted",
        "date": "09/25/2026",
        "description": null,
        "owner": "HOUSING AUTH CITY OF ATLANTA",
        "tree_dbh": "16",
        "tree_location": "Front middle of lot",
        "reason_removal": "Dead tree",
        "tree_description": "Dead",
        "tree_number": "1",
        "species": "Cedar or Pine",
        "comments": "Orange paint",
        "tree_count": 1,
        "trees": [
          {
            "tree_number": "1",
            "species": "Cedar or Pine",
            "tree_dbh": "16",
            "tree_location": "Front middle of lot",
            "tree_description": "Dead",
            "reason_removal": "Dead tree",
            "comments": "Orange paint"
          }
        ]
      },
      "geometry": {
        "type": "Point",
        "coordinates": [
          -84.395975741647,
          33.740685169982
        ]
      }
    },
    {
      "type": "Feature",
      "properties": {
        "record": "BA-202604977",
        "address": "1870 AVON AVE SW, ATLANTA GA 30311",
        "status": "ACA Pending",
        "date": "09/25/2026",
        "description": null,
        "owner": "Reza Ebrahimi",
        "tree_dbh": "25",
        "tree_location": "Left side of the house",
        "reason_removal": "Uncorrectable defect",
        "tree_description": null,
        "tree_number": "1",
        "species": "Unknown Hardwood",
        "comments": null,
        "tree_count": 1,
        "trees": [
          {
            "tree_number": "1",
            "species": "Unknown Hardwood",
            "tree_dbh": "25",
            "tree_location": "Left side of the house",
            "tree_description": null,
            "reason_removal": "Uncorrectable defect",
            "comments": null
          }
        ]
      },
      "geometry": {
        "type": "Point",
        "coordinates": [
          -84.448830394106,
          33.722486277901
        ]
      }
    },
    {
      "type": "Feature",
      "properties": {
        "record": "BA-202604965",
        "address": "547 SPRING VALLEY RD NW, ATLANTA GA 30318",
        "status": "Accepted",
        "date": "09/25/2026",
        "description": null,
        "owner": "Ryan and Virginia Blank",
        "tree_dbh": "29",
        "tree_location": "Front yard",
        "reason_removal": "Dying tree",
        "tree_description": "Majority of the tree branches are dead and falling off tree. The total tree canopy has less than 50% live vegetation / leaves",
        "tree_number": "0",
        "species": "Cherry",
        "comments": "Tree is located at front corner of property off of Collier Place near front door and front brick sidewalk.",
        "tree_count": 1,
        "trees": [
          {
            "tree_number": "0",
            "species": "Cherry",
            "tree_dbh": "29",
            "tree_location": "Front yard",
            "tree_description": "Majority of the tree branches are dead and falling off tree. The total tree canopy has less than 50% live vegetation / leaves",
            "reason_removal": "Dying tree",
            "comments": "Tree is located at front corner of property off of Collier Place near front door and front brick sidewalk."
          }
        ]
      },
      "geometry": {
        "type": "Point",
        "coordinates": [
          -84.406305180579,
          33.809199694309
        ]
      }
    },
    {
      "type": "Feature",
      "properties": {
        "record": "26TMP-063720",
        "address": "1838 LAKEWOOD TER SE, ATLANTA GA 30315",
        "status": "",
        "date": "09/25/2026",
        "description": null,
        "owner": null,
        "tree_dbh": null,
        "tree_location": null,
        "reason_removal": null,
        "tree_description": null,
        "tree_number": null,
        "species": null,
        "comments": null,
        "tree_count": null,
        "trees": null
      },
      "geometry": {
        "type": "Point",
        "coordinates": [
          -84.379605515951,
          33.703714127447
        ]
      }
    },
    {
      "type": "Feature",
      "properties": {
        "record": "BA-202604975",
        "address": "1278 CAMPBELLTON RD SW, ATLANTA GA 30310",
        "status": "ACA Pending",
        "date": "09/25/2026",
        "description": null,
        "owner": "ACM INVESTMENT GROUP",
        "tree_dbh": "35",
        "tree_location": "BACK RIGHT",
        "reason_removal": "Dying tree",
        "tree_description": "COVERED IN IVY",
        "tree_number": "1",
        "species": "OAK",
        "comments": null,
        "tree_count": 1,
        "trees": [
          {
            "tree_number": "1",
            "species": "OAK",
            "tree_dbh": "35",
            "tree_location": "BACK RIGHT",
            "tree_description": "COVERED IN IVY",
            "reason_removal": "Dying tree",
            "comments": null
          }
        ]
      },
      "geometry": {
        "type": "Point",
        "coordinates": [
          -84.42988096449,
          33.716456275071
        ]
      }
    },
    {
      "type": "Feature",
      "properties": {
        "record": "BA-202604954",
        "address": "1890 WILDWOOD PL NE, ATLANTA GA 30324",
        "status": "Accepted",
        "date": "09/25/2026",
        "description": null,
        "owner": null,
        "tree_dbh": "18",
        "tree_location": "backyard, center",
        "reason_removal": "Dying tree",
        "tree_description": "pine, dying.",
        "tree_number": "1",
        "species": "pine",
        "comments": "we had logan from atlantatreeinspection LLC out to confirm this.",
        "tree_count": 1,
        "trees": [
          {
            "tree_number": "1",
            "species": "pine",
            "tree_dbh": "18",
            "tree_location": "backyard, center",
            "tree_description": "pine, dying.",
            "reason_removal": "Dying tree",
            "comments": "we had logan from atlantatreeinspection LLC out to confirm this."
          }
        ]
      },
      "geometry": {
        "type": "Point",
        "coordinates": [
          -84.362805224298,
          33.805400563632
        ]
      }
    },
    {
      "type": "Feature",
      "properties": {
        "record": "BA-202604973",
        "address": "1051 SOMERSET DR NW, ATLANTA GA 30327",
        "status": "ACA Pending",
        "date": "09/25/2026",
        "description": null,
        "owner": null,
        "tree_dbh": "32",
        "tree_location": "front left",
        "reason_removal": "Uncorrectable defect",
        "tree_description": "One (1) 32\" diameter loblolly pine tree in the front yard. The tree has an exaggerated lean in the direction of the street. The tree begins to lean ~20 degrees 25 feet up the main stem and degree of lean progresses higher up the main stem. It appears as though the root plate is beginning to lift on the back (tension) side of the tree and there is delineation in the soil around the lifting root plate. Additionally, there are numerous visible cankers on the main stem of the trunk on the side facing the street, as captured in photos.",
        "tree_number": "1",
        "species": "pine",
        "comments": null,
        "tree_count": 1,
        "trees": [
          {
            "tree_number": "1",
            "species": "pine",
            "tree_dbh": "32",
            "tree_location": "front left",
            "tree_description": "One (1) 32\" diameter loblolly pine tree in the front yard. The tree has an exaggerated lean in the direction of the street. The tree begins to lean ~20 degrees 25 feet up the main stem and degree of lean progresses higher up the main stem. It appears as though the root plate is beginning to lift on the back (tension) side of the tree and there is delineation in the soil around the lifting root plate. Additionally, there are numerous visible cankers on the main stem of the trunk on the side facing the street, as captured in photos.",
            "reason_removal": "Uncorrectable defect",
            "comments": null
          }
        ]
      },
      "geometry": {
        "type": "Point",
        "coordinates": [
          -84.420709774357,
          33.877465401713
        ]
      }
    },
    {
      "type": "Feature",
      "properties": {
        "record": "BA-202604964",
        "address": "1899 PENELOPE RD NW, ATLANTA GA 30314",
        "status": "Accepted",
        "date": "09/25/2026",
        "description": null,
        "owner": "OSBY ELON B",
        "tree_dbh": "100",
        "tree_location": "At NE corner or property",
        "reason_removal": "Dying tree",
        "tree_description": null,
        "tree_number": "1",
        "species": "Oak",
        "comments": null,
        "tree_count": 6,
        "trees": [
          {
            "tree_number": "1",
            "species": "Oak",
            "tree_dbh": "100",
            "tree_location": "At NE corner or property",
            "tree_description": null,
            "reason_removal": "Dying tree",
            "comments": null
          },
          {
            "tree_number": "2",
            "species": "Oak",
            "tree_dbh": "100",
            "tree_location": "Along driveway",
            "tree_description": null,
            "reason_removal": "Dying tree",
            "comments": null
          },
          {
            "tree_number": "3",
            "species": "Oak",
            "tree_dbh": "100",
            "tree_location": "Curve of driveway",
            "tree_description": null,
            "reason_removal": "Dying tree",
            "comments": null
          },
          {
            "tree_number": "4",
            "species": "Oak",
            "tree_dbh": "100",
            "tree_location": "In back yard",
            "tree_description": "Tree is twisted and leaning.",
            "reason_removal": "Dying tree",
            "comments": "I don't know the size of the tree."
          },
          {
            "tree_number": "5",
            "species": "Oak",
            "tree_dbh": "100",
            "tree_location": "Back yard",
            "tree_description": null,
            "reason_removal": "Dying tree",
            "comments": "I don't know the size of the tree."
          },
          {
            "tree_number": "6",
            "species": "Oak",
            "tree_dbh": "100",
            "tree_location": "Back yard",
            "tree_description": null,
            "reason_removal": "Diseased",
            "comments": null
          }
        ]
      },
      "geometry": {
        "type": "Point",
        "coordinates": [
          -84.449728203938,
          33.75391657844
        ]
      }
    },
    {
      "type": "Feature",
      "properties": {
        "record": "BA-202604949",
        "address": "1138 BOOKER AVE SW, ATLANTA GA 30310",
        "status": "Accepted",
        "date": "09/25/2026",
        "description": null,
        "owner": "SIMS EDDIE L",
        "tree_dbh": "41",
        "tree_location": "left side of the property",
        "reason_removal": "Dying tree",
        "tree_description": "oak tree covered with ivy and cavities on the trunk on the left side of the property",
        "tree_number": "1",
        "species": "Oak",
        "comments": null,
        "tree_count": 1,
        "trees": [
          {
            "tree_number": "1",
            "species": "Oak",
            "tree_dbh": "41",
            "tree_location": "left side of the property",
            "tree_description": "oak tree covered with ivy and cavities on the trunk on the left side of the property",
            "reason_removal": "Dying tree",
            "comments": null
          }
        ]
      },
      "geometry": {
        "type": "Point",
        "coordinates": [
          -84.397532180527,
          33.723365952575
        ]
      }
    },
    {
      "type": "Feature",
      "properties": {
        "record": "BA-202604972",
        "address": "895 SOMERSET DR NW, ATLANTA GA 0",
        "status": "ACA Pending",
        "date": "09/25/2026",
        "description": null,
        "owner": null,
        "tree_dbh": "17",
        "tree_location": "front yard",
        "reason_removal": "Dead tree",
        "tree_description": "17\" hickory tree in the front yard. Tree appears dead.",
        "tree_number": "1",
        "species": "hickory",
        "comments": null,
        "tree_count": 3,
        "trees": [
          {
            "tree_number": "1",
            "species": "hickory",
            "tree_dbh": "17",
            "tree_location": "front yard",
            "tree_description": "17\" hickory tree in the front yard. Tree appears dead.",
            "reason_removal": "Dead tree",
            "comments": null
          },
          {
            "tree_number": "2",
            "species": "tulip poplar",
            "tree_dbh": "12",
            "tree_location": "front left of driveway",
            "tree_description": "Tulip poplar in the front yard, ~12\" in diameter, has a ~3 foot area of decay on the main stem.",
            "reason_removal": "Significant cavity/area of decay",
            "comments": null
          },
          {
            "tree_number": "3",
            "species": "Beech",
            "tree_dbh": "27",
            "tree_location": "front right side",
            "tree_description": "27\" diameter beech tree at the front right side of the driveway. Tree has a significant cavity at the base of the tree.",
            "reason_removal": "Significant cavity/area of decay",
            "comments": null
          }
        ]
      },
      "geometry": {
        "type": "Point",
        "coordinates": [
          -84.417291428316,
          33.877532085703
        ]
      }
    },
    {
      "type": "Feature",
      "properties": {
        "record": "BA-202604976",
        "address": "857 EUCLID AVE NE, ATLANTA GA 30307",
        "status": "ACA Pending",
        "date": "09/25/2026",
        "description": null,
        "owner": "ALFONSO JOSEPH M",
        "tree_dbh": "22",
        "tree_location": "located at the front left of the home.",
        "reason_removal": "Uncorrectable defect",
        "tree_description": "This tree is severely impacting the foundation and pathwalk/driveway. within 5 feet of foundation",
        "tree_number": "1",
        "species": "sugar maple",
        "comments": null,
        "tree_count": 1,
        "trees": [
          {
            "tree_number": "1",
            "species": "sugar maple",
            "tree_dbh": "22",
            "tree_location": "located at the front left of the home.",
            "tree_description": "This tree is severely impacting the foundation and pathwalk/driveway. within 5 feet of foundation",
            "reason_removal": "Uncorrectable defect",
            "comments": null
          }
        ]
      },
      "geometry": {
        "type": "Point",
        "coordinates": [
          -84.358827278964,
          33.756388139752
        ]
      }
    },
    {
      "type": "Feature",
      "properties": {
        "record": "BA-202604970",
        "address": "312 HOME PARK AVE NW, ATLANTA GA 30318",
        "status": "Accepted",
        "date": "09/25/2026",
        "description": null,
        "owner": "GRIFFIN LINDA L",
        "tree_dbh": "8",
        "tree_location": "front yard",
        "reason_removal": "Dead tree",
        "tree_description": "tree appears dead.",
        "tree_number": "1",
        "species": "dogwood",
        "comments": null,
        "tree_count": 2,
        "trees": [
          {
            "tree_number": "1",
            "species": "dogwood",
            "tree_dbh": "8",
            "tree_location": "front yard",
            "tree_description": "tree appears dead.",
            "reason_removal": "Dead tree",
            "comments": null
          },
          {
            "tree_number": "2",
            "species": "dogwood",
            "tree_dbh": "10",
            "tree_location": "front yard",
            "tree_description": "10\" DBH dogwood tree in the front yard. The tree has a significant cavity/area of decay on the main stem.",
            "reason_removal": "Significant cavity/area of decay",
            "comments": null
          }
        ]
      },
      "geometry": {
        "type": "Point",
        "coordinates": [
          -84.39749361405,
          33.782386914323
        ]
      }
    },
    {
      "type": "Feature",
      "properties": {
        "record": "BA-202604971",
        "address": "689 EAST PACES FERRY RD NE, ATLANTA GA 30305",
        "status": "ACA Pending",
        "date": "09/25/2026",
        "description": null,
        "owner": null,
        "tree_dbh": "36",
        "tree_location": "right side of driveway",
        "reason_removal": "Other",
        "tree_description": "36\" Water Oak, right side of driveway, encroaching on driveway with substantial root damage",
        "tree_number": "1",
        "species": "Water Oak",
        "comments": "36\" Water Oak, right side of driveway, encroaching on driveway with substantial root damage",
        "tree_count": 1,
        "trees": [
          {
            "tree_number": "1",
            "species": "Water Oak",
            "tree_dbh": "36",
            "tree_location": "right side of driveway",
            "tree_description": "36\" Water Oak, right side of driveway, encroaching on driveway with substantial root damage",
            "reason_removal": "Other",
            "comments": "36\" Water Oak, right side of driveway, encroaching on driveway with substantial root damage"
          }
        ]
      },
      "geometry": {
        "type": "Point",
        "coordinates": [
          -84.365920792956,
          33.840529467295
        ]
      }
    },
    {
      "type": "Feature",
      "properties": {
        "record": "BA-202604946",
        "address": "196 MONTGOMERY FERRY DR NE, ATLANTA GA 30309",
        "status": "Accepted",
        "date": "09/25/2026",
        "description": null,
        "owner": "ANSLEY GOLF CLUB",
        "tree_dbh": "30",
        "tree_location": "near 2 fairway",
        "reason_removal": "Dead tree",
        "tree_description": "dead tree",
        "tree_number": "1",
        "species": "oak",
        "comments": null,
        "tree_count": 1,
        "trees": [
          {
            "tree_number": "1",
            "species": "oak",
            "tree_dbh": "30",
            "tree_location": "near 2 fairway",
            "tree_description": "dead tree",
            "reason_removal": "Dead tree",
            "comments": null
          }
        ]
      },
      "geometry": {
        "type": "Point",
        "coordinates": [
          -84.375375249922,
          33.800294415488
        ]
      }
    },
    {
      "type": "Feature",
      "properties": {
        "record": "BA-202604969",
        "address": "1645 ADAMS DR SW, ATLANTA GA 30311",
        "status": "Accepted",
        "date": "09/25/2026",
        "description": "DDH",
        "owner": null,
        "tree_dbh": null,
        "tree_location": null,
        "reason_removal": null,
        "tree_description": null,
        "tree_number": null,
        "species": null,
        "comments": null,
        "tree_count": null,
        "trees": null
      },
      "geometry": {
        "type": "Point",
        "coordinates": [
          -84.486607612584,
          33.710966406224
        ]
      }
    },
    {
      "type": "Feature",
      "properties": {
        "record": "BA-202604967",
        "address": "1880 BAYBERRY DR SW, ATLANTA GA 30311",
        "status": "Accepted",
        "date": "09/25/2026",
        "description": "DDH",
        "owner": null,
        "tree_dbh": null,
        "tree_location": null,
        "reason_removal": null,
        "tree_description": null,
        "tree_number": null,
        "species": null,
        "comments": null,
        "tree_count": null,
        "trees": null
      },
      "geometry": {
        "type": "Point",
        "coordinates": [
          -84.449036719998,
          33.715907605513
        ]
      }
    },
    {
      "type": "Feature",
      "properties": {
        "record": "BA-202604957",
        "address": "690 UTOY CIR SW, ATLANTA GA 30331",
        "status": "Accepted",
        "date": "09/25/2026",
        "description": "DDH",
        "owner": null,
        "tree_dbh": null,
        "tree_location": null,
        "reason_removal": null,
        "tree_description": null,
        "tree_number": null,
        "species": null,
        "comments": null,
        "tree_count": null,
        "trees": null
      },
      "geometry": {
        "type": "Point",
        "coordinates": [
          -84.524368814095,
          33.74317484795
        ]
      }
    },
    {
      "type": "Feature",
      "properties": {
        "record": "BA-202604953",
        "address": "2738 ARBOR AVE SE, ATLANTA GA 30317",
        "status": "Accepted",
        "date": "09/25/2026",
        "description": "DDH",
        "owner": null,
        "tree_dbh": null,
        "tree_location": null,
        "reason_removal": null,
        "tree_description": null,
        "tree_number": null,
        "species": null,
        "comments": null,
        "tree_count": null,
        "trees": null
      },
      "geometry": {
        "type": "Point",
        "coordinates": [
          -84.297564429262,
          33.750299546851
        ]
      }
    },
    {
      "type": "Feature",
      "properties": {
        "record": "BA-202604952",
        "address": "3288 KINGSDALE DR SW, ATLANTA GA 00000",
        "status": "Accepted",
        "date": "09/25/2026",
        "description": "DDH",
        "owner": null,
        "tree_dbh": null,
        "tree_location": null,
        "reason_removal": null,
        "tree_description": null,
        "tree_number": null,
        "species": null,
        "comments": null,
        "tree_count": null,
        "trees": null
      },
      "geometry": {
        "type": "Point",
        "coordinates": [
          -84.494525318435,
          33.722255557918
        ]
      }
    }
  ]
}