{
  "type": "FeatureCollection",
  "features": [
    {
      "type": "Feature",
      "properties": {
        "record": "BA-202604339",
        "address": "2538 BROOKDALE DR NW, ATLANTA GA 30305",
        "status": "ACA Pending",
        "date": "08/31/2026",
        "description": null,
        "owner": null,
        "tree_dbh": "52",
        "tree_location": "front right next to house",
        "reason_removal": "Other",
        "tree_description": "Picture of treeReason for Removal:OtherComments:damaged and hazardous\n\t\t\n\t\n\t\n                                \n                            \n                        \n                    \n                        \n                            \n                                \n                                    \n                                        \n                                         Parcel Information\n                                \n                            \n                            \n                                \n                                    \n\t\tParcel Number:17 01440003017 *Block:--Lot:--Subdivision:--",
        "tree_number": "1",
        "species": "Water oak"
      },
      "geometry": {
        "type": "Point",
        "coordinates": [
          -84.404960044309,
          33.824769138424
        ]
      }
    },
    {
      "type": "Feature",
      "properties": {
        "record": "26TMP-057273",
        "address": "1422 MILLER AVE NE, ATLANTA GA 30307",
        "status": "",
        "date": "08/31/2026",
        "description": null,
        "owner": null,
        "tree_dbh": null,
        "tree_location": null,
        "reason_removal": null,
        "tree_description": null,
        "tree_number": null,
        "species": null
      },
      "geometry": {
        "type": "Point",
        "coordinates": [
          -84.341016330573,
          33.766060218954
        ]
      }
    },
    {
      "type": "Feature",
      "properties": {
        "record": "BA-202604336",
        "address": "1694 PINE RIDGE DR NE, ATLANTA GA 30324",
        "status": "ACA Pending",
        "date": "08/31/2026",
        "description": null,
        "owner": "FULLER WILLIAM",
        "tree_dbh": "25",
        "tree_location": "back left side along fence line.",
        "reason_removal": "Significant cavity/area of decay",
        "tree_description": "25in Poplar with extensive basal decay as determined by resistance recording drill.Reason for Removal:Significant cavity/area of decay\n\t\t\n\t\n\t\n                                \n                            \n                        \n                    \n                        \n                            \n                                \n                                    \n                                        \n                                         Parcel Information\n                                \n                            \n                            \n                                \n                                    \n\t\tParcel Number:17 00510002026 *Block:--Lot:--Subdivision:--",
        "tree_number": "1",
        "species": "Poplar"
      },
      "geometry": {
        "type": "Point",
        "coordinates": [
          -84.359734966998,
          33.801842006291
        ]
      }
    },
    {
      "type": "Feature",
      "properties": {
        "record": "BA-202604326",
        "address": "2539 DELLWOOD DR NW, ATLANTA GA 30305",
        "status": "ACA Pending",
        "date": "08/31/2026",
        "description": null,
        "owner": null,
        "tree_dbh": null,
        "tree_location": null,
        "reason_removal": null,
        "tree_description": null,
        "tree_number": null,
        "species": null
      },
      "geometry": {
        "type": "Point",
        "coordinates": [
          -84.398162274574,
          33.824628654189
        ]
      }
    },
    {
      "type": "Feature",
      "properties": {
        "record": "BA-202604338",
        "address": "970 HARTE DR SW, ATLANTA GA 30310",
        "status": "ACA Pending",
        "date": "08/31/2026",
        "description": null,
        "owner": null,
        "tree_dbh": null,
        "tree_location": null,
        "reason_removal": null,
        "tree_description": null,
        "tree_number": null,
        "species": null
      },
      "geometry": {
        "type": "Point",
        "coordinates": [
          -84.4202881591,
          33.708810596803
        ]
      }
    },
    {
      "type": "Feature",
      "properties": {
        "record": "BA-202604331",
        "address": "1545 MOORES MILL RD NW, ATLANTA GA 30327",
        "status": "ACA Pending",
        "date": "08/31/2026",
        "description": null,
        "owner": null,
        "tree_dbh": null,
        "tree_location": null,
        "reason_removal": null,
        "tree_description": null,
        "tree_number": null,
        "species": null
      },
      "geometry": {
        "type": "Point",
        "coordinates": [
          -84.4379308667,
          33.828448665696
        ]
      }
    },
    {
      "type": "Feature",
      "properties": {
        "record": "BA-202604346",
        "address": "1092 ST AUGUSTINE PL NE, ATLANTA GA 30306",
        "status": "ACA Pending",
        "date": "08/31/2026",
        "description": null,
        "owner": null,
        "tree_dbh": null,
        "tree_location": null,
        "reason_removal": null,
        "tree_description": null,
        "tree_number": null,
        "species": null
      },
      "geometry": {
        "type": "Point",
        "coordinates": [
          -84.350850098104,
          33.77449904847
        ]
      }
    },
    {
      "type": "Feature",
      "properties": {
        "record": "BA-202604316",
        "address": "2965 HABERSHAM CT NW, ATLANTA GA 30305",
        "status": "ACA Pending",
        "date": "08/31/2026",
        "description": null,
        "owner": null,
        "tree_dbh": null,
        "tree_location": null,
        "reason_removal": null,
        "tree_description": null,
        "tree_number": null,
        "species": null
      },
      "geometry": {
        "type": "Point",
        "coordinates": [
          -84.390678256008,
          33.836284009666
        ]
      }
    },
    {
      "type": "Feature",
      "properties": {
        "record": "BA-202604321",
        "address": "776 WESLEY DR NW, ATLANTA GA 30305",
        "status": "ACA Pending",
        "date": "08/31/2026",
        "description": null,
        "owner": null,
        "tree_dbh": null,
        "tree_location": null,
        "reason_removal": null,
        "tree_description": null,
        "tree_number": null,
        "species": null
      },
      "geometry": {
        "type": "Point",
        "coordinates": [
          -84.412960902965,
          33.820256732265
        ]
      }
    },
    {
      "type": "Feature",
      "properties": {
        "record": "BA-202604334",
        "address": "153 PUTNAM CIR NE, ATLANTA GA 30342",
        "status": "ACA Pending",
        "date": "08/31/2026",
        "description": null,
        "owner": null,
        "tree_dbh": "100",
        "tree_location": "close to the road",
        "reason_removal": "Dead tree",
        "tree_description": "tall dead tree Reason for Removal:Dead treeComments:I don't know how tall, but it's tall!~ Close to street and wires\n\t\t\n\t\n\t\n                                \n                            \n                        \n                    \n                        \n                            \n                                \n                                    \n                                        \n                                         Parcel Information\n                                \n                            \n                            \n                                \n                                    \n\t\tParcel Number:17 00970002032 *Block:--Lot:--Subdivision:--",
        "tree_number": "1",
        "species": "oak"
      },
      "geometry": {
        "type": "Point",
        "coordinates": [
          -84.384989382048,
          33.860542280706
        ]
      }
    },
    {
      "type": "Feature",
      "properties": {
        "record": "BA-202604345",
        "address": "2421 SPRING GARDEN DR SW, ATLANTA GA 30315",
        "status": "ACA Pending",
        "date": "08/31/2026",
        "description": null,
        "owner": "Kennya Simms",
        "tree_dbh": "20",
        "tree_location": "Back left",
        "reason_removal": "Significant cavity/area of decay",
        "tree_description": "Dead pine covered in vines.Reason for Removal:Dead tree\n\t\t\n\t\t\n\t\t\tTree number:2Species:Water OakTree Size (DBH):42Tree location:back centerDescription of Tree:42in Water Oak with extensive decay along the lower end of the trunk.Reason for Removal:Significant cavity/area of decay\n\t\t\n\t\n\t\n                                \n                            \n                        \n                    \n                        \n                            \n                                \n                                    \n                                        \n                                         Parcel Information\n                                \n                            \n                            \n                                \n                                    \n\t\tParcel Number:14 01010009047 *Block:--Lot:--Subdivision:--",
        "tree_number": "1",
        "species": "Loblolly Pine"
      },
      "geometry": {
        "type": "Point",
        "coordinates": [
          -84.412356126437,
          33.688725436356
        ]
      }
    },
    {
      "type": "Feature",
      "properties": {
        "record": "BA-202604335",
        "address": "2959 PARROT AVE NW, ATLANTA GA 30318",
        "status": "ACA Pending",
        "date": "08/31/2026",
        "description": null,
        "owner": "Camilla Griffith",
        "tree_dbh": "14",
        "tree_location": "Front yard",
        "reason_removal": "Dying tree",
        "tree_description": "Large maple with many dying branches that lay on the power line.Reason for Removal:Dying tree\n\t\t\n\t\n\t\n                                \n                            \n                        \n                    \n                        \n                            \n                                \n                                    \n                                        \n                                         Parcel Information\n                                \n                            \n                            \n                                \n                                    \n\t\tParcel Number:17 02560001016 *Block:--Lot:--Subdivision:--",
        "tree_number": "1",
        "species": "Maple"
      },
      "geometry": {
        "type": "Point",
        "coordinates": [
          -84.483575008897,
          33.808888579645
        ]
      }
    },
    {
      "type": "Feature",
      "properties": {
        "record": "BA-202604315",
        "address": "1442 WEST WESLEY RD NW, ATLANTA GA 30327",
        "status": "ACA Pending",
        "date": "08/31/2026",
        "description": null,
        "owner": "Brian Jackson",
        "tree_dbh": "36",
        "tree_location": "Back left corner of property",
        "reason_removal": "Dead tree",
        "tree_description": "Poplar was struck by lightning which wrapped the tree from top to bottom removing massive chucks of bark and tree.  Tree has burn marks and massive areas of bark missing.  Tree is within 60 feet of the house and is now a major liability.Reason for Removal:Dead tree\n\t\t\n\t\n\t\n                                \n                            \n                        \n                    \n                        \n                            \n                                \n                                    \n                                        \n                                         Parcel Information\n                                \n                            \n                            \n                                \n                                    \n\t\tParcel Number:17 0196  LL245 *Block:--Lot:--Subdivision:--",
        "tree_number": "1",
        "species": "Poplar"
      },
      "geometry": {
        "type": "Point",
        "coordinates": [
          -84.433063683013,
          33.836066114696
        ]
      }
    },
    {
      "type": "Feature",
      "properties": {
        "record": "26TMP-057287",
        "address": "1920 SYLVAN RIDGE DR SW, ATLANTA GA 30310",
        "status": "",
        "date": "08/31/2026",
        "description": null,
        "owner": null,
        "tree_dbh": null,
        "tree_location": null,
        "reason_removal": null,
        "tree_description": null,
        "tree_number": null,
        "species": null
      },
      "geometry": {
        "type": "Point",
        "coordinates": [
          -84.420177437704,
          33.70308457433
        ]
      }
    },
    {
      "type": "Feature",
      "properties": {
        "record": "BA-202604340",
        "address": "567 LINWOOD AVE NE, ATLANTA GA 30306",
        "status": "ACA Pending",
        "date": "08/31/2026",
        "description": null,
        "owner": "LARSON RYAN",
        "tree_dbh": "43",
        "tree_location": "left side of house",
        "reason_removal": "Dying tree",
        "tree_description": "43\" Water Oak, back middle, Declining, extensive canopy dieback, base is rotted and hollowReason for Removal:Significant cavity/area of decayComments:43\" Water Oak, back middle, Declining, extensive canopy dieback, base is rotted and hollow\n\t\t\n\t\t\n\t\t\tTree number:2Species:HackberryTree Size (DBH):12Tree location:back left outside old fenceDescription of Tree:12\" Hackberry, back left outside old fence, DecliningReason for Removal:OtherComments:12\" Hackberry, back left outside old fence, Declining\n\t\t\n\t\t\n\t\t\tTree number:3Species:Black CherryTree Size (DBH):15Tree location:near driveDescription of Tree:15\" Black Cherry, 3 trunk, near drive, Declining, DyingReason for Removal:Dying treeComments:15\" Black Cherry, 3 trunk, near drive, Declining, Dying\n\t\t\n\t\t\n\t\t\tTree number:4Species:PecanTree Size (DBH):16Tree location:left side of houseDescription of Tree:16\" Pecan, left side of house, Declining, canopy diebackReason for Removal:Dying treeComments:16\" Pecan, left side of house, Declining, canopy dieback\n\t\t\n\t\n\t\n                                \n                            \n                        \n                    \n                        \n                            \n                                \n                                    \n                                        \n                                         Parcel Information\n                                \n                            \n                            \n                                \n                                    \n\t\tParcel Number:14 00150001051 *Block:--Lot:--Subdivision:--",
        "tree_number": "1",
        "species": "Hackberry"
      },
      "geometry": {
        "type": "Point",
        "coordinates": [
          -84.356596083531,
          33.769845282523
        ]
      }
    },
    {
      "type": "Feature",
      "properties": {
        "record": "BA-202604317",
        "address": "1456 NORTH MORNINGSIDE DR NE, ATLANTA GA 30306",
        "status": "ACA Pending",
        "date": "08/31/2026",
        "description": null,
        "owner": "Laura Lott",
        "tree_dbh": "7",
        "tree_location": "Back right corner",
        "reason_removal": "Dead tree",
        "tree_description": "poor health, tip dieback and decay in trunk from previous large limb failureReason for Removal:Significant cavity/area of decayComments:Orange paint\n\t\t\n\t\t\n\t\t\tTree number:2Species:PrivetTree Size (DBH):8Tree location:Back left yardDescription of Tree:UndesirableReason for Removal:Invasive/undesirable treeComments:Orange paint\n\t\t\n\t\t\n\t\t\tTree number:3Species:Tulip PoplarTree Size (DBH):29Tree location:Back left yardDescription of Tree:No central leader, previously lost top. Decay in base on tension side of slight leanReason for Removal:Significant cavity/area of decayComments:Orange paint\n\t\t\n\t\t\n\t\t\tTree number:4Species:ElmTree Size (DBH):9Tree location:Back right cornerDescription of Tree:Strong lean, some tip dieback, and decay in trunk on tension sideReason for Removal:Significant cavity/area of decayComments:Orange paint\n\t\t\n\t\t\n\t\t\tTree number:5Species:OakTree Size (DBH):33Tree location:Back centerDescription of Tree:DeadReason for Removal:Dead treeComments:Orange paint\n\t\t\n\t\n\t\n                                \n                            \n                        \n                    \n                        \n                            \n                                \n                                    \n                                        \n                                         Parcel Information\n                                \n                            \n                            \n                                \n                                    \n\t\tParcel Number:17 00020006003 *Block:--Lot:--Subdivision:--",
        "tree_number": "1",
        "species": "Boxelder"
      },
      "geometry": {
        "type": "Point",
        "coordinates": [
          -84.358364062785,
          33.794200360509
        ]
      }
    },
    {
      "type": "Feature",
      "properties": {
        "record": "BA-202604325",
        "address": "491 HOLLYDALE CT NW, ATLANTA GA 30342",
        "status": "ACA Pending",
        "date": "08/31/2026",
        "description": null,
        "owner": "TOWNSEND MARGARET ELIZABETH",
        "tree_dbh": "21",
        "tree_location": "front right of property",
        "reason_removal": "Dead tree",
        "tree_description": null,
        "tree_number": "1",
        "species": "Loblolly Pine"
      },
      "geometry": {
        "type": "Point",
        "coordinates": [
          -84.401973943961,
          33.873033313485
        ]
      }
    },
    {
      "type": "Feature",
      "properties": {
        "record": "BA-202604314",
        "address": "796 CLEMONT DR NE, ATLANTA GA 30306",
        "status": "ACA Pending",
        "date": "08/31/2026",
        "description": null,
        "owner": "Susan Russell",
        "tree_dbh": "27",
        "tree_location": "front of house left of white oak",
        "reason_removal": "Dying tree",
        "tree_description": null,
        "tree_number": "1",
        "species": "Maple"
      },
      "geometry": {
        "type": "Point",
        "coordinates": [
          -84.36160123636,
          33.782994409488
        ]
      }
    },
    {
      "type": "Feature",
      "properties": {
        "record": "BA-202604318",
        "address": "2657 FORREST AVE NW, ATLANTA GA 30318",
        "status": "ACA Pending",
        "date": "08/31/2026",
        "description": null,
        "owner": null,
        "tree_dbh": "15",
        "tree_location": "Along east prop line",
        "reason_removal": "Dead tree",
        "tree_description": "tree has grown through metal fence, trunk appears hollowReason for Removal:Dead tree\n\t\t\n\t\t\n\t\t\tTree number:2Species:hardwood, not sureTree Size (DBH):24Tree location:along east property line, about 1/3 of the way back, marked with pink sprayDescription of Tree:tree has grown through metal fence, trunk appears hollowReason for Removal:Dead tree\n\t\t\n\t\t\n\t\t\tTree number:3Species:hardwood, not sureTree Size (DBH):22Tree location:along east property line, near the back, marked with pink sprayDescription of Tree:Grown through fence, leaning over, trunk appears to be hollowReason for Removal:Dead tree\n\t\t\n\t\n\t\n                                \n                            \n                        \n                    \n                        \n                            \n                                \n                                    \n                                        \n                                         Parcel Information\n                                \n                            \n                            \n                                \n                                    \n\t\tParcel Number:17 02520001036 *Block:--Lot:--Subdivision:--",
        "tree_number": "1",
        "species": "hardwood, not sure"
      },
      "geometry": {
        "type": "Point",
        "coordinates": [
          -84.47448784411,
          33.812955261235
        ]
      }
    },
    {
      "type": "Feature",
      "properties": {
        "record": "BA-202604324",
        "address": "44 WHITEFOORD AVE NE, ATLANTA GA 30307",
        "status": "ACA Pending",
        "date": "08/31/2026",
        "description": null,
        "owner": null,
        "tree_dbh": "16",
        "tree_location": "Right rear corner of house.",
        "reason_removal": "Other",
        "tree_description": "Lightning struck and within 5 feet of house; strike jumped and did damage to interior.Reason for Removal:Other\n\t\t\n\t\n\t\n                                \n                            \n                        \n                    \n                        \n                            \n                                \n                                    \n                                        \n                                         Parcel Information\n                                \n                            \n                            \n                                \n                                    \n\t\tParcel Number:15 208 01 052 *Block:--Lot:--Subdivision:--",
        "tree_number": "1",
        "species": "Pecan"
      },
      "geometry": {
        "type": "Point",
        "coordinates": [
          -84.342112111294,
          33.754826626518
        ]
      }
    },
    {
      "type": "Feature",
      "properties": {
        "record": "BA-202604344",
        "address": "365 LAKE FORREST LN NE, ATLANTA GA 30342",
        "status": "ACA Pending",
        "date": "08/31/2026",
        "description": null,
        "owner": "BODY JUDITH A",
        "tree_dbh": "45",
        "tree_location": "tree is located about half way back, on right side, on hill, near property line and fence",
        "reason_removal": "Significant cavity/area of decay",
        "tree_description": "established oakReason for Removal:Significant cavity/area of decayComments:Tree is on side of hill, the decay is around the root flair. Water is collecting in the holes around the base. I have had alot of branches falling off. \n\t\t\n\t\t\n\t\t\tTree number:2Species:OakTree Size (DBH):50Tree location:tree is located about half way back, on right side, on hill, near property line and fenceDescription of Tree:established oakReason for Removal:Significant cavity/area of decayComments:Tree is on side of hill, the decay is around the root flair. Water is collecting in the holes around the base. I have had alot of branches falling off. \n\t\t\n\t\n\t\n                                \n                            \n                        \n                    \n                        \n                            \n                                \n                                    \n                                        \n                                         Parcel Information\n                                \n                            \n                            \n                                \n                                    \n\t\tParcel Number:17 00950007036 *Block:--Lot:--Subdivision:--",
        "tree_number": "1",
        "species": "Oak"
      },
      "geometry": {
        "type": "Point",
        "coordinates": [
          -84.38638960183,
          33.870731555917
        ]
      }
    },
    {
      "type": "Feature",
      "properties": {
        "record": "BA-202604333",
        "address": "832 BRADDOCK ST SW, ATLANTA GA 30310",
        "status": "ACA Pending",
        "date": "08/31/2026",
        "description": null,
        "owner": null,
        "tree_dbh": "12",
        "tree_location": "backyard",
        "reason_removal": "Uncorrectable defect",
        "tree_description": "This tree is conjoined with a water oak and it is inches away from the roof/gutters. This tree is pressing against utility lines. Tree is at risk of failing due to it being conjoined at trunk flare. Structural damage to house and damaged to utility lines is possible due to the tree’s proximityReason for Removal:Uncorrectable defect\n\t\t\n\t\t\n\t\t\tTree number:2Species:Water OakTree Size (DBH):13.6Tree location:Front yard right side.Description of Tree:This tree is conjoined with a black cherry tree and it is pressing against utility lines. Tree is at risk of failing due to it being conjoined at trunk flare. Structural damage to house and damaged to utility lines is possible due to the tree’s proximityReason for Removal:Uncorrectable defect\n\t\t\n\t\t\n\t\t\tTree number:3Species:Red CedarTree Size (DBH):20.8Tree location:backyard behind the shed.Description of Tree:This tree is uprooted and is resting on neighboring oak tree.Reason for Removal:Dying tree\n\t\t\n\t\t\n\t\t\tTree number:4Species:Red cedarTree Size (DBH):10Tree location:backyardDescription of Tree:Codominant tree and has it’s canopy concentrated in the upper 1/3 portion of the tree.Reason for Removal:Uncorrectable defect\n\t\t\n\t\n\t\n                                \n                            \n                        \n                    \n                        \n                            \n                                \n                                    \n                                        \n                                         Parcel Information\n                                \n                            \n                            \n                                \n                                    \n\t\tParcel Number:14 01040001094 *Block:--Lot:--Subdivision:--",
        "tree_number": "1",
        "species": "Black Cherry"
      },
      "geometry": {
        "type": "Point",
        "coordinates": [
          -84.415767843013,
          33.710654625607
        ]
      }
    },
    {
      "type": "Feature",
      "properties": {
        "record": "BA-202604341",
        "address": "814 PALATINE AVE SE, ATLANTA GA 30316",
        "status": "ACA Pending",
        "date": "08/31/2026",
        "description": null,
        "owner": "PETERSEN SCOTT",
        "tree_dbh": "22",
        "tree_location": "right side of back yard.",
        "reason_removal": "Significant cavity/area of decay",
        "tree_description": "22\"dbh Black Walnut tree with noticeable decay in one or more parts of the tree.Reason for Removal:Significant cavity/area of decay\n\t\t\n\t\n\t\n                                \n                            \n                        \n                    \n                        \n                            \n                                \n                                    \n                                        \n                                         Parcel Information\n                                \n                            \n                            \n                                \n                                    \n\t\tParcel Number:14 00110011017 *Block:--Lot:--Subdivision:--",
        "tree_number": "1",
        "species": "Black Walnut"
      },
      "geometry": {
        "type": "Point",
        "coordinates": [
          -84.3563013544,
          33.732096504298
        ]
      }
    },
    {
      "type": "Feature",
      "properties": {
        "record": "BA-202604337",
        "address": "2579 DELLWOOD DR NW, ATLANTA GA 30305",
        "status": "ACA Pending",
        "date": "08/31/2026",
        "description": null,
        "owner": null,
        "tree_dbh": "16",
        "tree_location": "Front of House",
        "reason_removal": "Uncorrectable defect",
        "tree_description": "Growing at an angle so foliage is over roof.  Drops dead limbs on roof.Reason for Removal:Uncorrectable defectComments:Insurance company will drop insurance effective October 1, 2026 if tree is not removed.  \n\t\t\n\t\t\n\t\t\tTree number:2Species:Water OakTree Size (DBH):17Tree location:Side yardDescription of Tree:Growing at a 40 degrees angle so foliage is over roof.  Dead limbs fall on roof.  Reason for Removal:Uncorrectable defectComments:Insurance company will drop insurance effective October 1, 2026 if tree is not removed.  \n\t\t\n\t\n\t\n                                \n                            \n                        \n                    \n                        \n                            \n                                \n                                    \n                                        \n                                         Parcel Information\n                                \n                            \n                            \n                                \n                                    \n\t\tParcel Number:17 01440002023 *Block:--Lot:--Subdivision:--",
        "tree_number": "1",
        "species": "Box Elder"
      },
      "geometry": {
        "type": "Point",
        "coordinates": [
          -84.398318355142,
          33.825977638979
        ]
      }
    },
    {
      "type": "Feature",
      "properties": {
        "record": "BA-202604322",
        "address": "2285 BROOKVIEW DR NW, ATLANTA GA 30318",
        "status": "ACA Pending",
        "date": "08/31/2026",
        "description": null,
        "owner": "JOHN BRUNSON",
        "tree_dbh": "38",
        "tree_location": "front right",
        "reason_removal": "Significant cavity/area of decay",
        "tree_description": "The 38-inch DBH water oak exhibits significant structural defects and advanced decay throughout the main stem. Large, open cavities are present within major stem unions, with substantial areas of decayed and deteriorated wood visible. The extent of the cavities and apparent internal decay indicates a significant loss of structural integrity and load-bearing capacity.",
        "tree_number": "1",
        "species": "Water Oak"
      },
      "geometry": {
        "type": "Point",
        "coordinates": [
          -84.419211994762,
          33.817834443531
        ]
      }
    },
    {
      "type": "Feature",
      "properties": {
        "record": "26TMP-057569",
        "address": "2821 SE Belleau LN, Atlanta Georgia 30316",
        "status": "",
        "date": "08/31/2026",
        "description": null,
        "owner": null,
        "tree_dbh": null,
        "tree_location": null,
        "reason_removal": null,
        "tree_description": null,
        "tree_number": null,
        "species": null
      },
      "geometry": {
        "type": "Point",
        "coordinates": [
          -84.303408206581,
          33.704503760155
        ]
      }
    },
    {
      "type": "Feature",
      "properties": {
        "record": "BA-202604347",
        "address": "1151 VICKERS ST SE, ATLANTA GA 30316",
        "status": "ACA Pending",
        "date": "08/31/2026",
        "description": null,
        "owner": null,
        "tree_dbh": "23",
        "tree_location": "Front left side of the driveway",
        "reason_removal": "Dying tree",
        "tree_description": "Dying poplar tree.Reason for Removal:Dying treeComments:The poplar is dying with the entire crown completely.\n\t\t\n\t\n\t\n                                \n                            \n                        \n                    \n                        \n                            \n                                \n                                    \n                                        \n                                         Parcel Information\n                                \n                            \n                            \n                                \n                                    \n\t\tParcel Number:14 00100010014 *Block:--Lot:--Subdivision:--",
        "tree_number": "1",
        "species": "Poplar"
      },
      "geometry": {
        "type": "Point",
        "coordinates": [
          -84.351806548823,
          33.721766274461
        ]
      }
    },
    {
      "type": "Feature",
      "properties": {
        "record": "26TMP-057158",
        "address": "2155 JERNIGAN DR SE, ATLANTA GA 30315",
        "status": "",
        "date": "08/31/2026",
        "description": null,
        "owner": null,
        "tree_dbh": null,
        "tree_location": null,
        "reason_removal": null,
        "tree_description": null,
        "tree_number": null,
        "species": null
      },
      "geometry": {
        "type": "Point",
        "coordinates": [
          -84.372436542685,
          33.695417395874
        ]
      }
    },
    {
      "type": "Feature",
      "properties": {
        "record": "BA-202604320",
        "address": "189 CHILDS DR NW, ATLANTA GA 30314",
        "status": "ACA Pending",
        "date": "08/31/2026",
        "description": null,
        "owner": null,
        "tree_dbh": "16",
        "tree_location": "back right or property",
        "reason_removal": "Dead tree",
        "tree_description": "Dead Pinetree in backyard we went to request immediate approval to remove.Reason for Removal:Dead tree\n\t\t\n\t\n\t\n                                \n                            \n                        \n                    \n                        \n                            \n                                \n                                    \n                                        \n                                         Parcel Information\n                                \n                            \n                            \n                                \n                                    \n\t\tParcel Number:14 01420004014 *Block:--Lot:--Subdivision:--",
        "tree_number": "1",
        "species": "Pine"
      },
      "geometry": {
        "type": "Point",
        "coordinates": [
          -84.436477105763,
          33.760943507032
        ]
      }
    },
    {
      "type": "Feature",
      "properties": {
        "record": "BA-202604342",
        "address": "17 PALISADES RD NE, ATLANTA GA 30309",
        "status": "ACA Pending",
        "date": "08/31/2026",
        "description": null,
        "owner": null,
        "tree_dbh": "10",
        "tree_location": "back left side of house",
        "reason_removal": "Dead tree",
        "tree_description": "10\" Cherry Laurel, 3 trunk, back left side of house, DeadReason for Removal:Dead treeComments:10\" Cherry Laurel, 3 trunk, back left side of house, Dead\n\t\t\n\t\n\t\n                                \n                            \n                        \n                    \n                        \n                            \n                                \n                                    \n                                        \n                                         Parcel Information\n                                \n                            \n                            \n                                \n                                    \n\t\tParcel Number:17 01100003016 *Block:--Lot:--Subdivision:--",
        "tree_number": "1",
        "species": "Cherry Laurel"
      },
      "geometry": {
        "type": "Point",
        "coordinates": [
          -84.391654123548,
          33.804888540641
        ]
      }
    },
    {
      "type": "Feature",
      "properties": {
        "record": "BA-202604328",
        "address": "2539 DELLWOOD DR NW, ATLANTA GA 30305",
        "status": "ACA Pending",
        "date": "08/31/2026",
        "description": null,
        "owner": null,
        "tree_dbh": "31",
        "tree_location": "back right",
        "reason_removal": "Dying tree",
        "tree_description": "Tree is in decline. There is approximately 40% dieback.Reason for Removal:Dying tree\n\t\t\n\t\n\t\n                                \n                            \n                        \n                    \n                        \n                            \n                                \n                                    \n                                        \n                                         Parcel Information\n                                \n                            \n                            \n                                \n                                    \n\t\tParcel Number:17 01440005020 *Block:--Lot:--Subdivision:--",
        "tree_number": "1",
        "species": "water oak"
      },
      "geometry": {
        "type": "Point",
        "coordinates": [
          -84.398162274574,
          33.824628654189
        ]
      }
    },
    {
      "type": "Feature",
      "properties": {
        "record": "BA-202604343",
        "address": "566 MONTGOMERY FERRY DR NE, ATLANTA GA 30309",
        "status": "Issued",
        "date": "08/31/2026",
        "description": "Nuisance Tree associated with record BA-202604129.",
        "owner": "SCHIMMEL BASTIAAN AND ICIBACI LORIANE M",
        "tree_dbh": "26",
        "tree_location": "Sideyard Left",
        "reason_removal": "Dead tree",
        "tree_description": "Tree appears dead. Nuisance tree to right-of-way. Reason for Removal:Dead tree\n\t\t\n\t\n\t\n                                \n                            \n                        \n                    \n                        \n                            \n                                \n                                    \n                                        \n                                         Parcel Information\n                                \n                            \n                            \n                                \n                                    \n\t\t0) Parcel Number:17 00560004068Block:--Lot:--Subdivision:--",
        "tree_number": "1",
        "species": "Pine"
      },
      "geometry": {
        "type": "Point",
        "coordinates": [
          -84.369310581254,
          33.802780347348
        ]
      }
    },
    {
      "type": "Feature",
      "properties": {
        "record": "BA-202604313",
        "address": "1939 WINDEMERE DR NE, ATLANTA GA 30324",
        "status": "Issued",
        "date": "08/31/2026",
        "description": "2 trees in front right.",
        "owner": "Didem Dildar",
        "tree_dbh": null,
        "tree_location": null,
        "reason_removal": null,
        "tree_description": null,
        "tree_number": null,
        "species": null
      },
      "geometry": {
        "type": "Point",
        "coordinates": [
          -84.363888007186,
          33.807227451424
        ]
      }
    }
  ]
}