{
  "type": "FeatureCollection",
  "features": [
    {
      "type": "Feature",
      "properties": {
        "record": "BA-202603737",
        "address": "1079 REDFORD DR SE, ATLANTA GA 30315",
        "status": "Accepted",
        "date": "08/04/2026",
        "description": null,
        "owner": "THOMAS CHARLES",
        "tree_dbh": "10",
        "tree_location": "on hill behind house on rightside",
        "reason_removal": "Other",
        "tree_description": "tree is a hazard, roots exposed and could fall on houseReason for Removal:Other\n\t\t\n\t\t\n\t\t\tTree number:2Species:OAKTree Size (DBH):30Tree location:on hill behind houseDescription of Tree:tree is a hazard, roots exposed and could fall on houseReason for Removal:Other\n\t\t\n\t\t\n\t\t\tTree number:3Species:OakTree Size (DBH):10Tree location:on hill behind house on rightsideDescription of Tree:tree is a hazard, roots exposed and could fall on houseReason for Removal:Other\n\t\t\n\t\t\n\t\t\tTree number:4Species:OakTree Size (DBH):8Tree location:on hill behind house on rightside Description of Tree:tree is a hazard, roots exposed and could fall on houseReason for Removal:Other\n\t\t\n\t\n\t\n                                \n                            \n                        \n                    \n                        \n                            \n                                \n                                    \n                                        \n                                         Parcel Information\n                                \n                            \n                            \n                                \n                                    \n\t\tParcel Number:14 00050001040 *Block:--Lot:--Subdivision:--",
        "tree_number": "1",
        "species": "oak"
      },
      "geometry": {
        "type": "Point",
        "coordinates": [
          -84.355767902281,
          33.686937710841
        ]
      }
    },
    {
      "type": "Feature",
      "properties": {
        "record": "26TMP-047977",
        "address": "2679 RIDGEMORE RD NW, ATLANTA GA 30318",
        "status": "",
        "date": "08/04/2026",
        "description": null,
        "owner": null,
        "tree_dbh": null,
        "tree_location": null,
        "reason_removal": null,
        "tree_description": null,
        "tree_number": null,
        "species": null
      },
      "geometry": {
        "type": "Point",
        "coordinates": [
          -84.446682688835,
          33.82798735605
        ]
      }
    },
    {
      "type": "Feature",
      "properties": {
        "record": "BA-202603723",
        "address": "309 BLACKLAND RD NW, ATLANTA GA 30342",
        "status": "Accepted",
        "date": "08/04/2026",
        "description": null,
        "owner": null,
        "tree_dbh": "12",
        "tree_location": "Side setback in rear of residence on East side of yard",
        "reason_removal": "Other",
        "tree_description": "12\" DBH Magnolia tree with significant trunk lean towards the existing residence Reason for Removal:OtherComments:Tree is leaning at an angle greater than 30 degrees and is leaning towards the existing residence. \n\t\t\n\t\n\t\n                                \n                            \n                        \n                    \n                        \n                            \n                                \n                                    \n                                        \n                                         Parcel Information\n                                \n                            \n                            \n                                \n                                    \n\t\tParcel Number:17 0140  LL069 *Block:--Lot:--Subdivision:--",
        "tree_number": "25",
        "species": "Magnolia"
      },
      "geometry": {
        "type": "Point",
        "coordinates": [
          -84.397718364809,
          33.859497664499
        ]
      }
    },
    {
      "type": "Feature",
      "properties": {
        "record": "BA-202603739",
        "address": "1566 ALDER CT SE, ATLANTA GA 30317",
        "status": "ACA Pending",
        "date": "08/04/2026",
        "description": null,
        "owner": "HEAD STEVEN B OR HEAD EVETTE D",
        "tree_dbh": "50",
        "tree_location": "Backyard near neighbor's fence",
        "reason_removal": "Dying tree",
        "tree_description": "The trunk of a tree fell around July 4, 2026. We want to know whether or not the tree is dead and we would also like to know the risk the tree has on falling entirely. Reason for Removal:Dying treeComments:I don't know the tree number or the species. The trunk/limb of the tree fell. The tree is on the plot/land of 1566 Alder Court but it is easier to locate the tree by going through the yard of 1562 Alder Court. If you need access to the backyard, ask myself or the neighbor who lives in 1566 Alder Court. \n\t\t\n\t\n\t\n                                \n                            \n                        \n                    \n                        \n                            \n                                \n                                    \n                                        \n                                         Parcel Information\n                                \n                            \n                            \n                                \n                                    \n\t\tParcel Number:15 207 03 020 *Block:--Lot:--Subdivision:--",
        "tree_number": "0",
        "species": "Tulip Poplar"
      },
      "geometry": {
        "type": "Point",
        "coordinates": [
          -84.335810271324,
          33.749483698757
        ]
      }
    },
    {
      "type": "Feature",
      "properties": {
        "record": "BA-202603713",
        "address": "1766 DELOWE DR SW, ATLANTA GA 30311",
        "status": "Accepted",
        "date": "08/04/2026",
        "description": null,
        "owner": null,
        "tree_dbh": null,
        "tree_location": null,
        "reason_removal": null,
        "tree_description": null,
        "tree_number": null,
        "species": null
      },
      "geometry": {
        "type": "Point",
        "coordinates": [
          -84.458177669879,
          33.707409857449
        ]
      }
    },
    {
      "type": "Feature",
      "properties": {
        "record": "26TMP-050580",
        "address": "3463 ROXBORO RD NE, ATLANTA GA 30326",
        "status": "",
        "date": "08/04/2026",
        "description": null,
        "owner": null,
        "tree_dbh": null,
        "tree_location": null,
        "reason_removal": null,
        "tree_description": null,
        "tree_number": null,
        "species": null
      },
      "geometry": {
        "type": "Point",
        "coordinates": [
          -84.355076225133,
          33.849557417416
        ]
      }
    },
    {
      "type": "Feature",
      "properties": {
        "record": "BA-202603742",
        "address": "3981 CLUB DR NE, ATLANTA GA 30319",
        "status": "ACA Pending",
        "date": "08/04/2026",
        "description": null,
        "owner": null,
        "tree_dbh": null,
        "tree_location": null,
        "reason_removal": null,
        "tree_description": null,
        "tree_number": null,
        "species": null
      },
      "geometry": {
        "type": "Point",
        "coordinates": [
          -84.353734912212,
          33.864386690651
        ]
      }
    },
    {
      "type": "Feature",
      "properties": {
        "record": "BA-202603741",
        "address": "3320 BENJAMIN E MAYS DR SW, ATLANTA GA 30311",
        "status": "ACA Pending",
        "date": "08/04/2026",
        "description": null,
        "owner": null,
        "tree_dbh": null,
        "tree_location": null,
        "reason_removal": null,
        "tree_description": null,
        "tree_number": null,
        "species": null
      },
      "geometry": {
        "type": "Point",
        "coordinates": [
          -84.497058509738,
          33.736968159129
        ]
      }
    },
    {
      "type": "Feature",
      "properties": {
        "record": "BA-202603717",
        "address": "1161 ORME CIR NE, ATLANTA GA 00000",
        "status": "Accepted",
        "date": "08/04/2026",
        "description": null,
        "owner": null,
        "tree_dbh": null,
        "tree_location": null,
        "reason_removal": null,
        "tree_description": null,
        "tree_number": null,
        "species": null
      },
      "geometry": {
        "type": "Point",
        "coordinates": [
          -84.365914235232,
          33.786083169334
        ]
      }
    },
    {
      "type": "Feature",
      "properties": {
        "record": "BA-202603729",
        "address": "4600 BROOK HOLLOW RD NW, ATLANTA GA 30327",
        "status": "Accepted",
        "date": "08/04/2026",
        "description": null,
        "owner": null,
        "tree_dbh": null,
        "tree_location": null,
        "reason_removal": null,
        "tree_description": null,
        "tree_number": null,
        "species": null
      },
      "geometry": {
        "type": "Point",
        "coordinates": [
          -84.404937826652,
          33.881802455651
        ]
      }
    },
    {
      "type": "Feature",
      "properties": {
        "record": "BA-202603727",
        "address": "4550 RUNNEMEDE RD NW, ATLANTA GA 30327",
        "status": "Accepted",
        "date": "08/04/2026",
        "description": null,
        "owner": null,
        "tree_dbh": null,
        "tree_location": null,
        "reason_removal": null,
        "tree_description": null,
        "tree_number": null,
        "species": null
      },
      "geometry": {
        "type": "Point",
        "coordinates": [
          -84.400147388728,
          33.87915283235
        ]
      }
    },
    {
      "type": "Feature",
      "properties": {
        "record": "26TMP-050759",
        "address": "650 WEST PACES FERRY RD NW, ATLANTA GA 30327",
        "status": "",
        "date": "08/04/2026",
        "description": null,
        "owner": null,
        "tree_dbh": null,
        "tree_location": null,
        "reason_removal": null,
        "tree_description": null,
        "tree_number": null,
        "species": null
      },
      "geometry": {
        "type": "Point",
        "coordinates": [
          -84.408820065815,
          33.847826971385
        ]
      }
    },
    {
      "type": "Feature",
      "properties": {
        "record": "BA-202603720",
        "address": "999 MAYSON TURNER RD NW, ATLANTA GA 30314",
        "status": "Accepted",
        "date": "08/04/2026",
        "description": null,
        "owner": null,
        "tree_dbh": "40",
        "tree_location": "back",
        "reason_removal": "Dead tree",
        "tree_description": "dead oakReason for Removal:Dead tree\n\t\t\n\t\n\t\n                                \n                            \n                        \n                    \n                        \n                            \n                                \n                                    \n                                        \n                                         Parcel Information\n                                \n                            \n                            \n                                \n                                    \n\t\tParcel Number:14 01150007036 *Block:--Lot:--Subdivision:--",
        "tree_number": "1",
        "species": "Red Oak"
      },
      "geometry": {
        "type": "Point",
        "coordinates": [
          -84.419133916431,
          33.760450168609
        ]
      }
    },
    {
      "type": "Feature",
      "properties": {
        "record": "BA-202603730",
        "address": "2231 BOULEVARD GRANADA SW, ATLANTA GA 30311",
        "status": "Accepted",
        "date": "08/04/2026",
        "description": null,
        "owner": "SMITH SERELDA S",
        "tree_dbh": "35",
        "tree_location": "by retaining wall",
        "reason_removal": "Other",
        "tree_description": "Tree is pushing on and, in some areas, destroyed the retaining wall surrounding house.Reason for Removal:OtherComments:Tree is pushing on and, in some areas, destroyed the retaining wall surrounding house.\n\t\t\n\t\t\n\t\t\tTree number:2Species:PecanTree Size (DBH):8.5Tree location:Side yardDescription of Tree:Tree is pushing on and, in some areas, destroyed the retaining wall surrounding house.Reason for Removal:OtherComments:Tree is pushing on and, in some areas, destroyed the retaining wall surrounding house.\n\t\t\n\t\t\n\t\t\tTree number:3Species:Sweet GumTree Size (DBH):13.6Tree location:by retaining wallDescription of Tree:Tree is pushing on and, in some areas, destroyed the retaining wall surrounding house. The DBH of 1 side is 13.6\" and 11.7\" on other side.Reason for Removal:OtherComments:Tree is pushing on and, in some areas, destroyed the retaining wall surrounding house. The DBH of 1 side is 13.6\" and 11.7\" on other side.\n\t\t\n\t\n\t\n                                \n                            \n                        \n                    \n                        \n                            \n                                \n                                    \n                                        \n                                         Parcel Information\n                                \n                            \n                            \n                                \n                                    \n\t\tParcel Number:14 01840015017 *Block:--Lot:--Subdivision:--",
        "tree_number": "1",
        "species": "Pine"
      },
      "geometry": {
        "type": "Point",
        "coordinates": [
          -84.461635155743,
          33.718118266733
        ]
      }
    },
    {
      "type": "Feature",
      "properties": {
        "record": "BA-202603719",
        "address": "868 OAKHILL AVE SW, ATLANTA GA 30310",
        "status": "Accepted",
        "date": "08/04/2026",
        "description": null,
        "owner": "RWTD Investments LLC",
        "tree_dbh": "20",
        "tree_location": "Side yard on Lillian",
        "reason_removal": "Dying tree",
        "tree_description": "20\" dying hickory tree 1/2 fell into the street a few months back.Reason for Removal:Dying treeComments:We were hoping it was a city tree, but the survey said otherwise.\n\t\t\n\t\n\t\n                                \n                            \n                        \n                    \n                        \n                            \n                                \n                                    \n                                        \n                                         Parcel Information\n                                \n                            \n                            \n                                \n                                    \n\t\tParcel Number:14 01070010035 *Block:--Lot:--Subdivision:--",
        "tree_number": "1",
        "species": "Hickory"
      },
      "geometry": {
        "type": "Point",
        "coordinates": [
          -84.409227437092,
          33.731224118904
        ]
      }
    },
    {
      "type": "Feature",
      "properties": {
        "record": "BA-202603743",
        "address": "1254 AVONDALE AVE, ATLANTA GA 00000",
        "status": "ACA Pending",
        "date": "08/04/2026",
        "description": null,
        "owner": null,
        "tree_dbh": null,
        "tree_location": null,
        "reason_removal": null,
        "tree_description": null,
        "tree_number": null,
        "species": null
      },
      "geometry": {
        "type": "Point",
        "coordinates": [
          -84.363973728609,
          33.720183140526
        ]
      }
    },
    {
      "type": "Feature",
      "properties": {
        "record": "BA-202603711",
        "address": "205 BLACKLAND RD NW, ATLANTA GA 30342",
        "status": "Accepted",
        "date": "08/04/2026",
        "description": null,
        "owner": null,
        "tree_dbh": null,
        "tree_location": null,
        "reason_removal": null,
        "tree_description": null,
        "tree_number": null,
        "species": null
      },
      "geometry": {
        "type": "Point",
        "coordinates": [
          -84.394104110211,
          33.859132566981
        ]
      }
    },
    {
      "type": "Feature",
      "properties": {
        "record": "26TMP-050704",
        "address": "240 ALTOONA PL SW, ATLANTA GA 30314",
        "status": "",
        "date": "08/04/2026",
        "description": null,
        "owner": null,
        "tree_dbh": null,
        "tree_location": null,
        "reason_removal": null,
        "tree_description": null,
        "tree_number": null,
        "species": null
      },
      "geometry": {
        "type": "Point",
        "coordinates": [
          -84.435239504305,
          33.748907006379
        ]
      }
    },
    {
      "type": "Feature",
      "properties": {
        "record": "BA-202603728",
        "address": "3621 MAYFAIR PL NE, ATLANTA GA 30342",
        "status": "Accepted",
        "date": "08/04/2026",
        "description": null,
        "owner": null,
        "tree_dbh": "20",
        "tree_location": "Front Left near the street",
        "reason_removal": "Dying tree",
        "tree_description": "Declining Maple, canopy dieback, Borer ActivityReason for Removal:Dying tree\n\t\t\n\t\n\t\n                                \n                            \n                        \n                    \n                        \n                            \n                                \n                                    \n                                        \n                                         Parcel Information\n                                \n                            \n                            \n                                \n                                    \n\t\tParcel Number:17 00630008003 *Block:--Lot:--Subdivision:--",
        "tree_number": "1",
        "species": "Maple"
      },
      "geometry": {
        "type": "Point",
        "coordinates": [
          -84.372420790845,
          33.854032264806
        ]
      }
    },
    {
      "type": "Feature",
      "properties": {
        "record": "26TMP-049469",
        "address": "4438 KIMBALL RD SW, ATLANTA GA 30331",
        "status": "",
        "date": "08/04/2026",
        "description": null,
        "owner": null,
        "tree_dbh": null,
        "tree_location": null,
        "reason_removal": null,
        "tree_description": null,
        "tree_number": null,
        "species": null
      },
      "geometry": {
        "type": "Point",
        "coordinates": [
          -84.53253315882,
          33.68904005071
        ]
      }
    },
    {
      "type": "Feature",
      "properties": {
        "record": "BA-202603716",
        "address": "1744 DELOWE DR SW, ATLANTA GA 30311",
        "status": "Accepted",
        "date": "08/04/2026",
        "description": null,
        "owner": "JENNINGS JOSEPH W",
        "tree_dbh": "8",
        "tree_location": "Western corner",
        "reason_removal": "Dying tree",
        "tree_description": "Significant canopy damage and inundated with vinesReason for Removal:Dying tree\n\t\t\n\t\n\t\n                                \n                            \n                        \n                    \n                        \n                            \n                                \n                                    \n                                        \n                                         Parcel Information\n                                \n                            \n                            \n                                \n                                    \n\t\tParcel Number:14 01850001010 *Block:--Lot:--Subdivision:--",
        "tree_number": "14",
        "species": "Cornus florida"
      },
      "geometry": {
        "type": "Point",
        "coordinates": [
          -84.458687514328,
          33.708026270992
        ]
      }
    },
    {
      "type": "Feature",
      "properties": {
        "record": "BA-202603725",
        "address": "589 CAMERON ST SE, ATLANTA GA 30312",
        "status": "Accepted",
        "date": "08/04/2026",
        "description": null,
        "owner": "David McDonald",
        "tree_dbh": "38",
        "tree_location": "backyard",
        "reason_removal": "Other",
        "tree_description": "Large hackberry with previous severe topping, large unhealed pruning wound, and dense epicormic regrowth at the cut site. Concern for compromised structural integrity due to prior damage. Tree is adjacent to shed, play structure, and neighboring property.Reason for Removal:OtherComments:Requesting evaluation for structural hazard due to visible defects and proximity to occupied structures.\n\t\t\n\t\t\n\t\t\tTree number:2Species:hackberryTree Size (DBH):88Tree location:backyard Description of Tree:Mature hackberry with multiple codominant stems, large old pruning wound, heavy vine growth throughout the canopy, and concern for structural stability. Tree is located near residence and neighboring property where failure could impact structures.Reason for Removal:OtherComments:Requesting evaluation for structural hazard due to visible defects and proximity to occupied structures.\n\t\t\n\t\n\t\n                                \n                            \n                        \n                    \n                        \n                            \n                                \n                                    \n                                        \n                                         Parcel Information\n                                \n                            \n                            \n                                \n                                    \n\t\tParcel Number:14 00210007080 *Block:--Lot:--Subdivision:--",
        "tree_number": "1",
        "species": "hackberry"
      },
      "geometry": {
        "type": "Point",
        "coordinates": [
          -84.365269368393,
          33.738108430239
        ]
      }
    },
    {
      "type": "Feature",
      "properties": {
        "record": "BA-202603714",
        "address": "1734 DELOWE DR SW, ATLANTA GA 30311",
        "status": "Accepted",
        "date": "08/04/2026",
        "description": null,
        "owner": "DOLLENBERG RUDI",
        "tree_dbh": "17",
        "tree_location": "Western edge",
        "reason_removal": "Invasive/undesirable tree",
        "tree_description": "Codominant trunk with high amount of included bark between trunksReason for Removal:Invasive/undesirable tree\n\t\t\n\t\n\t\n                                \n                            \n                        \n                    \n                        \n                            \n                                \n                                    \n                                        \n                                         Parcel Information\n                                \n                            \n                            \n                                \n                                    \n\t\tParcel Number:14 01850001009 *Block:--Lot:--Subdivision:--",
        "tree_number": "15",
        "species": "Liquidambar styraciflua"
      },
      "geometry": {
        "type": "Point",
        "coordinates": [
          -84.458919261804,
          33.708306458966
        ]
      }
    },
    {
      "type": "Feature",
      "properties": {
        "record": "BA-202603740",
        "address": "1049 CUSTER AVE SE, ATLANTA GA 00000",
        "status": "ACA Pending",
        "date": "08/04/2026",
        "description": null,
        "owner": "SCHOOLHOUSE FINANCE LLC",
        "tree_dbh": "10",
        "tree_location": "left side of the property.",
        "reason_removal": "Dead tree",
        "tree_description": "10.5” DBH dead American Elm tree on the left side of the entrance road to the building.Reason for Removal:Dead tree\n\t\t\n\t\n\t\n                                \n                            \n                        \n                    \n                        \n                            \n                                \n                                    \n                                        \n                                         Parcel Information\n                                \n                            \n                            \n                                \n                                    \n\t\tParcel Number:14 0009  LL056 *Block:--Lot:--Subdivision:--",
        "tree_number": "1",
        "species": "Elm"
      },
      "geometry": {
        "type": "Point",
        "coordinates": [
          -84.354952559454,
          33.716276899852
        ]
      }
    },
    {
      "type": "Feature",
      "properties": {
        "record": "BA-202603733",
        "address": "2040 DEKALB AVE NE, ATLANTA GA 30307",
        "status": "Accepted",
        "date": "08/04/2026",
        "description": null,
        "owner": null,
        "tree_dbh": "55",
        "tree_location": "2040A Dekalb Ave",
        "reason_removal": "Significant cavity/area of decay",
        "tree_description": null,
        "tree_number": "1",
        "species": "Water Oak"
      },
      "geometry": {
        "type": "Point",
        "coordinates": [
          -84.320373075647,
          33.762747894798
        ]
      }
    },
    {
      "type": "Feature",
      "properties": {
        "record": "BA-202603718",
        "address": "443 10TH ST NW, ATLANTA GA 30318",
        "status": "Accepted",
        "date": "08/04/2026",
        "description": null,
        "owner": null,
        "tree_dbh": "15",
        "tree_location": "on retaining wall next to driveway",
        "reason_removal": "Other",
        "tree_description": null,
        "tree_number": "1",
        "species": "Oak"
      },
      "geometry": {
        "type": "Point",
        "coordinates": [
          -84.401802117815,
          33.781581253607
        ]
      }
    },
    {
      "type": "Feature",
      "properties": {
        "record": "BA-202603726",
        "address": "68 SPENCE AVE SE, ATLANTA GA 30317",
        "status": "Accepted",
        "date": "08/04/2026",
        "description": null,
        "owner": null,
        "tree_dbh": "24",
        "tree_location": "front yard",
        "reason_removal": "Dying tree",
        "tree_description": "dying tree in front yardReason for Removal:Dying tree\n\t\t\n\t\n\t\n                                \n                            \n                        \n                    \n                        \n                            \n                                \n                                    \n                                        \n                                         Parcel Information\n                                \n                            \n                            \n                                \n                                    \n\t\tParcel Number:15 203 03 082 *Block:--Lot:--Subdivision:--",
        "tree_number": "1",
        "species": "Pecan"
      },
      "geometry": {
        "type": "Point",
        "coordinates": [
          -84.296055214505,
          33.75015243313
        ]
      }
    },
    {
      "type": "Feature",
      "properties": {
        "record": "BA-202603732",
        "address": "1267 PONTI MEWS NW, ATLANTA GA 30318",
        "status": "Accepted",
        "date": "08/04/2026",
        "description": null,
        "owner": "Alan Liu",
        "tree_dbh": "20",
        "tree_location": "back of house",
        "reason_removal": "Diseased",
        "tree_description": "20\" Elm, back of house, tree appears diseased and unhealthyReason for Removal:DiseasedComments:20\" Elm, back of house, tree appears diseased and unhealthy\n\t\t\n\t\n\t\n                                \n                            \n                        \n                    \n                        \n                            \n                                \n                                    \n                                        \n                                         Parcel Information\n                                \n                            \n                            \n                                \n                                    \n\t\tParcel Number:17 01910007110 *Block:--Lot:--Subdivision:--",
        "tree_number": "1",
        "species": "Elm"
      },
      "geometry": {
        "type": "Point",
        "coordinates": [
          -84.428656557045,
          33.792511422338
        ]
      }
    },
    {
      "type": "Feature",
      "properties": {
        "record": "BA-202603731",
        "address": "3883 LAKE FORREST DR NE, ATLANTA GA 30342",
        "status": "Accepted",
        "date": "08/04/2026",
        "description": null,
        "owner": null,
        "tree_dbh": "36",
        "tree_location": "back left",
        "reason_removal": "Uncorrectable defect",
        "tree_description": "A resistograph was performed approximately 45 feet up the main stem. A significant cavity/area of decay was detected, greater than 30% loss of sound wood.Reason for Removal:Significant cavity/area of decay\n\t\t\n\t\t\n\t\t\tTree number:3Species:hemlockTree Size (DBH):17Tree location:left sideDescription of Tree:17\" diameter hemlock tree on the left side of the house. The tree presents a lean equal to or greater than 20 degrees. Over 40% of the SRP is covered by impermeable surface.Reason for Removal:Uncorrectable defect\n\t\t\n\t\n\t\n                                \n                            \n                        \n                    \n                        \n                            \n                                \n                                    \n                                        \n                                         Parcel Information\n                                \n                            \n                            \n                                \n                                    \n\t\tParcel Number:17 00970002068 *Block:--Lot:--Subdivision:--",
        "tree_number": "2",
        "species": "poplar"
      },
      "geometry": {
        "type": "Point",
        "coordinates": [
          -84.386741921442,
          33.861058436224
        ]
      }
    },
    {
      "type": "Feature",
      "properties": {
        "record": "BA-202603721",
        "address": "4431 DAVIDSON AVE NE, ATLANTA GA 30319",
        "status": "Accepted",
        "date": "08/04/2026",
        "description": null,
        "owner": null,
        "tree_dbh": "15",
        "tree_location": "Left of Driveway",
        "reason_removal": "Other",
        "tree_description": "Uprooted Reason for Removal:Other\n\t\t\n\t\n\t\n                                \n                            \n                        \n                    \n                        \n                            \n                                \n                                    \n                                        \n                                         Parcel Information\n                                \n                            \n                            \n                                \n                                    \n\t\tParcel Number:17 00120004054 *Block:--Lot:--Subdivision:--",
        "tree_number": "1",
        "species": "River Birch"
      },
      "geometry": {
        "type": "Point",
        "coordinates": [
          -84.352100801145,
          33.873205483257
        ]
      }
    },
    {
      "type": "Feature",
      "properties": {
        "record": "BA-202603738",
        "address": "1274 EDMUND PARK DR NE, ATLANTA GA 30306",
        "status": "Issued",
        "date": "08/04/2026",
        "description": "Dying Cherry tree in rear yard",
        "owner": null,
        "tree_dbh": null,
        "tree_location": null,
        "reason_removal": null,
        "tree_description": null,
        "tree_number": null,
        "species": null
      },
      "geometry": {
        "type": "Point",
        "coordinates": [
          -84.342453115751,
          33.79482689472
        ]
      }
    },
    {
      "type": "Feature",
      "properties": {
        "record": "BA-202603712",
        "address": "864 ADAIR AVE NE, ATLANTA GA 30306",
        "status": "Issued",
        "date": "08/04/2026",
        "description": "DDH- Magnolia tree in the rear right",
        "owner": null,
        "tree_dbh": null,
        "tree_location": null,
        "reason_removal": null,
        "tree_description": null,
        "tree_number": null,
        "species": null
      },
      "geometry": {
        "type": "Point",
        "coordinates": [
          -84.358933394096,
          33.780039279138
        ]
      }
    }
  ]
}