{
  "type": "FeatureCollection",
  "features": [
    {
      "type": "Feature",
      "properties": {
        "record": "26TMP-063818",
        "address": "3777 PEACHTREE DUNWOODY RD NE, ATLANTA GA 30342",
        "status": "",
        "date": "09/27/2026",
        "description": null,
        "owner": null,
        "tree_dbh": null,
        "tree_location": null,
        "reason_removal": null,
        "tree_description": null,
        "tree_number": null,
        "species": null,
        "comments": null,
        "tree_count": null,
        "trees": null
      },
      "geometry": {
        "type": "Point",
        "coordinates": [
          -84.357924512692,
          33.858279515786
        ]
      }
    },
    {
      "type": "Feature",
      "properties": {
        "record": "BA-202604988",
        "address": "644 GRANT ST SE, ATLANTA GA 0",
        "status": "ACA Pending",
        "date": "09/27/2026",
        "description": null,
        "owner": "Duke Brown",
        "tree_dbh": "50",
        "tree_location": "Side yard.",
        "reason_removal": "Significant cavity/area of decay",
        "tree_description": null,
        "tree_number": "1",
        "species": "Oak",
        "comments": null,
        "tree_count": 1,
        "trees": [
          {
            "tree_number": "1",
            "species": "Oak",
            "tree_dbh": "50",
            "tree_location": "Side yard.",
            "tree_description": null,
            "reason_removal": "Significant cavity/area of decay",
            "comments": null
          }
        ]
      },
      "geometry": {
        "type": "Point",
        "coordinates": [
          -84.376394877243,
          33.737186954627
        ]
      }
    },
    {
      "type": "Feature",
      "properties": {
        "record": "BA-202604982",
        "address": "2285 BELVEDERE AVE SW, ATLANTA GA 30311",
        "status": "ACA Pending",
        "date": "09/27/2026",
        "description": null,
        "owner": "TONEY PHYLLIS M",
        "tree_dbh": "30",
        "tree_location": "west-side of home--front yard",
        "reason_removal": "Diseased",
        "tree_description": "30 feet height--leaning towards house",
        "tree_number": "1",
        "species": "unk",
        "comments": null,
        "tree_count": 1,
        "trees": [
          {
            "tree_number": "1",
            "species": "unk",
            "tree_dbh": "30",
            "tree_location": "west-side of home--front yard",
            "tree_description": "30 feet height--leaning towards house",
            "reason_removal": "Diseased",
            "comments": null
          }
        ]
      },
      "geometry": {
        "type": "Point",
        "coordinates": [
          -84.462757007167,
          33.721182610246
        ]
      }
    },
    {
      "type": "Feature",
      "properties": {
        "record": "26TMP-063816",
        "address": "3777 PEACHTREE DUNWOODY RD NE, ATLANTA GA 30342",
        "status": "",
        "date": "09/27/2026",
        "description": null,
        "owner": null,
        "tree_dbh": null,
        "tree_location": null,
        "reason_removal": null,
        "tree_description": null,
        "tree_number": null,
        "species": null,
        "comments": null,
        "tree_count": null,
        "trees": null
      },
      "geometry": {
        "type": "Point",
        "coordinates": [
          -84.357924512692,
          33.858279515786
        ]
      }
    },
    {
      "type": "Feature",
      "properties": {
        "record": "BA-202604985",
        "address": "943 PEACHTREE BATTLE AVE NW, ATLANTA GA 30327",
        "status": "ACA Pending",
        "date": "09/27/2026",
        "description": null,
        "owner": null,
        "tree_dbh": null,
        "tree_location": null,
        "reason_removal": null,
        "tree_description": null,
        "tree_number": null,
        "species": null,
        "comments": null,
        "tree_count": null,
        "trees": null
      },
      "geometry": {
        "type": "Point",
        "coordinates": [
          -84.417712227137,
          33.82477734637
        ]
      }
    },
    {
      "type": "Feature",
      "properties": {
        "record": "BA-202604984",
        "address": "816 CUMBERLAND RD NE, ATLANTA GA 30306",
        "status": "ACA Pending",
        "date": "09/27/2026",
        "description": null,
        "owner": null,
        "tree_dbh": null,
        "tree_location": null,
        "reason_removal": null,
        "tree_description": null,
        "tree_number": null,
        "species": null,
        "comments": null,
        "tree_count": null,
        "trees": null
      },
      "geometry": {
        "type": "Point",
        "coordinates": [
          -84.360207844395,
          33.796235716777
        ]
      }
    },
    {
      "type": "Feature",
      "properties": {
        "record": "BA-202604986",
        "address": "1322 EUCLID AVE NE, ATLANTA GA 30307",
        "status": "ACA Pending",
        "date": "09/27/2026",
        "description": null,
        "owner": null,
        "tree_dbh": null,
        "tree_location": null,
        "reason_removal": null,
        "tree_description": null,
        "tree_number": null,
        "species": null,
        "comments": null,
        "tree_count": null,
        "trees": null
      },
      "geometry": {
        "type": "Point",
        "coordinates": [
          -84.344339339849,
          33.76867584376
        ]
      }
    },
    {
      "type": "Feature",
      "properties": {
        "record": "BA-202604992",
        "address": "2281 PERKERSON RD SW, ATLANTA GA 30315",
        "status": "ACA Pending",
        "date": "09/27/2026",
        "description": null,
        "owner": null,
        "tree_dbh": null,
        "tree_location": null,
        "reason_removal": null,
        "tree_description": null,
        "tree_number": null,
        "species": null,
        "comments": null,
        "tree_count": null,
        "trees": null
      },
      "geometry": {
        "type": "Point",
        "coordinates": [
          -84.41145664542,
          33.692185637521
        ]
      }
    },
    {
      "type": "Feature",
      "properties": {
        "record": "BA-202604994",
        "address": "143 BLACKLAND RD NW, ATLANTA GA 30342",
        "status": "ACA Pending",
        "date": "09/27/2026",
        "description": null,
        "owner": null,
        "tree_dbh": null,
        "tree_location": null,
        "reason_removal": null,
        "tree_description": null,
        "tree_number": null,
        "species": null,
        "comments": null,
        "tree_count": null,
        "trees": null
      },
      "geometry": {
        "type": "Point",
        "coordinates": [
          -84.391362399959,
          33.858938998244
        ]
      }
    },
    {
      "type": "Feature",
      "properties": {
        "record": "BA-202604990",
        "address": "1099 CASCADE AVE SW, ATLANTA GA 30311",
        "status": "ACA Pending",
        "date": "09/27/2026",
        "description": null,
        "owner": null,
        "tree_dbh": null,
        "tree_location": null,
        "reason_removal": null,
        "tree_description": null,
        "tree_number": null,
        "species": null,
        "comments": null,
        "tree_count": null,
        "trees": null
      },
      "geometry": {
        "type": "Point",
        "coordinates": [
          -84.450239851911,
          33.724314572197
        ]
      }
    },
    {
      "type": "Feature",
      "properties": {
        "record": "BA-202604987",
        "address": "996 FERN AVE SE, ATLANTA GA 30315",
        "status": "ACA Pending",
        "date": "09/27/2026",
        "description": null,
        "owner": null,
        "tree_dbh": null,
        "tree_location": null,
        "reason_removal": null,
        "tree_description": null,
        "tree_number": null,
        "species": null,
        "comments": null,
        "tree_count": null,
        "trees": null
      },
      "geometry": {
        "type": "Point",
        "coordinates": [
          -84.38509558187,
          33.727240584178
        ]
      }
    },
    {
      "type": "Feature",
      "properties": {
        "record": "BA-202604983",
        "address": "2285 BELVEDERE AVE SW, ATLANTA GA 30311",
        "status": "ACA Pending",
        "date": "09/27/2026",
        "description": null,
        "owner": null,
        "tree_dbh": null,
        "tree_location": null,
        "reason_removal": null,
        "tree_description": null,
        "tree_number": null,
        "species": null,
        "comments": null,
        "tree_count": null,
        "trees": null
      },
      "geometry": {
        "type": "Point",
        "coordinates": [
          -84.462757007167,
          33.721182610246
        ]
      }
    },
    {
      "type": "Feature",
      "properties": {
        "record": "BA-202604989",
        "address": "3771 PEACHTREE DUNWOODY RD NE, ATLANTA GA 30342",
        "status": "ACA Pending",
        "date": "09/27/2026",
        "description": null,
        "owner": null,
        "tree_dbh": null,
        "tree_location": null,
        "reason_removal": null,
        "tree_description": null,
        "tree_number": null,
        "species": null,
        "comments": null,
        "tree_count": null,
        "trees": null
      },
      "geometry": {
        "type": "Point",
        "coordinates": [
          -84.357926524138,
          33.858052653903
        ]
      }
    },
    {
      "type": "Feature",
      "properties": {
        "record": "BA-202604991",
        "address": "1119 CASCADE AVE SW, ATLANTA GA 30311",
        "status": "ACA Pending",
        "date": "09/27/2026",
        "description": null,
        "owner": null,
        "tree_dbh": null,
        "tree_location": null,
        "reason_removal": null,
        "tree_description": null,
        "tree_number": null,
        "species": null,
        "comments": null,
        "tree_count": null,
        "trees": null
      },
      "geometry": {
        "type": "Point",
        "coordinates": [
          -84.45032977954,
          33.724029245208
        ]
      }
    },
    {
      "type": "Feature",
      "properties": {
        "record": "BA-202604993",
        "address": "2291 PERKERSON RD SW, ATLANTA GA 30315",
        "status": "ACA Pending",
        "date": "09/27/2026",
        "description": null,
        "owner": null,
        "tree_dbh": null,
        "tree_location": null,
        "reason_removal": null,
        "tree_description": null,
        "tree_number": null,
        "species": null,
        "comments": null,
        "tree_count": null,
        "trees": null
      },
      "geometry": {
        "type": "Point",
        "coordinates": [
          -84.411460655853,
          33.691957978058
        ]
      }
    }
  ]
}