{
  "type": "FeatureCollection",
  "features": [
    {
      "type": "Feature",
      "properties": {
        "record": "BA-202604392",
        "address": "877 TIFT AVE SW, ATLANTA GA 30310",
        "status": "ACA Pending",
        "date": "09/02/2026",
        "description": null,
        "owner": "Kevin Fink",
        "tree_dbh": "17",
        "tree_location": "Left side of backyard",
        "reason_removal": "Dying tree",
        "tree_description": "70% of canopy is deadReason for Removal:Dying treeComments:Orange paint\n\t\t\n\t\n\t\n                                \n                            \n                        \n                    \n                        \n                            \n                                \n                                    \n                                        \n                                         Parcel Information\n                                \n                            \n                            \n                                \n                                    \n\t\tParcel Number:14 01070009015 *Block:--Lot:--Subdivision:--",
        "tree_number": "1",
        "species": "Mulberry"
      },
      "geometry": {
        "type": "Point",
        "coordinates": [
          -84.41051511427,
          33.730610030041
        ]
      }
    },
    {
      "type": "Feature",
      "properties": {
        "record": "BA-202604404",
        "address": "3345 CHATHAM RD NW, ATLANTA GA 30305",
        "status": "ACA Pending",
        "date": "09/02/2026",
        "description": null,
        "owner": null,
        "tree_dbh": "16",
        "tree_location": "right",
        "reason_removal": "Dying tree",
        "tree_description": "located along the right side of the property have outgrown their existing planting conditions and available growing space. The trees have become too large for their current location and have begun dropping larger limbs onto vehicles parked beneath the canopies. Due to their proximity to the driveway and surrounding improvements, continued growth may also create conflicts with the nearby foundation and hardscape. Removal and stump grinding are recommended at this time to allow for replacement with more appropriately sized tree species suitable for the available planting space. Reason for Removal:Dying tree\n\t\t\n\t\t\n\t\t\tTree number:2Species:magnoliaTree Size (DBH):12Tree location:back right Description of Tree:located in the back right of the property are exhibiting significant decline, with deadwood present throughout the canopies of both trees. The trees are suppressed beneath larger surrounding hardwoods and are receiving inadequate sunlight due to competition for available growing space and resources.",
        "tree_number": "1",
        "species": "magnolia"
      },
      "geometry": {
        "type": "Point",
        "coordinates": [
          -84.391506555616,
          33.846301677902
        ]
      }
    },
    {
      "type": "Feature",
      "properties": {
        "record": "BA-202604426",
        "address": "180 GIBSON ST SE, ATLANTA GA 30316",
        "status": "ACA Pending",
        "date": "09/02/2026",
        "description": null,
        "owner": null,
        "tree_dbh": null,
        "tree_location": null,
        "reason_removal": null,
        "tree_description": null,
        "tree_number": null,
        "species": null
      },
      "geometry": {
        "type": "Point",
        "coordinates": [
          -84.355594908945,
          33.748851577958
        ]
      }
    },
    {
      "type": "Feature",
      "properties": {
        "record": "BA-202604409",
        "address": "545 GREENWOOD AVE NE, ATLANTA GA 30308",
        "status": "ACA Pending",
        "date": "09/02/2026",
        "description": null,
        "owner": null,
        "tree_dbh": null,
        "tree_location": null,
        "reason_removal": null,
        "tree_description": null,
        "tree_number": null,
        "species": null
      },
      "geometry": {
        "type": "Point",
        "coordinates": [
          -84.369124731703,
          33.776810263317
        ]
      }
    },
    {
      "type": "Feature",
      "properties": {
        "record": "BA-202604414",
        "address": "2232 PAUL AVE NW, ATLANTA GA 30318",
        "status": "ACA Pending",
        "date": "09/02/2026",
        "description": null,
        "owner": null,
        "tree_dbh": null,
        "tree_location": null,
        "reason_removal": null,
        "tree_description": null,
        "tree_number": null,
        "species": null
      },
      "geometry": {
        "type": "Point",
        "coordinates": [
          -84.471910205621,
          33.816245795967
        ]
      }
    },
    {
      "type": "Feature",
      "properties": {
        "record": "BA-202604425",
        "address": "1820 PEACHTREE RD NW, ATLANTA GA 30309",
        "status": "ACA Pending",
        "date": "09/02/2026",
        "description": null,
        "owner": null,
        "tree_dbh": null,
        "tree_location": null,
        "reason_removal": null,
        "tree_description": null,
        "tree_number": null,
        "species": null
      },
      "geometry": {
        "type": "Point",
        "coordinates": [
          -84.393737649285,
          33.804816476819
        ]
      }
    },
    {
      "type": "Feature",
      "properties": {
        "record": "BA-202604406",
        "address": "1094 AMSTERDAM AVE NE, ATLANTA GA 30306",
        "status": "ACA Pending",
        "date": "09/02/2026",
        "description": null,
        "owner": null,
        "tree_dbh": null,
        "tree_location": null,
        "reason_removal": null,
        "tree_description": null,
        "tree_number": null,
        "species": null
      },
      "geometry": {
        "type": "Point",
        "coordinates": [
          -84.351263938062,
          33.787626874569
        ]
      }
    },
    {
      "type": "Feature",
      "properties": {
        "record": "BA-202604415",
        "address": "2238 PAUL AVE NW, ATLANTA GA 30318",
        "status": "ACA Pending",
        "date": "09/02/2026",
        "description": null,
        "owner": null,
        "tree_dbh": null,
        "tree_location": null,
        "reason_removal": null,
        "tree_description": null,
        "tree_number": null,
        "species": null
      },
      "geometry": {
        "type": "Point",
        "coordinates": [
          -84.472063157457,
          33.816370817488
        ]
      }
    },
    {
      "type": "Feature",
      "properties": {
        "record": "26TMP-058318",
        "address": "780 FRANCIS PL NW, ATLANTA GA 30318",
        "status": "",
        "date": "09/02/2026",
        "description": null,
        "owner": null,
        "tree_dbh": null,
        "tree_location": null,
        "reason_removal": null,
        "tree_description": null,
        "tree_number": null,
        "species": null
      },
      "geometry": {
        "type": "Point",
        "coordinates": [
          -84.437927069765,
          33.77656377204
        ]
      }
    },
    {
      "type": "Feature",
      "properties": {
        "record": "BA-202604407",
        "address": "990 MCLYNN AVE NE, ATLANTA GA 30306",
        "status": "ACA Pending",
        "date": "09/02/2026",
        "description": null,
        "owner": null,
        "tree_dbh": null,
        "tree_location": null,
        "reason_removal": null,
        "tree_description": null,
        "tree_number": null,
        "species": null
      },
      "geometry": {
        "type": "Point",
        "coordinates": [
          -84.354195706437,
          33.788759851604
        ]
      }
    },
    {
      "type": "Feature",
      "properties": {
        "record": "BA-202604412",
        "address": "1270 DRUID PL NE, ATLANTA GA 30307",
        "status": "ACA Pending",
        "date": "09/02/2026",
        "description": null,
        "owner": null,
        "tree_dbh": null,
        "tree_location": null,
        "reason_removal": null,
        "tree_description": null,
        "tree_number": null,
        "species": null
      },
      "geometry": {
        "type": "Point",
        "coordinates": [
          -84.345732840565,
          33.769046251528
        ]
      }
    },
    {
      "type": "Feature",
      "properties": {
        "record": "BA-202604403",
        "address": "337 CLIFTON RD NE, ATLANTA GA 30307",
        "status": "ACA Pending",
        "date": "09/02/2026",
        "description": null,
        "owner": null,
        "tree_dbh": null,
        "tree_location": null,
        "reason_removal": null,
        "tree_description": null,
        "tree_number": null,
        "species": null
      },
      "geometry": {
        "type": "Point",
        "coordinates": [
          -84.332912512771,
          33.763987104745
        ]
      }
    },
    {
      "type": "Feature",
      "properties": {
        "record": "BA-202604410",
        "address": "1513 MOZLEY PL SW, ATLANTA GA 30314",
        "status": "ACA Pending",
        "date": "09/02/2026",
        "description": null,
        "owner": null,
        "tree_dbh": null,
        "tree_location": null,
        "reason_removal": null,
        "tree_description": null,
        "tree_number": null,
        "species": null
      },
      "geometry": {
        "type": "Point",
        "coordinates": [
          -84.436817999813,
          33.751250319027
        ]
      }
    },
    {
      "type": "Feature",
      "properties": {
        "record": "BA-202604421",
        "address": "173 MEADOR WAY SE, ATLANTA GA 30315",
        "status": "ACA Pending",
        "date": "09/02/2026",
        "description": null,
        "owner": null,
        "tree_dbh": null,
        "tree_location": null,
        "reason_removal": null,
        "tree_description": null,
        "tree_number": null,
        "species": null
      },
      "geometry": {
        "type": "Point",
        "coordinates": [
          -84.382467168696,
          33.6979432807
        ]
      }
    },
    {
      "type": "Feature",
      "properties": {
        "record": "26TMP-058333",
        "address": "606 WEST WESLEY RD NW, ATLANTA GA 30327",
        "status": "",
        "date": "09/02/2026",
        "description": null,
        "owner": null,
        "tree_dbh": null,
        "tree_location": null,
        "reason_removal": null,
        "tree_description": null,
        "tree_number": null,
        "species": null
      },
      "geometry": {
        "type": "Point",
        "coordinates": [
          -84.40769022536,
          33.828650253666
        ]
      }
    },
    {
      "type": "Feature",
      "properties": {
        "record": "BA-202604418",
        "address": "8 SCREVEN AVE NE, ATLANTA GA 30307",
        "status": "ACA Pending",
        "date": "09/02/2026",
        "description": null,
        "owner": null,
        "tree_dbh": null,
        "tree_location": null,
        "reason_removal": null,
        "tree_description": null,
        "tree_number": null,
        "species": null
      },
      "geometry": {
        "type": "Point",
        "coordinates": [
          -84.348125702566,
          33.753556641294
        ]
      }
    },
    {
      "type": "Feature",
      "properties": {
        "record": "BA-202604413",
        "address": "2226 PAUL AVE NW, ATLANTA GA 30318",
        "status": "ACA Pending",
        "date": "09/02/2026",
        "description": null,
        "owner": "Manuel Velez",
        "tree_dbh": "35",
        "tree_location": "Left side. Tree is flagged.",
        "reason_removal": "Significant cavity/area of decay",
        "tree_description": "Tree has a large cavity at ground-level up past dbh.Reason for Removal:Significant cavity/area of decay\n\t\t\n\t\t\n\t\t\tTree number:2Species:MulberryTree Size (DBH):8Tree location:Left side. Tree is flagged.Description of Tree:8in Mulberry with no central leader.Reason for Removal:Uncorrectable defect\n\t\t\n\t\t\n\t\t\tTree number:1Species:PoplarTree Size (DBH):31Tree location:Left side. Tree is flagged.Description of Tree:31\" tridom Poplar with large cavity in the center of the crotch.Reason for Removal:Significant cavity/area of decay\n\t\t\n\t\n\t\n                                \n                            \n                        \n                    \n                        \n                            \n                                \n                                    \n                                        \n                                         Parcel Information\n                                \n                            \n                            \n                                \n                                    \n\t\tParcel Number:T17 02530001127 03 *Block:--Lot:--Subdivision:MSD-24-045",
        "tree_number": "3",
        "species": "Poplar"
      },
      "geometry": {
        "type": "Point",
        "coordinates": [
          -84.471757253786,
          33.816120774446
        ]
      }
    },
    {
      "type": "Feature",
      "properties": {
        "record": "BA-202604405",
        "address": "135 PEARL ST SE, ATLANTA GA 30316",
        "status": "ACA Pending",
        "date": "09/02/2026",
        "description": null,
        "owner": "Ernest Rogers",
        "tree_dbh": "12",
        "tree_location": "135 Pearl St SE, in fenced area behind ADU",
        "reason_removal": "Other",
        "tree_description": "Dying, bark falling off, mushrooms growing up side.Reason for Removal:Dying tree\n\t\t\n\t\t\n\t\t\tTree number:2Species:AlianthusTree Size (DBH):15Tree location:135 Pear St SE, outside of fence, on south side of fence along alleyway.Description of Tree:Dead, hollow, covered in dead ivyReason for Removal:Dead tree\n\t\t\n\t\t\n\t\t\tTree number:3Species:HackberryTree Size (DBH):11Tree location:135 Pearl St SE, in fenced area behind ADUDescription of Tree:Making an indentation in roof shingles of ADU.Reason for Removal:Other\n\t\t\n\t\n\t\n                                \n                            \n                        \n                    \n                        \n                            \n                                \n                                    \n                                        \n                                         Parcel Information\n                                \n                            \n                            \n                                \n                                    \n\t\tParcel Number:14 00200006057 *Block:--Lot:--Subdivision:--",
        "tree_number": "1",
        "species": "Cherry"
      },
      "geometry": {
        "type": "Point",
        "coordinates": [
          -84.362235660339,
          33.750827642005
        ]
      }
    },
    {
      "type": "Feature",
      "properties": {
        "record": "BA-202604423",
        "address": "392 KELSO DR SW, ATLANTA GA 30311",
        "status": "ACA Pending",
        "date": "09/02/2026",
        "description": null,
        "owner": "UNITED COMMUNITY BANK",
        "tree_dbh": "25",
        "tree_location": "Front Left corner of lot facing the house",
        "reason_removal": "Dying tree",
        "tree_description": "Dying Maple TreeReason for Removal:Dying treeComments:Dying Maple tree\n\t\t\n\t\n\t\n                                \n                            \n                        \n                    \n                        \n                            \n                                \n                                    \n                                        \n                                         Parcel Information\n                                \n                            \n                            \n                                \n                                    \n\t\tParcel Number:14 02040001098 *Block:--Lot:--Subdivision:--",
        "tree_number": "1",
        "species": "Maple"
      },
      "geometry": {
        "type": "Point",
        "coordinates": [
          -84.468940490605,
          33.747362698058
        ]
      }
    },
    {
      "type": "Feature",
      "properties": {
        "record": "BA-202604408",
        "address": "810 LORIDAN CIR NE, ATLANTA GA 00000",
        "status": "ACA Pending",
        "date": "09/02/2026",
        "description": null,
        "owner": null,
        "tree_dbh": "30",
        "tree_location": "Back left of property",
        "reason_removal": "Dead tree",
        "tree_description": "30 Oak, back left of property, DeadReason for Removal:Dead treeComments:30 Oak, back left of property, Dead\n\t\t\n\t\n\t\n                                \n                            \n                        \n                    \n                        \n                            \n                                \n                                    \n                                        \n                                         Parcel Information\n                                \n                            \n                            \n                                \n                                    \n\t\tParcel Number:17 00420002027 *Block:--Lot:--Subdivision:--",
        "tree_number": "1",
        "species": "Oak"
      },
      "geometry": {
        "type": "Point",
        "coordinates": [
          -84.359996257617,
          33.872435444239
        ]
      }
    },
    {
      "type": "Feature",
      "properties": {
        "record": "26TMP-058335",
        "address": "195 ESTORIA ST SE, ATLANTA GA 30316",
        "status": "",
        "date": "09/02/2026",
        "description": null,
        "owner": null,
        "tree_dbh": null,
        "tree_location": null,
        "reason_removal": null,
        "tree_description": null,
        "tree_number": null,
        "species": null
      },
      "geometry": {
        "type": "Point",
        "coordinates": [
          -84.363130712598,
          33.749050783006
        ]
      }
    },
    {
      "type": "Feature",
      "properties": {
        "record": "BA-202604400",
        "address": "3514 LENARDO DR SW, ATLANTA GA 30331",
        "status": "ACA Pending",
        "date": "09/02/2026",
        "description": null,
        "owner": null,
        "tree_dbh": "28",
        "tree_location": "back right",
        "reason_removal": "Dying tree",
        "tree_description": "codominant leaders with included bark home is a targetReason for Removal:Dying tree\n\t\t\n\t\t\n\t\t\tTree number:2Species:pineTree Size (DBH):21Tree location:front rightDescription of Tree:Canker in the trunk 30% of the trunk home is a target Reason for Removal:Dying tree\n\t\t\n\t\t\n\t\t\tTree number:3Species:pineTree Size (DBH):20Tree location:front rightDescription of Tree:90% of the canopy is over distribution lines Reason for Removal:Dying tree\n\t\t\n\t\t\n\t\t\tTree number:4Species:pineTree Size (DBH):17Tree location:front right Description of Tree:pine very thin canopy home is a target Reason for Removal:Dying tree\n\t\t\n\t\n\t\n                                \n                            \n                        \n                    \n                        \n                            \n                                \n                                    \n                                        \n                                         Parcel Information\n                                \n                            \n                            \n                                \n                                    \n\t\tParcel Number:14 02500002067 *Block:--Lot:--Subdivision:--",
        "tree_number": "1",
        "species": "pine"
      },
      "geometry": {
        "type": "Point",
        "coordinates": [
          -84.504317531289,
          33.698802253338
        ]
      }
    },
    {
      "type": "Feature",
      "properties": {
        "record": "BA-202604422",
        "address": "3068 WEST ROXBORO RD NE, ATLANTA GA 30324",
        "status": "ACA Pending",
        "date": "09/02/2026",
        "description": null,
        "owner": "SIMS ROBERT M",
        "tree_dbh": "24",
        "tree_location": "front yard",
        "reason_removal": "Other",
        "tree_description": "24\" White Oak, right side of drive, declining, 3 decaying cavities at baseReason for Removal:Significant cavity/area of decayComments:24\" White Oak, right side of drive, declining, 3 decaying cavities at base\n\t\t\n\t\t\n\t\t\tTree number:2Species:Water OakTree Size (DBH):28Tree location:front yardDescription of Tree:28\" Water Oak, Front yard, Declining, BeetlesReason for Removal:OtherComments:28\" Water Oak, Front yard, Declining, Beetles\n\t\t\n\t\n\t\n                                \n                            \n                        \n                    \n                        \n                            \n                                \n                                    \n                                        \n                                         Parcel Information\n                                \n                            \n                            \n                                \n                                    \n\t\tParcel Number:17 00080003027 *Block:--Lot:--Subdivision:--",
        "tree_number": "1",
        "species": "Water Oak"
      },
      "geometry": {
        "type": "Point",
        "coordinates": [
          -84.349076067434,
          33.838388962959
        ]
      }
    },
    {
      "type": "Feature",
      "properties": {
        "record": "BA-202604417",
        "address": "1364 LORENZO DR SW, ATLANTA GA 30310",
        "status": "ACA Pending",
        "date": "09/02/2026",
        "description": null,
        "owner": "HARVELL HERSCHELL",
        "tree_dbh": "28",
        "tree_location": "back center",
        "reason_removal": "Dead tree",
        "tree_description": "28\" Oak, back center, DeadReason for Removal:Dead treeComments:28\" Oak, back center, Dead\n\t\t\n\t\n\t\n                                \n                            \n                        \n                    \n                        \n                            \n                                \n                                    \n                                        \n                                         Parcel Information\n                                \n                            \n                            \n                                \n                                    \n\t\tParcel Number:14 01370005044 *Block:--Lot:--Subdivision:--",
        "tree_number": "1",
        "species": "Oak"
      },
      "geometry": {
        "type": "Point",
        "coordinates": [
          -84.432494331018,
          33.718370852676
        ]
      }
    },
    {
      "type": "Feature",
      "properties": {
        "record": "BA-202604397",
        "address": "2622 ELLWOOD DR NE, ATLANTA GA 30305",
        "status": "ACA Pending",
        "date": "09/02/2026",
        "description": null,
        "owner": "Samantha Cummin",
        "tree_dbh": "9",
        "tree_location": "Right foundation of home",
        "reason_removal": "Uncorrectable defect",
        "tree_description": "Too close too homeReason for Removal:Uncorrectable defectComments:Ribbon\n\t\t\n\t\n\t\n                                \n                            \n                        \n                    \n                        \n                            \n                                \n                                    \n                                        \n                                         Parcel Information\n                                \n                            \n                            \n                                \n                                    \n\t\tParcel Number:17 00590001046 *Block:--Lot:--Subdivision:--",
        "tree_number": "1",
        "species": "Crepe Myrtle"
      },
      "geometry": {
        "type": "Point",
        "coordinates": [
          -84.376011558994,
          33.826029460039
        ]
      }
    },
    {
      "type": "Feature",
      "properties": {
        "record": "BA-202604416",
        "address": "2235 FAIRHAVEN CIR NE, ATLANTA GA 30305",
        "status": "ACA Pending",
        "date": "09/02/2026",
        "description": null,
        "owner": null,
        "tree_dbh": "52",
        "tree_location": "Front yard, right.",
        "reason_removal": "Significant cavity/area of decay",
        "tree_description": "Picture of treeReason for Removal:Significant cavity/area of decayComments:Trunk rot. Ganoderma mushroom, internal decay from previous top broken off. (2) Houses and driveways within target of 20-40\" Diameter branch failure.\n\t\t\n\t\n\t\n                                \n                            \n                        \n                    \n                        \n                            \n                                \n                                    \n                                        \n                                         Parcel Information\n                                \n                            \n                            \n                                \n                                    \n\t\tParcel Number:17 01020009003 *Block:--Lot:--Subdivision:--",
        "tree_number": "1",
        "species": "Water Oak"
      },
      "geometry": {
        "type": "Point",
        "coordinates": [
          -84.384184104466,
          33.815895722825
        ]
      }
    },
    {
      "type": "Feature",
      "properties": {
        "record": "BA-202604424",
        "address": "840 MOORES MILL RD NW, ATLANTA GA 30327",
        "status": "ACA Pending",
        "date": "09/02/2026",
        "description": null,
        "owner": "EIGHT FOUR ZERO MOORES MILL LL",
        "tree_dbh": "30",
        "tree_location": "front left corner",
        "reason_removal": "Other",
        "tree_description": null,
        "tree_number": "1",
        "species": "hardwood"
      },
      "geometry": {
        "type": "Point",
        "coordinates": [
          -84.414958211344,
          33.840769941882
        ]
      }
    },
    {
      "type": "Feature",
      "properties": {
        "record": "BA-202604419",
        "address": "2486 MONTVIEW DR NW, ATLANTA GA 30305",
        "status": "ACA Pending",
        "date": "09/02/2026",
        "description": null,
        "owner": "HOYT FRED A JR",
        "tree_dbh": "28",
        "tree_location": "backyard Left",
        "reason_removal": "Other",
        "tree_description": "Picture of treeReason for Removal:OtherComments:heavy 15 degree lean with 80% of canopy more than 20 feet from center mass - large decay on main upper lead - 100% targeting neighbor structure\n\t\t\n\t\n\t\n                                \n                            \n                        \n                    \n                        \n                            \n                                \n                                    \n                                        \n                                         Parcel Information\n                                \n                            \n                            \n                                \n                                    \n\t\tParcel Number:17 01440005065 *Block:--Lot:--Subdivision:--",
        "tree_number": "1",
        "species": "White Oak"
      },
      "geometry": {
        "type": "Point",
        "coordinates": [
          -84.401432756295,
          33.822995153393
        ]
      }
    },
    {
      "type": "Feature",
      "properties": {
        "record": "BA-202604402",
        "address": "965 GRANT ST SE, ATLANTA GA 30315",
        "status": "ACA Pending",
        "date": "09/02/2026",
        "description": null,
        "owner": "EDWARDS CHRISTOPHER W",
        "tree_dbh": "20",
        "tree_location": "front by street",
        "reason_removal": "Other",
        "tree_description": "20\" Oak, front by street, butchered by GA Power, under stress",
        "tree_number": "1",
        "species": "Oak"
      },
      "geometry": {
        "type": "Point",
        "coordinates": [
          -84.376763593916,
          33.727692662041
        ]
      }
    },
    {
      "type": "Feature",
      "properties": {
        "record": "BA-202604394",
        "address": "4 ARDEN MOOR NW, ATLANTA GA 30305",
        "status": "ACA Pending",
        "date": "09/02/2026",
        "description": null,
        "owner": "OSAKO KENTARO",
        "tree_dbh": "15",
        "tree_location": "front yard",
        "reason_removal": "Dying tree",
        "tree_description": "The Homeowner would like to have this maple removed due to the severe cavity that is growing at the baseReason for Removal:Dying tree\n\t\t\n\t\t\n\t\t\tTree number:2Species:oakTree Size (DBH):16Tree location:front yardDescription of Tree:The homeowner would like to remove this oak due to the crown dying inn the back and new appearing large dead limbsReason for Removal:Dying treeComments:as shown in the picture this tree is located right by the home and is causing the homeowner to worry about the limbs or any part of the tree coming on to the home\n\t\t\n\t\n\t\n                                \n                            \n                        \n                    \n                        \n                            \n                                \n                                    \n                                        \n                                         Parcel Information\n                                \n                            \n                            \n                                \n                                    \n\t\tParcel Number:17 01420003053 *Block:--Lot:--Subdivision:--",
        "tree_number": "1",
        "species": "maple"
      },
      "geometry": {
        "type": "Point",
        "coordinates": [
          -84.403405920482,
          33.83836347221
        ]
      }
    },
    {
      "type": "Feature",
      "properties": {
        "record": "BA-202604396",
        "address": "1192 LANIER BLVD NE, ATLANTA GA 30306",
        "status": "ACA Pending",
        "date": "09/02/2026",
        "description": null,
        "owner": "ADAIR DOUGLAS S",
        "tree_dbh": "11",
        "tree_location": "Left side of backyard",
        "reason_removal": "Dead tree",
        "tree_description": "DeadReason for Removal:Dead treeComments:Marked with orange paint\n\t\t\n\t\n\t\n                                \n                            \n                        \n                    \n                        \n                            \n                                \n                                    \n                                        \n                                         Parcel Information\n                                \n                            \n                            \n                                \n                                    \n\t\tParcel Number:17 00010003005 *Block:--Lot:--Subdivision:--",
        "tree_number": "1",
        "species": "Dogwood"
      },
      "geometry": {
        "type": "Point",
        "coordinates": [
          -84.34993370717,
          33.787334712907
        ]
      }
    },
    {
      "type": "Feature",
      "properties": {
        "record": "BA-202604420",
        "address": "4108 FAIRBURN AVE SW, ATLANTA GA 30331",
        "status": "Accepted",
        "date": "09/02/2026",
        "description": "DDH",
        "owner": null,
        "tree_dbh": null,
        "tree_location": null,
        "reason_removal": null,
        "tree_description": null,
        "tree_number": null,
        "species": null
      },
      "geometry": {
        "type": "Point",
        "coordinates": [
          -84.523356146279,
          33.691945309229
        ]
      }
    },
    {
      "type": "Feature",
      "properties": {
        "record": "BA-202604401",
        "address": "799 SPRINGDALE PL SW, ATLANTA GA 30315",
        "status": "Accepted",
        "date": "09/02/2026",
        "description": "DDH",
        "owner": null,
        "tree_dbh": null,
        "tree_location": null,
        "reason_removal": null,
        "tree_description": null,
        "tree_number": null,
        "species": null
      },
      "geometry": {
        "type": "Point",
        "coordinates": [
          -84.414818282341,
          33.692707331709
        ]
      }
    },
    {
      "type": "Feature",
      "properties": {
        "record": "BA-202604399",
        "address": "1889 WINDSOR DR SW, ATLANTA GA 30311",
        "status": "Accepted",
        "date": "09/02/2026",
        "description": "DDH",
        "owner": null,
        "tree_dbh": null,
        "tree_location": null,
        "reason_removal": null,
        "tree_description": null,
        "tree_number": null,
        "species": null
      },
      "geometry": {
        "type": "Point",
        "coordinates": [
          -84.475360428835,
          33.704426181817
        ]
      }
    },
    {
      "type": "Feature",
      "properties": {
        "record": "BA-202604398",
        "address": "1049 ISA DR SE, ATLANTA GA 30315",
        "status": "Accepted",
        "date": "09/02/2026",
        "description": "DDH",
        "owner": null,
        "tree_dbh": null,
        "tree_location": null,
        "reason_removal": null,
        "tree_description": null,
        "tree_number": null,
        "species": null
      },
      "geometry": {
        "type": "Point",
        "coordinates": [
          -84.35409067847,
          33.700379483162
        ]
      }
    }
  ]
}