{
  "type": "FeatureCollection",
  "features": [
    {
      "type": "Feature",
      "properties": {
        "record": "BA-202603769",
        "address": "4276 EXETER CLOSE NW, ATLANTA GA 30327",
        "status": "ACA Pending",
        "date": "08/05/2026",
        "description": null,
        "owner": null,
        "tree_dbh": "14",
        "tree_location": "front right",
        "reason_removal": "Dead tree",
        "tree_description": "14\" Pine, front right, Dead",
        "tree_number": "1",
        "species": "Pine"
      },
      "geometry": {
        "type": "Point",
        "coordinates": [
          -84.406289287454,
          33.870665583829
        ]
      }
    },
    {
      "type": "Feature",
      "properties": {
        "record": "BA-202603744",
        "address": "1556 PEACHTREE BATTLE AVE NW, ATLANTA GA 30327",
        "status": "ACA Pending",
        "date": "08/05/2026",
        "description": null,
        "owner": "JONES JOHN T",
        "tree_dbh": "30",
        "tree_location": "Front yard",
        "reason_removal": "Uncorrectable defect",
        "tree_description": "Tree has significant lean towards street and powerlines with a defect on upper trunkReason for Removal:Uncorrectable defect\n\t\t\n\t\n\t\n                                \n                            \n                        \n                    \n                        \n                            \n                                \n                                    \n                                        \n                                         Parcel Information\n                                \n                            \n                            \n                                \n                                    \n\t\tParcel Number:17 01950001031 *Block:--Lot:--Subdivision:--",
        "tree_number": "1",
        "species": "Pine"
      },
      "geometry": {
        "type": "Point",
        "coordinates": [
          -84.439046734455,
          33.827125172861
        ]
      }
    },
    {
      "type": "Feature",
      "properties": {
        "record": "BA-202603774",
        "address": "973 WENDOVER DR NE, ATLANTA GA 30319",
        "status": "ACA Pending",
        "date": "08/05/2026",
        "description": null,
        "owner": null,
        "tree_dbh": "9",
        "tree_location": "against back fence",
        "reason_removal": "Dead tree",
        "tree_description": "deadReason for Removal:Dead tree\n\t\t\n\t\t\n\t\t\tTree number:2Species:HardwoodTree Size (DBH):7Tree location:against back fence leftDescription of Tree:DeadReason for Removal:Dead tree\n\t\t\n\t\t\n\t\t\tTree number:3Species:HardwoodTree Size (DBH):9Tree location:back yard leftDescription of Tree:deadReason for Removal:Dead tree\n\t\t\n\t\t\n\t\t\tTree number:4Species:HardwoodTree Size (DBH):6Tree location:backyard leftDescription of Tree:deadReason for Removal:Dead tree\n\t\t\n\t\t\n\t\t\tTree number:5Species:hardwoodTree Size (DBH):21Tree location:back yard leftDescription of Tree:DeadReason for Removal:Dead tree\n\t\t\n\t\t\n\t\t\tTree number:6Species:HardwoodTree Size (DBH):23Tree location:back yard leftDescription of Tree:DeadReason for Removal:Dead tree\n\t\t\n\t\n\t\n                                \n                            \n                        \n                    \n                        \n                            \n                                \n                                    \n                                        \n                                         Parcel Information\n                                \n                            \n                            \n                                \n                                    \n\t\tParcel Number:17 00100004042 *Block:--Lot:--Subdivision:--",
        "tree_number": "1",
        "species": "Hardwood"
      },
      "geometry": {
        "type": "Point",
        "coordinates": [
          -84.355883144009,
          33.856260195575
        ]
      }
    },
    {
      "type": "Feature",
      "properties": {
        "record": "BA-202603765",
        "address": "915 KIPLING DR NW, ATLANTA GA 30318",
        "status": "ACA Pending",
        "date": "08/05/2026",
        "description": null,
        "owner": null,
        "tree_dbh": "7",
        "tree_location": "front center",
        "reason_removal": "Other",
        "tree_description": "7\" dogwood tree with greater than 33% canopy decline.Reason for Removal:Dying tree\n\t\t\n\t\t\n\t\t\tTree number:2Species:Chinese privetTree Size (DBH):10Tree location:front rightDescription of Tree:10\" diameter Chinese privet tree at front right.Reason for Removal:Invasive/undesirable tree\n\t\t\n\t\t\n\t\t\tTree number:3Species:water oakTree Size (DBH):8Tree location:back rightDescription of Tree:8\" DBH water oak tree at back right corner of the house within 5 feet of occupied dwelling.Reason for Removal:Other\n\t\t\n\t\t\n\t\t\tTree number:4Species:crape myrtleTree Size (DBH):15Tree location:back right cornerDescription of Tree:multi stem crape myrtle tree at the back right corner of the house within 5 feet of occupied dwelling.Reason for Removal:Other\n\t\t\n\t\n\t\n                                \n                            \n                        \n                    \n                        \n                            \n                                \n                                    \n                                        \n                                         Parcel Information\n                                \n                            \n                            \n                                \n                                    \n\t\tParcel Number:17 01540010029 *Block:--Lot:--Subdivision:--",
        "tree_number": "1",
        "species": "dogwood"
      },
      "geometry": {
        "type": "Point",
        "coordinates": [
          -84.417019076107,
          33.812769076684
        ]
      }
    },
    {
      "type": "Feature",
      "properties": {
        "record": "BA-202603745",
        "address": "95 EAST LAKE DR SE, ATLANTA GA 30317",
        "status": "ACA Pending",
        "date": "08/05/2026",
        "description": null,
        "owner": null,
        "tree_dbh": null,
        "tree_location": null,
        "reason_removal": null,
        "tree_description": null,
        "tree_number": null,
        "species": null
      },
      "geometry": {
        "type": "Point",
        "coordinates": [
          -84.301408731268,
          33.749385660944
        ]
      }
    },
    {
      "type": "Feature",
      "properties": {
        "record": "BA-202603749",
        "address": "4438 KIMBALL RD SW, ATLANTA GA 30331",
        "status": "ACA Pending",
        "date": "08/05/2026",
        "description": null,
        "owner": null,
        "tree_dbh": null,
        "tree_location": null,
        "reason_removal": null,
        "tree_description": null,
        "tree_number": null,
        "species": null
      },
      "geometry": {
        "type": "Point",
        "coordinates": [
          -84.53253315882,
          33.68904005071
        ]
      }
    },
    {
      "type": "Feature",
      "properties": {
        "record": "BA-202603757",
        "address": "2770 LENOX RD NE, ATLANTA GA 30324",
        "status": "ACA Pending",
        "date": "08/05/2026",
        "description": null,
        "owner": null,
        "tree_dbh": null,
        "tree_location": null,
        "reason_removal": null,
        "tree_description": null,
        "tree_number": null,
        "species": null
      },
      "geometry": {
        "type": "Point",
        "coordinates": [
          -84.357030251137,
          33.832889773184
        ]
      }
    },
    {
      "type": "Feature",
      "properties": {
        "record": "BA-202603768",
        "address": "790 LORIDANS DR NE, ATLANTA GA 30342",
        "status": "ACA Pending",
        "date": "08/05/2026",
        "description": null,
        "owner": null,
        "tree_dbh": null,
        "tree_location": null,
        "reason_removal": null,
        "tree_description": null,
        "tree_number": null,
        "species": null
      },
      "geometry": {
        "type": "Point",
        "coordinates": [
          -84.361424302483,
          33.873616814914
        ]
      }
    },
    {
      "type": "Feature",
      "properties": {
        "record": "BA-202603770",
        "address": "717 KENNOLIA DR SW, ATLANTA GA 30310",
        "status": "ACA Pending",
        "date": "08/05/2026",
        "description": null,
        "owner": null,
        "tree_dbh": null,
        "tree_location": null,
        "reason_removal": null,
        "tree_description": null,
        "tree_number": null,
        "species": null
      },
      "geometry": {
        "type": "Point",
        "coordinates": [
          -84.449049179049,
          33.735674429019
        ]
      }
    },
    {
      "type": "Feature",
      "properties": {
        "record": "BA-202603766",
        "address": "466 HARDENDORF AVE NE, ATLANTA GA 30307",
        "status": "ACA Pending",
        "date": "08/05/2026",
        "description": null,
        "owner": null,
        "tree_dbh": null,
        "tree_location": null,
        "reason_removal": null,
        "tree_description": null,
        "tree_number": null,
        "species": null
      },
      "geometry": {
        "type": "Point",
        "coordinates": [
          -84.331904756769,
          33.767202223482
        ]
      }
    },
    {
      "type": "Feature",
      "properties": {
        "record": "BA-202603771",
        "address": "2210 BEECHER RD SW, ATLANTA GA 30311",
        "status": "ACA Pending",
        "date": "08/05/2026",
        "description": null,
        "owner": null,
        "tree_dbh": null,
        "tree_location": null,
        "reason_removal": null,
        "tree_description": null,
        "tree_number": null,
        "species": null
      },
      "geometry": {
        "type": "Point",
        "coordinates": [
          -84.46069103751,
          33.729802625971
        ]
      }
    },
    {
      "type": "Feature",
      "properties": {
        "record": "BA-202603746",
        "address": "1231 REEDER CIR NE, ATLANTA GA 30306",
        "status": "ACA Pending",
        "date": "08/05/2026",
        "description": null,
        "owner": null,
        "tree_dbh": null,
        "tree_location": null,
        "reason_removal": null,
        "tree_description": null,
        "tree_number": null,
        "species": null
      },
      "geometry": {
        "type": "Point",
        "coordinates": [
          -84.347067477879,
          33.793435897825
        ]
      }
    },
    {
      "type": "Feature",
      "properties": {
        "record": "BA-202603759",
        "address": "2333 DEFOOR HILLS RD NW, ATLANTA GA 30318",
        "status": "ACA Pending",
        "date": "08/05/2026",
        "description": null,
        "owner": null,
        "tree_dbh": null,
        "tree_location": null,
        "reason_removal": null,
        "tree_description": null,
        "tree_number": null,
        "species": null
      },
      "geometry": {
        "type": "Point",
        "coordinates": [
          -84.435173541692,
          33.817330519244
        ]
      }
    },
    {
      "type": "Feature",
      "properties": {
        "record": "BA-202603773",
        "address": "291 ELMIRA PL NE, ATLANTA GA 30307",
        "status": "ACA Pending",
        "date": "08/05/2026",
        "description": null,
        "owner": null,
        "tree_dbh": null,
        "tree_location": null,
        "reason_removal": null,
        "tree_description": null,
        "tree_number": null,
        "species": null
      },
      "geometry": {
        "type": "Point",
        "coordinates": [
          -84.346812881876,
          33.762708701959
        ]
      }
    },
    {
      "type": "Feature",
      "properties": {
        "record": "BA-202603755",
        "address": "1957 NORTHSIDE DR NW, ATLANTA GA 30318",
        "status": "ACA Pending",
        "date": "08/05/2026",
        "description": null,
        "owner": null,
        "tree_dbh": null,
        "tree_location": null,
        "reason_removal": null,
        "tree_description": null,
        "tree_number": null,
        "species": null
      },
      "geometry": {
        "type": "Point",
        "coordinates": [
          -84.407720167851,
          33.808867665073
        ]
      }
    },
    {
      "type": "Feature",
      "properties": {
        "record": "BA-202603772",
        "address": "405 CHEROKEE PL SE, ATLANTA GA 30312",
        "status": "ACA Pending",
        "date": "08/05/2026",
        "description": null,
        "owner": null,
        "tree_dbh": "21",
        "tree_location": "in the front yard left corner of house",
        "reason_removal": "Dead tree",
        "tree_description": "dead tree Reason for Removal:Dead treeComments:Dead tree \n\t\t\n\t\n\t\n                                \n                            \n                        \n                    \n                        \n                            \n                                \n                                    \n                                        \n                                         Parcel Information\n                                \n                            \n                            \n                                \n                                    \n\t\tParcel Number:14 00430002012 *Block:--Lot:--Subdivision:--",
        "tree_number": "1",
        "species": "holly"
      },
      "geometry": {
        "type": "Point",
        "coordinates": [
          -84.374723788041,
          33.737719790429
        ]
      }
    },
    {
      "type": "Feature",
      "properties": {
        "record": "BA-202603764",
        "address": "950 GASTON ST SW, ATLANTA GA 30310",
        "status": "ACA Pending",
        "date": "08/05/2026",
        "description": null,
        "owner": null,
        "tree_dbh": null,
        "tree_location": null,
        "reason_removal": null,
        "tree_description": null,
        "tree_number": null,
        "species": null
      },
      "geometry": {
        "type": "Point",
        "coordinates": [
          -84.436429622119,
          33.72936183817
        ]
      }
    },
    {
      "type": "Feature",
      "properties": {
        "record": "BA-202603754",
        "address": "3306 GRANT VALLEY RD NW, ATLANTA GA 30305",
        "status": "ACA Pending",
        "date": "08/05/2026",
        "description": null,
        "owner": "GRANT JOHN W III",
        "tree_dbh": "32",
        "tree_location": "See site map",
        "reason_removal": "Other",
        "tree_description": "Numbered flagging tape Reason for Removal:OtherComments:Please see report \n\t\t\n\t\t\n\t\t\tTree number:3Species:White OakTree Size (DBH):14Tree location:See site map Description of Tree:Numbered flagging tape Reason for Removal:OtherComments:Please see report \n\t\t\n\t\t\n\t\t\tTree number:7Species:Poplar Tree Size (DBH):16Tree location:See site map Description of Tree:Numbered flagging tape Reason for Removal:OtherComments:Please see report \n\t\t\n\t\t\n\t\t\tTree number:8Species:SweetgumTree Size (DBH):12Tree location:See site map Description of Tree:Numbered flagging tape Reason for Removal:OtherComments:Please see report \n\t\t\n\t\t\n\t\t\tTree number:10Species:White OakTree Size (DBH):23Tree location:See site map Description of Tree:Numbered flagging tape Reason for Removal:OtherComments:Please see report \n\t\t\n\t\t\n\t\t\tTree number:18Species:Hardwood Tree Size (DBH):13Tree location:See site map Description of Tree:Numbered flagging tape Reason for Removal:OtherComments:Please see report \n\t\t\n\t\t\n\t\t\tTree number:20Species:Hardwood Tree Size (DBH):17Tree location:See site map Description of Tree:Numbered flagging tape Reason for Removal:OtherComments:Please see report \n\t\t\n\t\t\n\t\t\tTree number:21Species:Beech Tree Size (DBH):10Tree location:See site map Description of Tree:Numbered flagging tape Reason for Removal:OtherComments:Please see report \n\t\t\n\t\t\n\t\t\tTree number:22Species:SycamoreTree Size (DBH):28Tree location:See site map Description of Tree:Numbered flagging tapeReason for Removal:OtherComments:Please see report \n\t\t\n\t\t\n\t\t\tTree number:24Species:Hardwood Tree Size (DBH):8Tree location:See site map Description of Tree:Numbered flagging tapeReason for Removal:OtherComments:Please see report \n\t\t\n\t\t\n\t\t\tTree number:26Species:Pine Tree Size (DBH):29Tree location:See site map Description of Tree:Numbered flagging tapeReason for Removal:OtherComments:Please see report \n\t\t\n\t\t\n\t\t\tTree number:35Species:Hardwood Tree Size (DBH):7Tree location:See site map Description of Tree:Numbered flagging tapeReason for Removal:OtherComments:Please see report \n\t\t\n\t\t\n\t\t\tTree number:42Species:PoplarTree Size (DBH):12Tree location:See site map Description of Tree:Numbered flagging tapeReason for Removal:OtherComments:Please see report \n\t\t\n\t\t\n\t\t\tTree number:47Species:PoplarTree Size (DBH):14Tree location:See site map Description of Tree:Numbered flagging tapeReason for Removal:OtherComments:Please see report \n\t\t\n\t\t\n\t\t\tTree number:53Species:OakTree Size (DBH):15Tree location:See site map Description of Tree:Numbered flagging tapeReason for Removal:OtherComments:Please see report \n\t\t\n\t\t\n\t\t\tTree number:62Species:Red OakTree Size (DBH):24Tree location:See site map Description of Tree:Numbered flagging tapeReason for Removal:OtherComments:Please see report \n\t\t\n\t\t\n\t\t\tTree number:63Species:PineTree Size (DBH):16Tree location:See site map Description of Tree:Numbered flagging tapeReason for Removal:OtherComments:Please see report \n\t\t\n\t\t\n\t\t\tTree number:64Species:OakTree Size (DBH):18Tree location:See site map Description of Tree:Numbered flagging tapeReason for Removal:OtherComments:Please see report \n\t\t\n\t\t\n\t\t\tTree number:71Species:HardwoodTree Size (DBH):10Tree location:See site map Description of Tree:Numbered flagging tapeReason for Removal:OtherComments:Please see report \n\t\t\n\t\t\n\t\t\tTree number:73Species:PoplarTree Size (DBH):18Tree location:See site map Description of Tree:Numbered flagging tapeReason for Removal:OtherComments:Please see report \n\t\t\n\t\t\n\t\t\tTree number:78Species:PineTree Size (DBH):36Tree location:See site map Description of Tree:Numbered flagging tapeReason for Removal:OtherComments:Please see report \n\t\t\n\t\t\n\t\t\tTree number:79Species:OakTree Size (DBH):33Tree location:See site map Description of Tree:Numbered flagging tapeReason for Removal:OtherComments:Please see report \n\t\t\n\t\t\n\t\t\tTree number:81Species:PoplarTree Size (DBH):16Tree location:See site map Description of Tree:Numbered flagging tapeReason for Removal:OtherComments:Please see report \n\t\t\n\t\t\n\t\t\tTree number:86Species:OakTree Size (DBH):17Tree location:See site map Description of Tree:Numbered flagging tapeReason for Removal:OtherComments:Please see report \n\t\t\n\t\t\n\t\t\tTree number:97Species:SourwoodTree Size (DBH):12Tree location:See site map Description of Tree:Numbered flagging tapeReason for Removal:OtherComments:Please see report \n\t\t\n\t\t\n\t\t\tTree number:98Species:Oak Tree Size (DBH):32Tree location:See site map Description of Tree:Numbered flagging tapeReason for Removal:OtherComments:Please see report \n\t\t\n\t\t\n\t\t\tTree number:102Species:PineTree Size (DBH):21Tree location:See site map Description of Tree:Numbered flagging tapeReason for Removal:OtherComments:Please see report \n\t\t\n\t\t\n\t\t\tTree number:105Species:SweetgumTree Size (DBH):11Tree location:See site map Description of Tree:Numbered flagging tapeReason for Removal:OtherComments:Please see report \n\t\t\n\t\t\n\t\t\tTree number:110Species:White OakTree Size (DBH):19Tree location:See site map Description of Tree:Numbered flagging tapeReason for Removal:OtherComments:Please see report \n\t\t\n\t\t\n\t\t\tTree number:111Species:SourwoodTree Size (DBH):12Tree location:See site map Description of Tree:Numbered flagging tapeReason for Removal:OtherComments:Please see report \n\t\t\n\t\t\n\t\t\tTree number:113Species:White OakTree Size (DBH):27Tree location:See site map Description of Tree:Numbered flagging tapeReason for Removal:OtherComments:Please see report \n\t\t\n\t\t\n\t\t\tTree number:115Species:HickoryTree Size (DBH):9Tree location:See site map Description of Tree:Numbered flagging tapeReason for Removal:OtherComments:Please see report \n\t\t\n\t\t\n\t\t\tTree number:120Species:PineTree Size (DBH):15Tree location:See site map Description of Tree:Numbered flagging tapeReason for Removal:OtherComments:Please see report \n\t\t\n\t\t\n\t\t\tTree number:124Species:PineTree Size (DBH):24Tree location:See site map Description of Tree:Numbered flagging tapeReason for Removal:OtherComments:Please see report \n\t\t\n\t\t\n\t\t\tTree number:128Species:SourwoodTree Size (DBH):9Tree location:See site map Description of Tree:Numbered flagging tapeReason for Removal:OtherComments:Please see report \n\t\t\n\t\t\n\t\t\tTree number:130Species:PineTree Size (DBH):19Tree location:See site map Description of Tree:Numbered flagging tapeReason for Removal:OtherComments:Please see report \n\t\t\n\t\t\n\t\t\tTree number:131Species:OakTree Size (DBH):13Tree location:See site map Description of Tree:Numbered flagging tapeReason for Removal:OtherComments:Please see report \n\t\t\n\t\t\n\t\t\tTree number:134Species:SourwoodTree Size (DBH):8Tree location:See site map Description of Tree:Numbered flagging tapeReason for Removal:OtherComments:Please see report \n\t\t\n\t\t\n\t\t\tTree number:137Species:PineTree Size (DBH):15Tree location:See site map Description of Tree:Numbered flagging tapeReason for Removal:OtherComments:Please see report \n\t\t\n\t\t\n\t\t\tTree number:138Species:SourwoodTree Size (DBH):9Tree location:See site map Description of Tree:Numbered flagging tapeReason for Removal:OtherComments:Please see report \n\t\t\n\t\t\n\t\t\tTree number:139Species:SourwoodTree Size (DBH):7Tree location:See site map Description of Tree:Numbered flagging tapeReason for Removal:OtherComments:Please see report \n\t\t\n\t\t\n\t\t\tTree number:141Species:SourwoodTree Size (DBH):7Tree location:See site map Description of Tree:Numbered flagging tapeReason for Removal:OtherComments:Please see report \n\t\t\n\t\t\n\t\t\tTree number:145Species:OakTree Size (DBH):22Tree location:See site map Description of Tree:Numbered flagging tapeReason for Removal:OtherComments:Please see report \n\t\t\n\t\t\n\t\t\tTree number:147Species:PineTree Size (DBH):19Tree location:See site map Description of Tree:Numbered flagging tapeReason for Removal:OtherComments:Please see report \n\t\t\n\t\t\n\t\t\tTree number:154Species:PoplarTree Size (DBH):17Tree location:See site map Description of Tree:Numbered flagging tapeReason for Removal:OtherComments:Please see report \n\t\t\n\t\t\n\t\t\tTree number:157Species:SourwoodTree Size (DBH):6Tree location:See site map Description of Tree:Numbered flagging tapeReason for Removal:OtherComments:Please see report \n\t\t\n\t\n\t\n                                \n                            \n                        \n                    \n                        \n                            \n                                \n                                    \n                                        \n                                         Parcel Information\n                                \n                            \n                            \n                                \n                                    \n\t\tParcel Number:17 00990009020 *Block:--Lot:--Subdivision:--",
        "tree_number": "2",
        "species": "Poplar"
      },
      "geometry": {
        "type": "Point",
        "coordinates": [
          -84.386427232149,
          33.846036167998
        ]
      }
    },
    {
      "type": "Feature",
      "properties": {
        "record": "BA-202603762",
        "address": "1322 BEECH VALLEY RD NE, ATLANTA GA 30306",
        "status": "ACA Pending",
        "date": "08/05/2026",
        "description": null,
        "owner": "YOW TILLIE J",
        "tree_dbh": "8",
        "tree_location": "left rear corner fo house",
        "reason_removal": "Dead tree",
        "tree_description": "Tree is deadReason for Removal:Dead tree\n\t\t\n\t\t\n\t\t\tTree number:2Species:red tipTree Size (DBH):12Tree location:left rear corner fo houseDescription of Tree:Tree is dead.Reason for Removal:Dead tree\n\t\t\n\t\n\t\n                                \n                            \n                        \n                    \n                        \n                            \n                                \n                                    \n                                        \n                                         Parcel Information\n                                \n                            \n                            \n                                \n                                    \n\t\tParcel Number:18 056 03 010 *Block:--Lot:--Subdivision:--",
        "tree_number": "1",
        "species": "hemlock"
      },
      "geometry": {
        "type": "Point",
        "coordinates": [
          -84.34380351631,
          33.797766149178
        ]
      }
    },
    {
      "type": "Feature",
      "properties": {
        "record": "BA-202603751",
        "address": "2 NACOOCHEE PL NW, ATLANTA GA 30305",
        "status": "ACA Pending",
        "date": "08/05/2026",
        "description": null,
        "owner": "RADFORD ROWLAND A JR",
        "tree_dbh": "35",
        "tree_location": "backyard",
        "reason_removal": "Other",
        "tree_description": "marked- leaning toward houseReason for Removal:OtherComments:leaning toward house\n\t\t\n\t\n\t\n                                \n                            \n                        \n                    \n                        \n                            \n                                \n                                    \n                                        \n                                         Parcel Information\n                                \n                            \n                            \n                                \n                                    \n\t\tParcel Number:17 01110019003 *Block:--Lot:--Subdivision:--",
        "tree_number": "1",
        "species": "Hardwood"
      },
      "geometry": {
        "type": "Point",
        "coordinates": [
          -84.392934285143,
          33.820019944372
        ]
      }
    },
    {
      "type": "Feature",
      "properties": {
        "record": "BA-202603767",
        "address": "1814 FLAGLER AVE NE, ATLANTA GA 30309",
        "status": "ACA Pending",
        "date": "08/05/2026",
        "description": null,
        "owner": "CORBETT MARGARET N",
        "tree_dbh": "20",
        "tree_location": "Rear right",
        "reason_removal": "Dead tree",
        "tree_description": "Causing damage to garage pad.",
        "tree_number": "1",
        "species": "Magnolia"
      },
      "geometry": {
        "type": "Point",
        "coordinates": [
          -84.374800813422,
          33.803740666086
        ]
      }
    },
    {
      "type": "Feature",
      "properties": {
        "record": "BA-202603756",
        "address": "115 LAUREL FOREST CIR NE, ATLANTA GA 30342",
        "status": "ACA Pending",
        "date": "08/05/2026",
        "description": null,
        "owner": null,
        "tree_dbh": "36",
        "tree_location": "back left",
        "reason_removal": "Dying tree",
        "tree_description": "This tree has recently been struck by lightning, leaving vertical crack in the tree that is approximately 40-50' long.Reason for Removal:Dying tree\n\t\t\n\t\t\n\t\t\tTree number:2Species:sweetgumTree Size (DBH):8Tree location:back left Description of Tree:This tree was also struck by lighting. The top broke off leaving this tree with very low live crown ratio. Reason for Removal:Dying tree\n\t\t\n\t\t\n\t\t\tTree number:3Species:hickoryTree Size (DBH):12Tree location:back leftDescription of Tree:When the top of the 8\" Sweetgum broke off, the top half of the tree damaged many of the limbs and left this tree with a low live crown ratio.Reason for Removal:Dying tree\n\t\t\n\t\t\n\t\t\tTree number:4Species:hickoryTree Size (DBH):12Tree location:back leftDescription of Tree:this tree is within close proximity of the remaining trees. If order to rig these trees down this tree will need to be removed. Reason for Removal:Dying tree\n\t\t\n\t\n\t\n                                \n                            \n                        \n                    \n                        \n                            \n                                \n                                    \n                                        \n                                         Parcel Information\n                                \n                            \n                            \n                                \n                                    \n\t\tParcel Number:17 00960006015 *Block:--Lot:--Subdivision:--",
        "tree_number": "1",
        "species": "hickory"
      },
      "geometry": {
        "type": "Point",
        "coordinates": [
          -84.384135261121,
          33.862570165215
        ]
      }
    },
    {
      "type": "Feature",
      "properties": {
        "record": "BA-202603760",
        "address": "1117 GLENWOOD AVE SE, ATLANTA GA 30316",
        "status": "ACA Pending",
        "date": "08/05/2026",
        "description": null,
        "owner": null,
        "tree_dbh": null,
        "tree_location": null,
        "reason_removal": null,
        "tree_description": null,
        "tree_number": null,
        "species": null
      },
      "geometry": {
        "type": "Point",
        "coordinates": [
          -84.350714170695,
          33.740347871984
        ]
      }
    },
    {
      "type": "Feature",
      "properties": {
        "record": "BA-202603761",
        "address": "710 BOLTON RD NW, ATLANTA GA 30331",
        "status": "ACA Pending",
        "date": "08/05/2026",
        "description": null,
        "owner": "GUILLIAMA ISMENIA",
        "tree_dbh": "16",
        "tree_location": "front right",
        "reason_removal": "Dying tree",
        "tree_description": "Tree is non native invasive speciesReason for Removal:Dying tree\n\t\t\n\t\t\n\t\t\tTree number:2Species:loblolly pineTree Size (DBH):20Tree location:back leftDescription of Tree: Tree is completely enveloped in Wisteria vines with phototropic lean toward neighbors.Reason for Removal:Dying tree\n\t\t\n\t\n\t\n                                \n                            \n                        \n                    \n                        \n                            \n                                \n                                    \n                                        \n                                         Parcel Information\n                                \n                            \n                            \n                                \n                                    \n\t\tParcel Number:14F00160004071 *Block:--Lot:--Subdivision:--",
        "tree_number": "1",
        "species": "Bradford pear"
      },
      "geometry": {
        "type": "Point",
        "coordinates": [
          -84.506987576914,
          33.773552010928
        ]
      }
    },
    {
      "type": "Feature",
      "properties": {
        "record": "BA-202603753",
        "address": "240 ALTOONA PL SW, ATLANTA GA 30314",
        "status": "ACA Pending",
        "date": "08/05/2026",
        "description": null,
        "owner": "HDB INVESTMENTS LLC",
        "tree_dbh": "9",
        "tree_location": "Rear-left portion of property within dense vegetation near boundary",
        "reason_removal": "Invasive/undesirable tree",
        "tree_description": "Sweetgum identified as Tree 1 on the attached arborist inventory and location map.Reason for Removal:OtherComments:Private arborist inventory identifies the tree as DDH Qualifier: Yes. Removal requested due to its DDH classification and location near the residence and property access area.\n\t\t\n\t\t\n\t\t\tTree number:2Species:Ligustrum lucidum (multi-stem)Tree Size (DBH):6Tree location:Front/right side of existing residence near property boundaryDescription of Tree:Multi-stem Ligustrum identified as Tree 2 on the attached arborist inventory and location map.Reason for Removal:Invasive/undesirable treeComments:Arborist inventory identifies Tree 2 as “DDH Qualifier: Yes.” Removal is requested based on its invasive/undesirable species classification, multi-stem growth form, and restricted location near the residence and property boundary.\n\t\t\n\t\t\n\t\t\tTree number:3Species:Paper MulberryTree Size (DBH):25Tree location:Near driveway/property access area and overhead utility linesDescription of Tree:Large Paper Mulberry with multiple stems and low, spreading branches.Reason for Removal:Invasive/undesirable treeComments:Priority removal tree. Arborist inventory identifies Tree 3 as “DDH Qualifier: Yes.” Its size, multi-stem form, and proximity to the driveway and overhead utility lines create concern that limb or stem failure could affect access or utilities. See attached Tree 3 photograph.\n\t\t\n\t\t\n\t\t\tTree number:4Species:AilanthusTree Size (DBH):12Tree location:Rear/right property line beside wooden fence and neighboring residenceDescription of Tree:Ailanthus growing immediately beside the property-line fence with limited clearance from the neighboring occupied residence.Reason for Removal:Invasive/undesirable treeComments:Priority removal tree. Arborist inventory identifies Tree 4 as “DDH Qualifier: Yes.” Removal is requested because of its invasive/undesirable species classification and restricted location beside the fence and neighboring residence. See attached Tree 4 photograph.\n\t\t\n\t\t\n\t\t\tTree number:5Species:AilanthusTree Size (DBH):13Tree location:Rear/right property line beside wooden fence and neighboring residenceDescription of Tree:Ailanthus with substantial vine growth and limited clearance from the fence and neighboring residence.Reason for Removal:Invasive/undesirable treeComments:Priority removal tree. Arborist inventory identifies Tree 5 as “DDH Qualifier: Yes.” Removal is requested because of its invasive/undesirable species classification, heavy vine coverage, and proximity to the fence and occupied structure. See attached Tree 5 photograpy\n\t\t\n\t\t\n\t\t\tTree number:6Species:Water OakTree Size (DBH):14Tree location:Rear yard within dense vegetation near property boundary and surrounding structuresDescription of Tree:Water Oak surrounded by dense vegetation and vine growth in a confined portion of the property.Reason for Removal:OtherComments:Priority removal tree. Arborist inventory identifies Tree 6 as “DDH Qualifier: Yes.” Dense vegetation and vine growth limit safe visibility, access, inspection, cleanup, and maintenance. See attached Trees 6 and 7 trunk-view photograph.\n\t\t\n\t\t\n\t\t\tTree number:7Species:OakTree Size (DBH):36Tree location:Rear yard near property boundary, fence, and surrounding structuresDescription of Tree:Large Oak with extensive vine coverage on and around the trunk and crown.Reason for Removal:OtherComments:Priority removal tree. Arborist inventory identifies Tree 7 as “DDH Qualifier: Yes.” Its substantial size, heavy vine coverage, and proximity to structures and property boundaries create concern that major limb or trunk failure could affect surrounding property. See attached photographs.\n\t\t\n\t\t\n\t\t\tTree number:8Species:OakTree Size (DBH):34Tree location:Rear yard within dense tree cluster near property boundaryDescription of Tree:Large Oak located beside Tree 7 in a confined and densely vegetated area.Reason for Removal:OtherComments:Priority removal tree. Arborist inventory identifies Tree 8 as “DDH Qualifier: Yes.” Its substantial size and restricted location near the property boundary create concern that major limb or trunk failure could affect neighboring property or surrounding structures. See attached Trees 7 and 8 overview photograph.\n\t\t\n\t\t\n\t\t\tTree number:9Species:HickoryTree Size (DBH):7Tree location:Rear-left portion of property within dense vegetation near boundaryDescription of Tree:Hickory identified as Tree 9 on the attached arborist inventory and location map.Reason for Removal:OtherComments:Arborist inventory identifies Tree 9 as “DDH Qualifier: Yes.” Removal is requested based on its DDH classification and location within the confined and heavily overgrown portion of the property. See attached inventory map.\n\t\t\n\t\t\n\t\t\tTree number:10Species:Paper MulberryTree Size (DBH):8Tree location:Rear-left portion of property within dense vegetation near boundaryDescription of Tree:Paper Mulberry identified as Tree 10 on the attached arborist inventory and location map.Reason for Removal:Invasive/undesirable treeComments:Arborist inventory identifies Tree 10 as “DDH Qualifier: Yes.” Removal is requested based on its invasive/undesirable species classification and location within the confined and heavily overgrown portion of the property. See attached inventory map.\n\t\t\n\t\n\t\n                                \n                            \n                        \n                    \n                        \n                            \n                                \n                                    \n                                        \n                                         Parcel Information\n                                \n                            \n                            \n                                \n                                    \n\t\tParcel Number:14 01410009076 *Block:--Lot:--Subdivision:--",
        "tree_number": "1",
        "species": "Paper Mulberry"
      },
      "geometry": {
        "type": "Point",
        "coordinates": [
          -84.435239504305,
          33.748907006379
        ]
      }
    },
    {
      "type": "Feature",
      "properties": {
        "record": "BA-202603748",
        "address": "270 ELMIRA PL NE, ATLANTA GA 00000",
        "status": "ACA Pending",
        "date": "08/05/2026",
        "description": null,
        "owner": "Karibe Haynes",
        "tree_dbh": "18",
        "tree_location": "Rear left corner of house",
        "reason_removal": "Invasive/undesirable tree",
        "tree_description": "Undesirable SpeciesReason for Removal:Invasive/undesirable tree\n\t\t\n\t\n\t\n                                \n                            \n                        \n                    \n                        \n                            \n                                \n                                    \n                                        \n                                         Parcel Information\n                                \n                            \n                            \n                                \n                                    \n\t\tParcel Number:15 209 04 202 *Block:--Lot:--Subdivision:--",
        "tree_number": "1",
        "species": "Multi-Stem Cherry Laurel"
      },
      "geometry": {
        "type": "Point",
        "coordinates": [
          -84.346955130009,
          33.762306775556
        ]
      }
    },
    {
      "type": "Feature",
      "properties": {
        "record": "BA-202603752",
        "address": "241 BURBANK DR SW, ATLANTA GA 30314",
        "status": "ACA Pending",
        "date": "08/05/2026",
        "description": null,
        "owner": "SHANNON MARCUS SERRANO JR",
        "tree_dbh": "12",
        "tree_location": "Backyard",
        "reason_removal": "Unpermitted destruction",
        "tree_description": null,
        "tree_number": "1",
        "species": "Oak"
      },
      "geometry": {
        "type": "Point",
        "coordinates": [
          -84.429098125073,
          33.76133111445
        ]
      }
    }
  ]
}