{
  "type": "FeatureCollection",
  "features": [
    {
      "type": "Feature",
      "properties": {
        "record": "26TMP-053088",
        "address": "2001 TIGER FLOWERS DR NW, ATLANTA GA 30314",
        "status": "",
        "date": "08/13/2026",
        "description": null,
        "owner": null,
        "tree_dbh": null,
        "tree_location": null,
        "reason_removal": null,
        "tree_description": null,
        "tree_number": null,
        "species": null
      },
      "geometry": {
        "type": "Point",
        "coordinates": [
          -84.452882752856,
          33.760212667397
        ]
      }
    },
    {
      "type": "Feature",
      "properties": {
        "record": "BA-202603949",
        "address": "866 CAPITAL VIEW AVE NW, ATLANTA GA 30318",
        "status": "Accepted",
        "date": "08/13/2026",
        "description": null,
        "owner": null,
        "tree_dbh": "38",
        "tree_location": "back yard",
        "reason_removal": "Dying tree",
        "tree_description": "38in Water Oak with dead central leader and failed codom lead.Reason for Removal:Dying tree\n\t\t\n\t\n\t\n                                \n                            \n                        \n                    \n                        \n                            \n                                \n                                    \n                                        \n                                         Parcel Information\n                                \n                            \n                            \n                                \n                                    \n\t\tParcel Number:14 02080002057 *Block:--Lot:--Subdivision:--",
        "tree_number": "1",
        "species": "water oak"
      },
      "geometry": {
        "type": "Point",
        "coordinates": [
          -84.467045028313,
          33.77875303882
        ]
      }
    },
    {
      "type": "Feature",
      "properties": {
        "record": "BA-202603960",
        "address": "1587 PINEVIEW TER SW, ATLANTA GA 30311",
        "status": "Accepted",
        "date": "08/13/2026",
        "description": null,
        "owner": null,
        "tree_dbh": "24",
        "tree_location": "in side setback on left side of the house",
        "reason_removal": "Invasive/undesirable tree",
        "tree_description": "24 inch hardwoodReason for Removal:Invasive/undesirable treeComments:tree roots and damaging house foundations\n\t\t\n\t\n\t\n                                \n                            \n                        \n                    \n                        \n                            \n                                \n                                    \n                                        \n                                         Parcel Information\n                                \n                            \n                            \n                                \n                                    \n\t\tParcel Number:14 01510003060 *Block:--Lot:--Subdivision:--",
        "tree_number": "1",
        "species": "hardwood"
      },
      "geometry": {
        "type": "Point",
        "coordinates": [
          -84.438826062945,
          33.729078085254
        ]
      }
    },
    {
      "type": "Feature",
      "properties": {
        "record": "BA-202603934",
        "address": "1774 BEECHWOOD BLVD SW, ATLANTA GA 30311",
        "status": "Accepted",
        "date": "08/13/2026",
        "description": null,
        "owner": null,
        "tree_dbh": null,
        "tree_location": null,
        "reason_removal": null,
        "tree_description": null,
        "tree_number": null,
        "species": null
      },
      "geometry": {
        "type": "Point",
        "coordinates": [
          -84.44619373317,
          33.713108293271
        ]
      }
    },
    {
      "type": "Feature",
      "properties": {
        "record": "BA-202603959",
        "address": "60 WHITEFOORD AVE SE, ATLANTA GA 30317",
        "status": "Accepted",
        "date": "08/13/2026",
        "description": null,
        "owner": null,
        "tree_dbh": null,
        "tree_location": null,
        "reason_removal": null,
        "tree_description": null,
        "tree_number": null,
        "species": null
      },
      "geometry": {
        "type": "Point",
        "coordinates": [
          -84.342102762852,
          33.751707833934
        ]
      }
    },
    {
      "type": "Feature",
      "properties": {
        "record": "BA-202603958",
        "address": "1715 DELOWE DR SW, ATLANTA GA 30311",
        "status": "Accepted",
        "date": "08/13/2026",
        "description": null,
        "owner": "WEST ERMA JEAN",
        "tree_dbh": "24",
        "tree_location": "back yard",
        "reason_removal": "Dead tree",
        "tree_description": "Pinetree covered in dead vines and branches without lower limbsReason for Removal:Dead tree\n\t\t\n\t\n\t\n                                \n                            \n                        \n                    \n                        \n                            \n                                \n                                    \n                                        \n                                         Parcel Information\n                                \n                            \n                            \n                                \n                                    \n\t\tParcel Number:14 01850001021 *Block:--Lot:--Subdivision:--",
        "tree_number": "1",
        "species": "Pine"
      },
      "geometry": {
        "type": "Point",
        "coordinates": [
          -84.459024320054,
          33.708231316784
        ]
      }
    },
    {
      "type": "Feature",
      "properties": {
        "record": "BA-202603968",
        "address": "607 PEACHTREE ST NE, ATLANTA GA 30308",
        "status": "ACA Pending",
        "date": "08/13/2026",
        "description": null,
        "owner": null,
        "tree_dbh": null,
        "tree_location": null,
        "reason_removal": null,
        "tree_description": null,
        "tree_number": null,
        "species": null
      },
      "geometry": {
        "type": "Point",
        "coordinates": [
          -84.384931669072,
          33.771225821107
        ]
      }
    },
    {
      "type": "Feature",
      "properties": {
        "record": "BA-202603962",
        "address": "510 SEMINOLE AVE NE, ATLANTA GA 30307",
        "status": "ACA Pending",
        "date": "08/13/2026",
        "description": null,
        "owner": "Mary Delmer",
        "tree_dbh": "21",
        "tree_location": "Right Side of House",
        "reason_removal": "Significant cavity/area of decay",
        "tree_description": "Trunk Failure/Resting on client's HouseReason for Removal:Uncorrectable defect\n\t\t\n\t\t\n\t\t\tTree number:2Species:Red OakTree Size (DBH):42Tree location:Right Side of HouseDescription of Tree:Decay at BaseReason for Removal:Significant cavity/area of decay\n\t\t\n\t\n\t\n                                \n                            \n                        \n                    \n                        \n                            \n                                \n                                    \n                                        \n                                         Parcel Information\n                                \n                            \n                            \n                                \n                                    \n\t\tParcel Number:14 00150006008 *Block:--Lot:--Subdivision:--",
        "tree_number": "1",
        "species": "Black Cherry"
      },
      "geometry": {
        "type": "Point",
        "coordinates": [
          -84.350757162301,
          33.768108383258
        ]
      }
    },
    {
      "type": "Feature",
      "properties": {
        "record": "BA-202603972",
        "address": "286 ROY ST SW, ATLANTA GA 30310",
        "status": "ACA Pending",
        "date": "08/13/2026",
        "description": null,
        "owner": null,
        "tree_dbh": null,
        "tree_location": null,
        "reason_removal": null,
        "tree_description": null,
        "tree_number": null,
        "species": null
      },
      "geometry": {
        "type": "Point",
        "coordinates": [
          -84.397283833068,
          33.72412427564
        ]
      }
    },
    {
      "type": "Feature",
      "properties": {
        "record": "BA-202603942",
        "address": "1187 DANNER ST SE, ATLANTA GA 30316",
        "status": "Accepted",
        "date": "08/13/2026",
        "description": null,
        "owner": null,
        "tree_dbh": "12",
        "tree_location": "See site map",
        "reason_removal": "Other",
        "tree_description": "Numbered flagging tape Reason for Removal:Invasive/undesirable treeComments:Invasive, undesired species\n\t\t\n\t\t\n\t\t\tTree number:2Species:MimosaTree Size (DBH):13Tree location:See site map Description of Tree:Numbered flagging tape Reason for Removal:OtherComments:Invasive, undesired species\n\t\t\n\t\n\t\n                                \n                            \n                        \n                    \n                        \n                            \n                                \n                                    \n                                        \n                                         Parcel Information\n                                \n                            \n                            \n                                \n                                    \n\t\tParcel Number:14 00100009047 *Block:--Lot:--Subdivision:--",
        "tree_number": "1",
        "species": "Mimosa"
      },
      "geometry": {
        "type": "Point",
        "coordinates": [
          -84.352174667366,
          33.72211942554
        ]
      }
    },
    {
      "type": "Feature",
      "properties": {
        "record": "BA-202603963",
        "address": "412 JAMES P BRAWLEY DR NW, ATLANTA GA 30314",
        "status": "ACA Pending",
        "date": "08/13/2026",
        "description": null,
        "owner": null,
        "tree_dbh": null,
        "tree_location": null,
        "reason_removal": null,
        "tree_description": null,
        "tree_number": null,
        "species": null
      },
      "geometry": {
        "type": "Point",
        "coordinates": [
          -84.412660651792,
          33.765319783319
        ]
      }
    },
    {
      "type": "Feature",
      "properties": {
        "record": "BA-202603957",
        "address": "2001 TIGER FLOWERS DR NW, ATLANTA GA 30314",
        "status": "Accepted",
        "date": "08/13/2026",
        "description": null,
        "owner": "ROBINSON IRENE",
        "tree_dbh": "30",
        "tree_location": "left side of the house tree is marked with orange dot",
        "reason_removal": "Dying tree",
        "tree_description": "Dying trees with large scaffold limb failures and canopy lost visual signs of disease and decayReason for Removal:Dying treeComments:Arborists recommend removal\n\t\t\n\t\t\n\t\t\tTree number:3Species:PoplarTree Size (DBH):32Tree location:backyard on fence between neighboring propertiesDescription of Tree:Fused Poplar trees with extensive Kudzu ivy growth from root trunk up to canopy limb failures dangerous to both neighboring propertiesReason for Removal:DiseasedComments:Arborists recommend removal. \n\t\t\n\t\t\n\t\t\tTree number:2Species:PECANTree Size (DBH):29Tree location:left side of the house tree is marked with orange dotDescription of Tree:The dying Pecan tree canopy hovers of neighboring properties with signs of weak limbs that can potential fall and cause more damage to either structure persons or animals in the area. Limbs have fallen in the past and damaged the roof, gutters and  structures of the homes.The roots of the Pecan impede on the layout of the sewage system and has caused issues over the yearsReason for Removal:Dying treeComments:Arborists recommend removal and so do I. I can't afford to keep  paying random financially inconvenient amounts to cut up limbs and debris out. I'm too old to be dealing with this. I'm on a fixed income. I just want to enjoy the rest of my overworked underpaid life at peace not dodging trees and its old sick limbs. Please remove these trees! \n\t\t\n\t\n\t\n                                \n                            \n                        \n                    \n                        \n                            \n                                \n                                    \n                                        \n                                         Parcel Information\n                                \n                            \n                            \n                                \n                                    \n\t\tParcel Number:14 01740007022 *Block:--Lot:--Subdivision:--",
        "tree_number": "3",
        "species": "PECAN"
      },
      "geometry": {
        "type": "Point",
        "coordinates": [
          -84.452882752856,
          33.760212667397
        ]
      }
    },
    {
      "type": "Feature",
      "properties": {
        "record": "BA-202603970",
        "address": "540 HAMILTON E HOLMES DR NW, ATLANTA GA 30318",
        "status": "ACA Pending",
        "date": "08/13/2026",
        "description": null,
        "owner": "Robert Dumas",
        "tree_dbh": "36",
        "tree_location": "front yard",
        "reason_removal": "Diseased",
        "tree_description": null,
        "tree_number": "1",
        "species": "oak"
      },
      "geometry": {
        "type": "Point",
        "coordinates": [
          -84.472486557653,
          33.769616555319
        ]
      }
    },
    {
      "type": "Feature",
      "properties": {
        "record": "BA-202603971",
        "address": "2723 MARGARET MITCHELL DR NW, ATLANTA GA 30327",
        "status": "ACA Pending",
        "date": "08/13/2026",
        "description": null,
        "owner": null,
        "tree_dbh": null,
        "tree_location": null,
        "reason_removal": null,
        "tree_description": null,
        "tree_number": null,
        "species": null
      },
      "geometry": {
        "type": "Point",
        "coordinates": [
          -84.439134170857,
          33.829576929744
        ]
      }
    },
    {
      "type": "Feature",
      "properties": {
        "record": "BA-202603955",
        "address": "4094 GLEN DEVON DR NW, ATLANTA GA 30327",
        "status": "Accepted",
        "date": "08/13/2026",
        "description": null,
        "owner": null,
        "tree_dbh": "13",
        "tree_location": "See site map",
        "reason_removal": "Other",
        "tree_description": "Numbered flagging tape Reason for Removal:OtherComments:Tree exhibits an extremely suppressed canopy with little remaining viable canopy and is overrun by invasive vegetation. Structural root plate impact is also present from the adjacent White Pine that has failed and tipped up.\n\t\t\n\t\n\t\n                                \n                            \n                        \n                    \n                        \n                            \n                                \n                                    \n                                        \n                                         Parcel Information\n                                \n                            \n                            \n                                \n                                    \n\t\tParcel Number:17 01790003019 *Block:--Lot:--Subdivision:--",
        "tree_number": "4",
        "species": "White Pine"
      },
      "geometry": {
        "type": "Point",
        "coordinates": [
          -84.417220459295,
          33.867053746431
        ]
      }
    },
    {
      "type": "Feature",
      "properties": {
        "record": "BA-202603943",
        "address": "1183 DANNER ST SE, ATLANTA GA 30316",
        "status": "Accepted",
        "date": "08/13/2026",
        "description": null,
        "owner": "FEIGERT JOHN",
        "tree_dbh": "20",
        "tree_location": "see site map",
        "reason_removal": "Other",
        "tree_description": "Numbered flagging tapeReason for Removal:OtherComments:Tree exhibits canopy dieback greater than 30%\n\t\t\n\t\t\n\t\t\tTree number:2Species:Poplar Tree Size (DBH):37Tree location:see site map Description of Tree:Numbered flagging tape Reason for Removal:OtherComments:Tree exhibits a pronounced lean toward the neighboring dwelling. A landscape-timber\nretaining wall is located along the tension side of the lean. A retaining-wall deadman\nextends toward the root plate, indicating that structural root development may be\nrestricted or may have been altered in the past. Buttress-root development on the\ntension side is steep and lacks the lateral extension expected for a tree exhibiting this\ndegree of lean. Buttressing on the compression side is also poorly developed and does\nnot appear sufficient to compensate for the tree's pronounced lean. Substantial areas\nof sloughing bark were observed on both sides of the trunk facing the neighboring\nfence. Removal of loose bark on the rear-facing side revealed carpenter-ant activity\nand wood exhibiting apparent incipient decay. A mechanical wound with exposed\nwood was also observed on the mid-bole\n\t\t\n\t\n\t\n                                \n                            \n                        \n                    \n                        \n                            \n                                \n                                    \n                                        \n                                         Parcel Information\n                                \n                            \n                            \n                                \n                                    \n\t\tParcel Number:14 00100009046 *Block:--Lot:--Subdivision:--",
        "tree_number": "1",
        "species": "Poplar"
      },
      "geometry": {
        "type": "Point",
        "coordinates": [
          -84.352179843872,
          33.722148447933
        ]
      }
    },
    {
      "type": "Feature",
      "properties": {
        "record": "26TMP-053182",
        "address": "210 EAST SIMON TER NW, ATLANTA GA 30318",
        "status": "",
        "date": "08/13/2026",
        "description": null,
        "owner": null,
        "tree_dbh": null,
        "tree_location": null,
        "reason_removal": null,
        "tree_description": null,
        "tree_number": null,
        "species": null
      },
      "geometry": {
        "type": "Point",
        "coordinates": [
          -84.47468651601,
          33.76123958965
        ]
      }
    },
    {
      "type": "Feature",
      "properties": {
        "record": "BA-202603966",
        "address": "3170 BENJAMIN E MAYS DR SW, ATLANTA GA 30311",
        "status": "ACA Pending",
        "date": "08/13/2026",
        "description": null,
        "owner": "CONLEY FANNIE",
        "tree_dbh": "22",
        "tree_location": "backyard",
        "reason_removal": "Dead tree",
        "tree_description": "dead tree behind detached garageReason for Removal:Dead tree\n\t\t\n\t\n\t\n                                \n                            \n                        \n                    \n                        \n                            \n                                \n                                    \n                                        \n                                         Parcel Information\n                                \n                            \n                            \n                                \n                                    \n\t\tParcel Number:14 02350001010 *Block:--Lot:--Subdivision:--",
        "tree_number": "1",
        "species": "hardwood"
      },
      "geometry": {
        "type": "Point",
        "coordinates": [
          -84.491791228345,
          33.734428828484
        ]
      }
    },
    {
      "type": "Feature",
      "properties": {
        "record": "26TMP-046209",
        "address": "1437 OGLETHORPE AVE SW, ATLANTA GA 30310",
        "status": "",
        "date": "08/13/2026",
        "description": null,
        "owner": null,
        "tree_dbh": null,
        "tree_location": null,
        "reason_removal": null,
        "tree_description": null,
        "tree_number": null,
        "species": null
      },
      "geometry": {
        "type": "Point",
        "coordinates": [
          -84.434609192374,
          33.736901865685
        ]
      }
    },
    {
      "type": "Feature",
      "properties": {
        "record": "BA-202603946",
        "address": "2816 ALTAVIEW DR SE, ATLANTA GA 30354",
        "status": "Accepted",
        "date": "08/13/2026",
        "description": null,
        "owner": null,
        "tree_dbh": "41",
        "tree_location": "backyard",
        "reason_removal": "Significant cavity/area of decay",
        "tree_description": null,
        "tree_number": "1",
        "species": "Tree Species: Water oak (Quercus nigra)"
      },
      "geometry": {
        "type": "Point",
        "coordinates": [
          -84.382467411828,
          33.677864394202
        ]
      }
    },
    {
      "type": "Feature",
      "properties": {
        "record": "BA-202603947",
        "address": "374 LOOMIS AVE SE, ATLANTA GA 30312",
        "status": "Accepted",
        "date": "08/13/2026",
        "description": null,
        "owner": "FIBBEN ALISON D",
        "tree_dbh": "32",
        "tree_location": "Near left front corner of studio",
        "reason_removal": "Uncorrectable defect",
        "tree_description": "significant canopy failures including one co-dominant branch failure leaving severely weakened standing iteration over roof and primary distribution linesReason for Removal:Uncorrectable defectComments:Ribbon\n\t\t\n\t\n\t\n                                \n                            \n                        \n                    \n                        \n                            \n                                \n                                    \n                                        \n                                         Parcel Information\n                                \n                            \n                            \n                                \n                                    \n\t\tParcel Number:14 00440003065 *Block:--Lot:--Subdivision:--",
        "tree_number": "1",
        "species": "Elm"
      },
      "geometry": {
        "type": "Point",
        "coordinates": [
          -84.371254897395,
          33.744603380889
        ]
      }
    },
    {
      "type": "Feature",
      "properties": {
        "record": "BA-202603965",
        "address": "508 BOLTON RD NW, ATLANTA GA 30331",
        "status": "ACA Pending",
        "date": "08/13/2026",
        "description": null,
        "owner": "HOWELL MILDRED G  ET AL",
        "tree_dbh": "40",
        "tree_location": "Backyard",
        "reason_removal": "Dead tree",
        "tree_description": "Dead oak treeReason for Removal:Dead tree\n\t\t\n\t\n\t\n                                \n                            \n                        \n                    \n                        \n                            \n                                \n                                    \n                                        \n                                         Parcel Information\n                                \n                            \n                            \n                                \n                                    \n\t\tParcel Number:14F00150004021 *Block:--Lot:--Subdivision:--",
        "tree_number": "1",
        "species": "Oak Tree"
      },
      "geometry": {
        "type": "Point",
        "coordinates": [
          -84.508877399491,
          33.768715335395
        ]
      }
    },
    {
      "type": "Feature",
      "properties": {
        "record": "BA-202603954",
        "address": "1109 ANGELO CT NE, ATLANTA GA 30319",
        "status": "Accepted",
        "date": "08/13/2026",
        "description": null,
        "owner": "John Williams",
        "tree_dbh": "34",
        "tree_location": "Front Yard",
        "reason_removal": "Other",
        "tree_description": "Remove a large pine tree leaning towards the house.Reason for Removal:Other\n\t\t\n\t\n\t\n                                \n                            \n                        \n                    \n                        \n                            \n                                \n                                    \n                                        \n                                         Parcel Information\n                                \n                            \n                            \n                                \n                                    \n\t\tParcel Number:17 00130003004 *Block:--Lot:--Subdivision:--",
        "tree_number": "1",
        "species": "Pine"
      },
      "geometry": {
        "type": "Point",
        "coordinates": [
          -84.351633841209,
          33.881309240328
        ]
      }
    },
    {
      "type": "Feature",
      "properties": {
        "record": "BA-202603953",
        "address": "1247 HOLLY ST NW, UNIT A, ATLANTA GA 30318",
        "status": "Accepted",
        "date": "08/13/2026",
        "description": null,
        "owner": "Rhett Cooper",
        "tree_dbh": "13",
        "tree_location": "Back yard",
        "reason_removal": "Significant cavity/area of decay",
        "tree_description": "13in Sweetgum with a decay column along the central leader above home. Tree also has early signs of basal rot due to changed hydrology.Reason for Removal:Significant cavity/area of decay\n\t\t\n\t\n\t\n                                \n                            \n                        \n                    \n                        \n                            \n                                \n                                    \n                                        \n                                         Parcel Information\n                                \n                            \n                            \n                                \n                                    \n\t\tParcel Number:T17 01080005069 001 *Block:--Lot:--Subdivision:--",
        "tree_number": "1",
        "species": "Sweetgum"
      },
      "geometry": {
        "type": "Point",
        "coordinates": [
          -84.395725853229,
          33.78883605201
        ]
      }
    },
    {
      "type": "Feature",
      "properties": {
        "record": "BA-202603967",
        "address": "79 RUSSELL ST NE, ATLANTA GA 30317",
        "status": "ACA Pending",
        "date": "08/13/2026",
        "description": null,
        "owner": "DANIELL INVESTMENTS INC",
        "tree_dbh": "38",
        "tree_location": "Front/left",
        "reason_removal": "Uncorrectable defect",
        "tree_description": "Lightning StrikeReason for Removal:Uncorrectable defect\n\t\t\n\t\n\t\n                                \n                            \n                        \n                    \n                        \n                            \n                                \n                                    \n                                        \n                                         Parcel Information\n                                \n                            \n                            \n                                \n                                    \n\t\tParcel Number:15 204 03 078 *Block:--Lot:--Subdivision:--",
        "tree_number": "1",
        "species": "Red Oak"
      },
      "geometry": {
        "type": "Point",
        "coordinates": [
          -84.302436715067,
          33.753688375194
        ]
      }
    },
    {
      "type": "Feature",
      "properties": {
        "record": "BA-202603944",
        "address": "838 THURMOND ST NW, ATLANTA GA 30314",
        "status": "Accepted",
        "date": "08/13/2026",
        "description": null,
        "owner": "WESTSIDE AFFORDABLE HOUSING INC",
        "tree_dbh": "24",
        "tree_location": "ALONE THE PROPORTY LINE OF 842",
        "reason_removal": "Invasive/undesirable tree",
        "tree_description": null,
        "tree_number": "1",
        "species": "MULBERRY"
      },
      "geometry": {
        "type": "Point",
        "coordinates": [
          -84.414878859314,
          33.760381416588
        ]
      }
    },
    {
      "type": "Feature",
      "properties": {
        "record": "BA-202603948",
        "address": "678 DARLINGTON CIR NE, ATLANTA GA 30305",
        "status": "Accepted",
        "date": "08/13/2026",
        "description": null,
        "owner": "luciana vignale",
        "tree_dbh": "24",
        "tree_location": "Back yard",
        "reason_removal": "Other",
        "tree_description": "Tree has a strong lean and is marked with a blue dot at the bottomReason for Removal:OtherComments:The tree is in the backyard Marked with a dot . Customer is interested in Removing it given the fact, it has a huge lien into the backyard and is scared of it falling on them when they’re in the back. It also may be unhealthy\n\t\t\n\t\n\t\n                                \n                            \n                        \n                    \n                        \n                            \n                                \n                                    \n                                        \n                                         Parcel Information\n                                \n                            \n                            \n                                \n                                    \n\t\tParcel Number:17 00470006039 *Block:--Lot:--Subdivision:--",
        "tree_number": "1",
        "species": "Pine"
      },
      "geometry": {
        "type": "Point",
        "coordinates": [
          -84.364736991471,
          33.832279017947
        ]
      }
    },
    {
      "type": "Feature",
      "properties": {
        "record": "BA-202603945",
        "address": "1084 PIEDMONT AVE NE, ATLANTA GA 30309",
        "status": "Accepted",
        "date": "08/13/2026",
        "description": null,
        "owner": null,
        "tree_dbh": null,
        "tree_location": null,
        "reason_removal": null,
        "tree_description": null,
        "tree_number": null,
        "species": null
      },
      "geometry": {
        "type": "Point",
        "coordinates": [
          -84.379002154209,
          33.784237269052
        ]
      }
    },
    {
      "type": "Feature",
      "properties": {
        "record": "BA-202603935",
        "address": "2015 RIVERMEADE WAY NW, ATLANTA GA 30327",
        "status": "Accepted",
        "date": "08/13/2026",
        "description": null,
        "owner": "WEST JUDY M",
        "tree_dbh": "38",
        "tree_location": "Back right between driveway and Nancy Creek Rd",
        "reason_removal": "Uncorrectable defect",
        "tree_description": "Adjacent to high voltage transmission lines.  GA Power has topped the upper canopy with heading cuts causing excessive suckering and abnormal weight distribution.Reason for Removal:Uncorrectable defect\n\t\t\n\t\n\t\n                                \n                            \n                        \n                    \n                        \n                            \n                                \n                                    \n                                        \n                                         Parcel Information\n                                \n                            \n                            \n                                \n                                    \n\t\tParcel Number:17 02320001029 *Block:--Lot:--Subdivision:--",
        "tree_number": "1",
        "species": "Water Oak"
      },
      "geometry": {
        "type": "Point",
        "coordinates": [
          -84.45182245403,
          33.836256476265
        ]
      }
    },
    {
      "type": "Feature",
      "properties": {
        "record": "BA-202603950",
        "address": "67 MONTCLAIR DR NE, ATLANTA GA 30309",
        "status": "Accepted",
        "date": "08/13/2026",
        "description": null,
        "owner": null,
        "tree_dbh": "12",
        "tree_location": "center rear",
        "reason_removal": "Dead tree",
        "tree_description": null,
        "tree_number": "1",
        "species": "River Birch"
      },
      "geometry": {
        "type": "Point",
        "coordinates": [
          -84.391902798641,
          33.807618260846
        ]
      }
    },
    {
      "type": "Feature",
      "properties": {
        "record": "BA-202603956",
        "address": "1675 FERNLEAF CIR NW, ATLANTA GA 30318",
        "status": "Accepted",
        "date": "08/13/2026",
        "description": null,
        "owner": "Elena Segura",
        "tree_dbh": "32",
        "tree_location": "left side",
        "reason_removal": "Significant cavity/area of decay",
        "tree_description": "32in White Oak with extensive internal decay as determined by resistance recording drill.Reason for Removal:Significant cavity/area of decay\n\t\t\n\t\n\t\n                                \n                            \n                        \n                    \n                        \n                            \n                                \n                                    \n                                        \n                                         Parcel Information\n                                \n                            \n                            \n                                \n                                    \n\t\tParcel Number:17 02210003010 *Block:--Lot:--Subdivision:--",
        "tree_number": "1",
        "species": "White Oak"
      },
      "geometry": {
        "type": "Point",
        "coordinates": [
          -84.440888504176,
          33.820348067438
        ]
      }
    },
    {
      "type": "Feature",
      "properties": {
        "record": "26TMP-053181",
        "address": "330 RALPH MCGILL BLVD NE, ATLANTA GA 30312",
        "status": "",
        "date": "08/13/2026",
        "description": null,
        "owner": null,
        "tree_dbh": null,
        "tree_location": null,
        "reason_removal": null,
        "tree_description": null,
        "tree_number": null,
        "species": null
      },
      "geometry": {
        "type": "Point",
        "coordinates": [
          -84.375180484981,
          33.764070092937
        ]
      }
    },
    {
      "type": "Feature",
      "properties": {
        "record": "BA-202603969",
        "address": "1936 HALLMAN ST NE, ATLANTA GA 30317",
        "status": "ACA Pending",
        "date": "08/13/2026",
        "description": null,
        "owner": "BALISTRERI LORI A",
        "tree_dbh": "60",
        "tree_location": "Rear/fence",
        "reason_removal": "Dying tree",
        "tree_description": "Double lead\n1 side dead\nfungal brackets at base of both sides\nrecent limb failure",
        "tree_number": "1",
        "species": "Water Oak"
      },
      "geometry": {
        "type": "Point",
        "coordinates": [
          -84.324376674287,
          33.754484385435
        ]
      }
    },
    {
      "type": "Feature",
      "properties": {
        "record": "BA-202603961",
        "address": "61 ATLANTA AVE SW, ATLANTA GA 30315",
        "status": "ACA Pending",
        "date": "08/13/2026",
        "description": null,
        "owner": "CRAIG STUART",
        "tree_dbh": "9",
        "tree_location": "Backyard",
        "reason_removal": "Dead tree",
        "tree_description": "Dead termites vine on itReason for Removal:Dead treeComments:Dead tree near house dangerous. Few trees have fell this year in neighborhood \n\t\t\n\t\n\t\n                                \n                            \n                        \n                    \n                        \n                            \n                                \n                                    \n                                        \n                                         Parcel Information\n                                \n                            \n                            \n                                \n                                    \n\t\tParcel Number:14 00750010055 *Block:--Lot:--Subdivision:--",
        "tree_number": "1",
        "species": "Na"
      },
      "geometry": {
        "type": "Point",
        "coordinates": [
          -84.390340771094,
          33.730486692905
        ]
      }
    },
    {
      "type": "Feature",
      "properties": {
        "record": "BA-202603939",
        "address": "1310 DORSEY ST SW, ATLANTA GA 30310",
        "status": "Accepted",
        "date": "08/13/2026",
        "description": "DDH",
        "owner": null,
        "tree_dbh": null,
        "tree_location": null,
        "reason_removal": null,
        "tree_description": null,
        "tree_number": null,
        "species": null
      },
      "geometry": {
        "type": "Point",
        "coordinates": [
          -84.425871619769,
          33.718775463435
        ]
      }
    }
  ]
}