{
  "type": "FeatureCollection",
  "features": [
    {
      "type": "Feature",
      "properties": {
        "record": "BA-202604981",
        "address": "1587 ALDER LN SW, ATLANTA GA 30311",
        "status": "ACA Pending",
        "date": "09/26/2026",
        "description": null,
        "owner": "casablanca realty group",
        "tree_dbh": "28",
        "tree_location": "in front of the house",
        "reason_removal": "Dead tree",
        "tree_description": null,
        "tree_number": "1",
        "species": "pine",
        "comments": null,
        "tree_count": 1,
        "trees": [
          {
            "tree_number": "1",
            "species": "pine",
            "tree_dbh": "28",
            "tree_location": "in front of the house",
            "tree_description": null,
            "reason_removal": "Dead tree",
            "comments": null
          }
        ]
      },
      "geometry": {
        "type": "Point",
        "coordinates": [
          -84.448520890176,
          33.712406255915
        ]
      }
    },
    {
      "type": "Feature",
      "properties": {
        "record": "BA-202604979",
        "address": "957 DELMAR AVE SE, ATLANTA GA 30316",
        "status": "ACA Pending",
        "date": "09/26/2026",
        "description": null,
        "owner": "FRANCIS EUGENE ROHLING",
        "tree_dbh": "26",
        "tree_location": "Palatine Ave Near Driveway",
        "reason_removal": "Dying tree",
        "tree_description": "This tree continues to be damaged during power line maintenance. Note severe trunk cuts below power lines in pictures.",
        "tree_number": "1",
        "species": "Unknown",
        "comments": "Expect to reconfigure this hill with either sidewalk or smaller trees such as dogwood or crepe myrtle within 2 years.",
        "tree_count": 4,
        "trees": [
          {
            "tree_number": "1",
            "species": "Unknown",
            "tree_dbh": "26",
            "tree_location": "Palatine Ave Near Driveway",
            "tree_description": "This tree continues to be damaged during power line maintenance. Note severe trunk cuts below power lines in pictures.",
            "reason_removal": "Dying tree",
            "comments": "Expect to reconfigure this hill with either sidewalk or smaller trees such as dogwood or crepe myrtle within 2 years."
          },
          {
            "tree_number": "2",
            "species": "Cherry Laurel",
            "tree_dbh": "21",
            "tree_location": "Back yard of lot",
            "tree_description": "Tree started life within a clump of crepe myrtles. Over the last 10 years, it has transitioned from 15 degree tilt to now on ground. It has taken down several adjacent trees including trees 3 and 4.",
            "reason_removal": "Dying tree",
            "comments": "Back yard to be reconfigured with dogwoods interspersed with crepe myrtles."
          },
          {
            "tree_number": "3",
            "species": "Dogwood",
            "tree_dbh": "8",
            "tree_location": "Back yard. See pictures.",
            "tree_description": "Possibly a dogwood based on memory. Bark is consistent. No leaves.",
            "reason_removal": "Dead tree",
            "comments": "Tree dead. Likely because of pressure by gradually falling tree T2. Didn't get this resolved in time."
          },
          {
            "tree_number": "4",
            "species": "Privot",
            "tree_dbh": "7",
            "tree_location": "Back Yard. See pictures.",
            "tree_description": "Over zealous privot scrub tree damaged by fall of tree T2.",
            "reason_removal": "Invasive/undesirable tree",
            "comments": "Leaning badly. Might be recoverable, but this is an invasive species to the yard."
          }
        ]
      },
      "geometry": {
        "type": "Point",
        "coordinates": [
          -84.357340952528,
          33.731997448274
        ]
      }
    },
    {
      "type": "Feature",
      "properties": {
        "record": "BA-202604980",
        "address": "290 ELMIRA PL NE, ATLANTA GA 30307",
        "status": "ACA Pending",
        "date": "09/26/2026",
        "description": null,
        "owner": "RYAN BOBLETT",
        "tree_dbh": "19",
        "tree_location": "back yard left",
        "reason_removal": "Uncorrectable defect",
        "tree_description": "Mature water oak exhibiting significant directional lean toward adjacent residential structures, with substantial asymmetric crown loading and large co-dominant stems.",
        "tree_number": "1",
        "species": "water oak",
        "comments": null,
        "tree_count": 1,
        "trees": [
          {
            "tree_number": "1",
            "species": "water oak",
            "tree_dbh": "19",
            "tree_location": "back yard left",
            "tree_description": "Mature water oak exhibiting significant directional lean toward adjacent residential structures, with substantial asymmetric crown loading and large co-dominant stems.",
            "reason_removal": "Uncorrectable defect",
            "comments": null
          }
        ]
      },
      "geometry": {
        "type": "Point",
        "coordinates": [
          -84.346950711447,
          33.762709746517
        ]
      }
    },
    {
      "type": "Feature",
      "properties": {
        "record": "26TMP-063768",
        "address": "290 ELMIRA PL NE, ATLANTA GA 30307",
        "status": "",
        "date": "09/26/2026",
        "description": null,
        "owner": null,
        "tree_dbh": null,
        "tree_location": null,
        "reason_removal": null,
        "tree_description": null,
        "tree_number": null,
        "species": null,
        "comments": null,
        "tree_count": null,
        "trees": null
      },
      "geometry": {
        "type": "Point",
        "coordinates": [
          -84.346950711447,
          33.762709746517
        ]
      }
    },
    {
      "type": "Feature",
      "properties": {
        "record": "BA-202604978",
        "address": "4750 GUILFORD FOREST DR SW, ATLANTA GA 30331",
        "status": "ACA Pending",
        "date": "09/26/2026",
        "description": null,
        "owner": "SINGLETON PETER T",
        "tree_dbh": "1.37",
        "tree_location": "Front yard",
        "reason_removal": "Significant cavity/area of decay",
        "tree_description": "Measured at 4.5 feet (1.37 meters) above the ground on the uphill side in the United States, and 1.3 meters internationally",
        "tree_number": "1",
        "species": "Bradford Pear",
        "comments": "Need inspection",
        "tree_count": 1,
        "trees": [
          {
            "tree_number": "1",
            "species": "Bradford Pear",
            "tree_dbh": "1.37",
            "tree_location": "Front yard",
            "tree_description": "Measured at 4.5 feet (1.37 meters) above the ground on the uphill side in the United States, and 1.3 meters internationally",
            "reason_removal": "Significant cavity/area of decay",
            "comments": "Need inspection"
          }
        ]
      },
      "geometry": {
        "type": "Point",
        "coordinates": [
          -84.546232733352,
          33.725812863305
        ]
      }
    }
  ]
}