{
  "type": "FeatureCollection",
  "features": [
    {
      "type": "Feature",
      "properties": {
        "record": "BA-202603705",
        "address": "1053 SWATHMORE DR NW, ATLANTA GA 30327",
        "status": "ACA Pending",
        "date": "08/03/2026",
        "description": null,
        "owner": "BARSHAY CATHERINE D",
        "tree_dbh": "26",
        "tree_location": "front right",
        "reason_removal": "Uncorrectable defect",
        "tree_description": "26\" tulip poplar at the front right of driveway with a bifurcated crown with ~6 feet of included bark with associated decay. Visible active bleeding in the area.Reason for Removal:Uncorrectable defect\n\t\t\n\t\n\t\n                                \n                            \n                        \n                    \n                        \n                            \n                                \n                                    \n                                        \n                                         Parcel Information\n                                \n                            \n                            \n                                \n                                    \n\t\tParcel Number:17 0178  LL073 *Block:--Lot:--Subdivision:--",
        "tree_number": "1",
        "species": "poplar"
      },
      "geometry": {
        "type": "Point",
        "coordinates": [
          -84.421049316137,
          33.875737823257
        ]
      }
    },
    {
      "type": "Feature",
      "properties": {
        "record": "BA-202603698",
        "address": "2392 VENETIAN DR SW, ATLANTA GA 30311",
        "status": "Accepted",
        "date": "08/03/2026",
        "description": null,
        "owner": null,
        "tree_dbh": null,
        "tree_location": null,
        "reason_removal": null,
        "tree_description": null,
        "tree_number": null,
        "species": null
      },
      "geometry": {
        "type": "Point",
        "coordinates": [
          -84.465894587599,
          33.721148552342
        ]
      }
    },
    {
      "type": "Feature",
      "properties": {
        "record": "BA-202603670",
        "address": "3799 VERMONT RD NE, ATLANTA GA 30319",
        "status": "Accepted",
        "date": "08/03/2026",
        "description": null,
        "owner": null,
        "tree_dbh": null,
        "tree_location": null,
        "reason_removal": null,
        "tree_description": null,
        "tree_number": null,
        "species": null
      },
      "geometry": {
        "type": "Point",
        "coordinates": [
          -84.353420117779,
          33.857634860303
        ]
      }
    },
    {
      "type": "Feature",
      "properties": {
        "record": "BA-202603699",
        "address": "527 BRENTWOOD DR NE, ATLANTA GA 30305",
        "status": "Accepted",
        "date": "08/03/2026",
        "description": null,
        "owner": null,
        "tree_dbh": null,
        "tree_location": null,
        "reason_removal": null,
        "tree_description": null,
        "tree_number": null,
        "species": null
      },
      "geometry": {
        "type": "Point",
        "coordinates": [
          -84.371334351171,
          33.831433961878
        ]
      }
    },
    {
      "type": "Feature",
      "properties": {
        "record": "BA-202603710",
        "address": "288 LOGAN ST SE, ATLANTA GA 30312",
        "status": "ACA Pending",
        "date": "08/03/2026",
        "description": null,
        "owner": null,
        "tree_dbh": null,
        "tree_location": null,
        "reason_removal": null,
        "tree_description": null,
        "tree_number": null,
        "species": null
      },
      "geometry": {
        "type": "Point",
        "coordinates": [
          -84.378161566493,
          33.744536830109
        ]
      }
    },
    {
      "type": "Feature",
      "properties": {
        "record": "BA-202603687",
        "address": "1159 EASTRIDGE RD SW, ATLANTA GA 30311",
        "status": "Accepted",
        "date": "08/03/2026",
        "description": null,
        "owner": null,
        "tree_dbh": null,
        "tree_location": null,
        "reason_removal": null,
        "tree_description": null,
        "tree_number": null,
        "species": null
      },
      "geometry": {
        "type": "Point",
        "coordinates": [
          -84.445095302848,
          33.723518004847
        ]
      }
    },
    {
      "type": "Feature",
      "properties": {
        "record": "BA-202603694",
        "address": "860 LAURELMONT DR SW, ATLANTA GA 30311",
        "status": "Accepted",
        "date": "08/03/2026",
        "description": null,
        "owner": null,
        "tree_dbh": null,
        "tree_location": null,
        "reason_removal": null,
        "tree_description": null,
        "tree_number": null,
        "species": null
      },
      "geometry": {
        "type": "Point",
        "coordinates": [
          -84.493129191864,
          33.732067172028
        ]
      }
    },
    {
      "type": "Feature",
      "properties": {
        "record": "BA-202603697",
        "address": "2326 VENETIAN DR SW, ATLANTA GA 30311",
        "status": "Accepted",
        "date": "08/03/2026",
        "description": null,
        "owner": null,
        "tree_dbh": null,
        "tree_location": null,
        "reason_removal": null,
        "tree_description": null,
        "tree_number": null,
        "species": null
      },
      "geometry": {
        "type": "Point",
        "coordinates": [
          -84.465519752188,
          33.718142757527
        ]
      }
    },
    {
      "type": "Feature",
      "properties": {
        "record": "BA-202603679",
        "address": "1015 WEST WESLEY RD NW, ATLANTA GA 30327",
        "status": "Accepted",
        "date": "08/03/2026",
        "description": null,
        "owner": null,
        "tree_dbh": "25",
        "tree_location": "Back center of the yard",
        "reason_removal": "Diseased",
        "tree_description": "25 in diameter White Oak back Center of yard has large growth and is leaning Reason for Removal:Diseased\n\t\t\n\t\n\t\n                                \n                            \n                        \n                    \n                        \n                            \n                                \n                                    \n                                        \n                                         Parcel Information\n                                \n                            \n                            \n                                \n                                    \n\t\tParcel Number:17 0183  LL060 *Block:--Lot:--Subdivision:--",
        "tree_number": "1",
        "species": "White Oak"
      },
      "geometry": {
        "type": "Point",
        "coordinates": [
          -84.420355553556,
          33.828786431632
        ]
      }
    },
    {
      "type": "Feature",
      "properties": {
        "record": "BA-202603693",
        "address": "2334 VENETIAN DR SW, ATLANTA GA 30311",
        "status": "Accepted",
        "date": "08/03/2026",
        "description": null,
        "owner": null,
        "tree_dbh": "14",
        "tree_location": "Eastern edge",
        "reason_removal": "Other",
        "tree_description": "Tree leaning greater than 15 degreesReason for Removal:Other\n\t\t\n\t\n\t\n                                \n                            \n                        \n                    \n                        \n                            \n                                \n                                    \n                                        \n                                         Parcel Information\n                                \n                            \n                            \n                                \n                                    \n\t\tParcel Number:14 01840002026 *Block:--Lot:--Subdivision:--",
        "tree_number": "7",
        "species": "Quercus Stellata"
      },
      "geometry": {
        "type": "Point",
        "coordinates": [
          -84.465547684018,
          33.718542032433
        ]
      }
    },
    {
      "type": "Feature",
      "properties": {
        "record": "BA-202603703",
        "address": "1805 GIBEN RD SW, ATLANTA GA 30315",
        "status": "ACA Pending",
        "date": "08/03/2026",
        "description": null,
        "owner": "FERGUSON VORISE",
        "tree_dbh": "20",
        "tree_location": "front yard",
        "reason_removal": "Dying tree",
        "tree_description": null,
        "tree_number": "1",
        "species": "n/a"
      },
      "geometry": {
        "type": "Point",
        "coordinates": [
          -84.400548288355,
          33.706991634818
        ]
      }
    },
    {
      "type": "Feature",
      "properties": {
        "record": "BA-202603681",
        "address": "3685 RANDALL MILL RD NW, ATLANTA GA 30327",
        "status": "Accepted",
        "date": "08/03/2026",
        "description": null,
        "owner": "BAUMER GAIL A",
        "tree_dbh": "24",
        "tree_location": "front by street",
        "reason_removal": "Dead tree",
        "tree_description": "24\"dead Loblolly Pine near the road.Reason for Removal:Dead tree\n\t\t\n\t\n\t\n                                \n                            \n                        \n                    \n                        \n                            \n                                \n                                    \n                                        \n                                         Parcel Information\n                                \n                            \n                            \n                                \n                                    \n\t\tParcel Number:17 01800003016 *Block:--Lot:--Subdivision:--",
        "tree_number": "1",
        "species": "Loblolly Pine"
      },
      "geometry": {
        "type": "Point",
        "coordinates": [
          -84.421303938074,
          33.856889774082
        ]
      }
    },
    {
      "type": "Feature",
      "properties": {
        "record": "BA-202603691",
        "address": "8 ADAIR AVE SE, ATLANTA GA 30315",
        "status": "Accepted",
        "date": "08/03/2026",
        "description": null,
        "owner": "JOHNSON MARIANNE",
        "tree_dbh": "33",
        "tree_location": "front driveway on the side",
        "reason_removal": "Diseased",
        "tree_description": "overgrown trunkReason for Removal:Diseased\n\t\t\n\t\n\t\n                                \n                            \n                        \n                    \n                        \n                            \n                                \n                                    \n                                        \n                                         Parcel Information\n                                \n                            \n                            \n                                \n                                    \n\t\tParcel Number:14 00570021020 *Block:--Lot:--Subdivision:--",
        "tree_number": "1",
        "species": "unknown"
      },
      "geometry": {
        "type": "Point",
        "coordinates": [
          -84.387813850415,
          33.706299156436
        ]
      }
    },
    {
      "type": "Feature",
      "properties": {
        "record": "BA-202603701",
        "address": "2210 WEST CEDAR LN SW, ATLANTA GA 30311",
        "status": "ACA Pending",
        "date": "08/03/2026",
        "description": null,
        "owner": "DE JEAN CURTIS",
        "tree_dbh": "14",
        "tree_location": "Southern Edge of parcel",
        "reason_removal": "Dying tree",
        "tree_description": "All tree branches broken. Tree is no longer growing needles.Reason for Removal:Dying tree\n\t\t\n\t\t\n\t\t\tTree number:23Species:Quercus spTree Size (DBH):6Tree location:Southern Edge of parcelDescription of Tree:No foliage growth. Damage to bottom of trunk. Reason for Removal:Dying tree\n\t\t\n\t\n\t\n                                \n                            \n                        \n                    \n                        \n                            \n                                \n                                    \n                                        \n                                         Parcel Information\n                                \n                            \n                            \n                                \n                                    \n\t\tParcel Number:14 01850002042 *Block:--Lot:--Subdivision:--",
        "tree_number": "22",
        "species": "Pine"
      },
      "geometry": {
        "type": "Point",
        "coordinates": [
          -84.460175761558,
          33.711022795071
        ]
      }
    },
    {
      "type": "Feature",
      "properties": {
        "record": "BA-202603684",
        "address": "2076 COTTAGE LN NW, ATLANTA GA 30318",
        "status": "Accepted",
        "date": "08/03/2026",
        "description": null,
        "owner": null,
        "tree_dbh": "22",
        "tree_location": "Left of driveway",
        "reason_removal": "Other",
        "tree_description": "pictue of treeReason for Removal:DiseasedComments:Ambrosia Beetles\n\t\t\n\t\t\n\t\t\tTree number:2Species:White oakTree Size (DBH):25Tree location:Left of drivewayDescription of Tree:picture of treeReason for Removal:OtherComments:80% of canopy is more 15 feet from center line - tree lean targeting home - extreme limited root plate between driveways - tree has dropped healthy limbs on multiple dates causing property damage\n\t\t\n\t\n\t\n                                \n                            \n                        \n                    \n                        \n                            \n                                \n                                    \n                                        \n                                         Parcel Information\n                                \n                            \n                            \n                                \n                                    \n\t\tParcel Number:17 01460001046 *Block:--Lot:--Subdivision:--",
        "tree_number": "1",
        "species": "Hickory"
      },
      "geometry": {
        "type": "Point",
        "coordinates": [
          -84.406473334682,
          33.811987468255
        ]
      }
    },
    {
      "type": "Feature",
      "properties": {
        "record": "BA-202603700",
        "address": "1160 ANGELO CT NE, ATLANTA GA 30319",
        "status": "ACA Pending",
        "date": "08/03/2026",
        "description": null,
        "owner": "Ryan Hilliard",
        "tree_dbh": "50",
        "tree_location": "side of house - within 5 ft of house basement, see pic",
        "reason_removal": "Invasive/undesirable tree",
        "tree_description": null,
        "tree_number": "1",
        "species": "Oak"
      },
      "geometry": {
        "type": "Point",
        "coordinates": [
          -84.34954359292,
          33.881115387871
        ]
      }
    },
    {
      "type": "Feature",
      "properties": {
        "record": "BA-202603688",
        "address": "95 VANNOY ST SE, ATLANTA GA 30317",
        "status": "Accepted",
        "date": "08/03/2026",
        "description": null,
        "owner": "GIUSTA GIAN FRANCO",
        "tree_dbh": "5",
        "tree_location": "Backyard",
        "reason_removal": "Dead tree",
        "tree_description": "Pecan TreeReason for Removal:Dead tree\n\t\t\n\t\n\t\n                                \n                            \n                        \n                    \n                        \n                            \n                                \n                                    \n                                        \n                                         Parcel Information\n                                \n                            \n                            \n                                \n                                    \n\t\tParcel Number:15 208 03 038 *Block:--Lot:--Subdivision:--",
        "tree_number": "7",
        "species": "Pecan Tree"
      },
      "geometry": {
        "type": "Point",
        "coordinates": [
          -84.34650275895,
          33.750720900205
        ]
      }
    },
    {
      "type": "Feature",
      "properties": {
        "record": "26TMP-050315",
        "address": "678 DARLINGTON CIR NE, ATLANTA GA 30305",
        "status": "",
        "date": "08/03/2026",
        "description": null,
        "owner": null,
        "tree_dbh": null,
        "tree_location": null,
        "reason_removal": null,
        "tree_description": null,
        "tree_number": null,
        "species": null
      },
      "geometry": {
        "type": "Point",
        "coordinates": [
          -84.364736991471,
          33.832279017947
        ]
      }
    },
    {
      "type": "Feature",
      "properties": {
        "record": "BA-202603671",
        "address": "1336 BEECHER ST SW, ATLANTA GA 30310",
        "status": "Accepted",
        "date": "08/03/2026",
        "description": null,
        "owner": "Adam and Cara Stulberg",
        "tree_dbh": "30",
        "tree_location": "Rear right of house",
        "reason_removal": "Uncorrectable defect",
        "tree_description": "Lost of 30% canopy with damage on main trunkReason for Removal:Uncorrectable defect\n\t\t\n\t\n\t\n                                \n                            \n                        \n                    \n                        \n                            \n                                \n                                    \n                                        \n                                         Parcel Information\n                                \n                            \n                            \n                                \n                                    \n\t\tParcel Number:14 01390006032 *Block:--Lot:--Subdivision:--",
        "tree_number": "1",
        "species": "Sweetgum"
      },
      "geometry": {
        "type": "Point",
        "coordinates": [
          -84.431278383115,
          33.733205696679
        ]
      }
    },
    {
      "type": "Feature",
      "properties": {
        "record": "26TMP-050465",
        "address": "985 GASTON ST SW, ATLANTA GA 30310",
        "status": "",
        "date": "08/03/2026",
        "description": null,
        "owner": null,
        "tree_dbh": null,
        "tree_location": null,
        "reason_removal": null,
        "tree_description": null,
        "tree_number": null,
        "species": null
      },
      "geometry": {
        "type": "Point",
        "coordinates": [
          -84.43658408,
          33.728489101453
        ]
      }
    },
    {
      "type": "Feature",
      "properties": {
        "record": "BA-202603706",
        "address": "355 HILLSIDE DR NW, ATLANTA GA 30342",
        "status": "ACA Pending",
        "date": "08/03/2026",
        "description": null,
        "owner": "HIPP J CARTER",
        "tree_dbh": "30",
        "tree_location": "front right",
        "reason_removal": "Dead tree",
        "tree_description": "30\" Pine, located front right corner of 355 Hillside, very close to property line, DeadReason for Removal:Dead treeComments:30\" Pine, located front right corner of 355 Hillside, very close to property line, Dead\n\t\t\n\t\n\t\n                                \n                            \n                        \n                    \n                        \n                            \n                                \n                                    \n                                        \n                                         Parcel Information\n                                \n                            \n                            \n                                \n                                    \n\t\tParcel Number:17 01380003033 *Block:--Lot:--Subdivision:--",
        "tree_number": "1",
        "species": "Pine"
      },
      "geometry": {
        "type": "Point",
        "coordinates": [
          -84.399239746066,
          33.869987279764
        ]
      }
    },
    {
      "type": "Feature",
      "properties": {
        "record": "BA-202603677",
        "address": "15 LAKE FORREST LN NE, ATLANTA GA 30342",
        "status": "Accepted",
        "date": "08/03/2026",
        "description": null,
        "owner": "Patrick Frias",
        "tree_dbh": "34",
        "tree_location": "Front right",
        "reason_removal": "Uncorrectable defect",
        "tree_description": "cavity in trunk, lean, restricted root spaceReason for Removal:Uncorrectable defectComments:Orange paint\n\t\t\n\t\n\t\n                                \n                            \n                        \n                    \n                        \n                            \n                                \n                                    \n                                        \n                                         Parcel Information\n                                \n                            \n                            \n                                \n                                    \n\t\tParcel Number:17 00950007064 *Block:--Lot:--Subdivision:--",
        "tree_number": "1",
        "species": "Poplar"
      },
      "geometry": {
        "type": "Point",
        "coordinates": [
          -84.386888778911,
          33.873265935615
        ]
      }
    },
    {
      "type": "Feature",
      "properties": {
        "record": "BA-202603692",
        "address": "2340 VENETIAN DR SW, ATLANTA GA 30311",
        "status": "Accepted",
        "date": "08/03/2026",
        "description": null,
        "owner": "BARRON SARAH F",
        "tree_dbh": "12",
        "tree_location": "Eastern edge",
        "reason_removal": "Other",
        "tree_description": "Leaning and tree's upper structure is bent over the road. Reason for Removal:Other\n\t\t\n\t\t\n\t\t\tTree number:4Species:Quercus FalcataTree Size (DBH):27Tree location:Eastern edgeDescription of Tree:Leaning and tree's upper structure is bent over the road. Reason for Removal:Other\n\t\t\n\t\t\n\t\t\tTree number:5Species:Quercus stellataTree Size (DBH):6Tree location:Eastern edgeDescription of Tree:Leaning and tree's upper structure is bent over the road. Reason for Removal:Other\n\t\t\n\t\t\n\t\t\tTree number:6Species:Quercus stellataTree Size (DBH):10Tree location:Eastern edgeDescription of Tree:Leaning and tree's upper structure is bent over the road. Reason for Removal:Other\n\t\t\n\t\n\t\n                                \n                            \n                        \n                    \n                        \n                            \n                                \n                                    \n                                        \n                                         Parcel Information\n                                \n                            \n                            \n                                \n                                    \n\t\tParcel Number:14 01840002025 *Block:--Lot:--Subdivision:--",
        "tree_number": "3",
        "species": "Quercus Sp."
      },
      "geometry": {
        "type": "Point",
        "coordinates": [
          -84.465549507066,
          33.718815491872
        ]
      }
    },
    {
      "type": "Feature",
      "properties": {
        "record": "BA-202603674",
        "address": "646 KIMBERLY LN NE, ATLANTA GA 30306",
        "status": "Accepted",
        "date": "08/03/2026",
        "description": null,
        "owner": "Zachary Solomon",
        "tree_dbh": "10",
        "tree_location": "Right side of backyard",
        "reason_removal": "Uncorrectable defect",
        "tree_description": "low LCR due to strangulation from wisteria, trunk growing into fence, restricted root zoneReason for Removal:Uncorrectable defectComments:Orange paint\n\t\t\n\t\n\t\n                                \n                            \n                        \n                    \n                        \n                            \n                                \n                                    \n                                        \n                                         Parcel Information\n                                \n                            \n                            \n                                \n                                    \n\t\tParcel Number:18 055 07 016 *Block:--Lot:--Subdivision:--",
        "tree_number": "1",
        "species": "Sweetgum"
      },
      "geometry": {
        "type": "Point",
        "coordinates": [
          -84.341803048799,
          33.794602250647
        ]
      }
    },
    {
      "type": "Feature",
      "properties": {
        "record": "BA-202603708",
        "address": "2846 TUPELO ST SE, ATLANTA GA 30317",
        "status": "ACA Pending",
        "date": "08/03/2026",
        "description": null,
        "owner": "Reshell Baldini",
        "tree_dbh": "12",
        "tree_location": "front and back yard",
        "reason_removal": "Dying tree",
        "tree_description": null,
        "tree_number": "20",
        "species": "large"
      },
      "geometry": {
        "type": "Point",
        "coordinates": [
          -84.293716155099,
          33.748882549931
        ]
      }
    },
    {
      "type": "Feature",
      "properties": {
        "record": "BA-202603709",
        "address": "1391 JONESBORO RD SE, ATLANTA GA 30315",
        "status": "ACA Pending",
        "date": "08/03/2026",
        "description": null,
        "owner": "Ashley McCalla",
        "tree_dbh": "25",
        "tree_location": "Right Rear",
        "reason_removal": "Dying tree",
        "tree_description": "*Tree is showing signs of decline, including drying limbs and active branch failure, posing a safety risk to surrounding structures and vehicles\n* Safe dismantling of the tree using professional rigging and controlled cutting techniques to prevent damage to nearby areas (fence, driveway, and parked vehicles)\n* Sectional removal due to tree size and proximity to structures\n* Complete hauling away of all logs, limbs, ivy, and organic debris\n* On-site chipping where applicable to reduce debris volume\n* Thorough cleanup of work area, leaving property clean and clearReason for Removal:Dying tree\n\t\t\n\t\n\t\n                                \n                            \n                        \n                    \n                        \n                            \n                                \n                                    \n                                        \n                                         Parcel Information\n                                \n                            \n                            \n                                \n                                    \n\t\tParcel Number:14 00560010019 *Block:--Lot:--Subdivision:--",
        "tree_number": "1",
        "species": "Tulip Poplar"
      },
      "geometry": {
        "type": "Point",
        "coordinates": [
          -84.383961212047,
          33.716398906254
        ]
      }
    },
    {
      "type": "Feature",
      "properties": {
        "record": "BA-202603702",
        "address": "2806 7TH ST SW, ATLANTA GA 30315",
        "status": "ACA Pending",
        "date": "08/03/2026",
        "description": null,
        "owner": null,
        "tree_dbh": null,
        "tree_location": null,
        "reason_removal": null,
        "tree_description": null,
        "tree_number": null,
        "species": null
      },
      "geometry": {
        "type": "Point",
        "coordinates": [
          -84.403118279185,
          33.678420807477
        ]
      }
    },
    {
      "type": "Feature",
      "properties": {
        "record": "BA-202603685",
        "address": "2517 SHARONDALE DR NE, ATLANTA GA 30305",
        "status": "Accepted",
        "date": "08/03/2026",
        "description": null,
        "owner": "SENESOMBATH PHEISAMONE",
        "tree_dbh": "51",
        "tree_location": "Backyard",
        "reason_removal": "Other",
        "tree_description": "Picture of treeReason for Removal:OtherComments:codominant\n\t\t\n\t\n\t\n                                \n                            \n                        \n                    \n                        \n                            \n                                \n                                    \n                                        \n                                         Parcel Information\n                                \n                            \n                            \n                                \n                                    \n\t\tParcel Number:17 00590003083 *Block:--Lot:--Subdivision:--",
        "tree_number": "1",
        "species": "Poplar"
      },
      "geometry": {
        "type": "Point",
        "coordinates": [
          -84.374189141541,
          33.823287058683
        ]
      }
    },
    {
      "type": "Feature",
      "properties": {
        "record": "BA-202603673",
        "address": "684 ELMWOOD DR NE, ATLANTA GA 30306",
        "status": "Issued",
        "date": "08/03/2026",
        "description": null,
        "owner": "Charles Flanary",
        "tree_dbh": "28",
        "tree_location": "Back garage",
        "reason_removal": "Uncorrectable defect",
        "tree_description": "Canopy failureReason for Removal:Uncorrectable defect\n\t\t\n\t\n\t\n                                \n                            \n                        \n                    \n                        \n                            \n                                \n                                    \n                                        \n                                         Parcel Information\n                                \n                            \n                            \n                                \n                                    \n\t\tParcel Number:17 00530004032 *Block:--Lot:--Subdivision:--",
        "tree_number": "1",
        "species": "Elm"
      },
      "geometry": {
        "type": "Point",
        "coordinates": [
          -84.365085068993,
          33.784044085656
        ]
      }
    },
    {
      "type": "Feature",
      "properties": {
        "record": "BA-202603707",
        "address": "3800 IVY LN NE, ATLANTA GA 30342",
        "status": "ACA Pending",
        "date": "08/03/2026",
        "description": null,
        "owner": "Rebecca Hecht",
        "tree_dbh": "16",
        "tree_location": "North west corner of the property",
        "reason_removal": "Invasive/undesirable tree",
        "tree_description": "1 pine tree approximately 16 inches in diameter in competition with a more desirable oak tree.Reason for Removal:Invasive/undesirable treeComments:The homeowner would like to remove this tree so that the larger and more desirable oak next to it Can grow unimpeded. \n\t\t\n\t\n\t\n                                \n                            \n                        \n                    \n                        \n                            \n                                \n                                    \n                                        \n                                         Parcel Information\n                                \n                            \n                            \n                                \n                                    \n\t\tParcel Number:17 00440002065 *Block:--Lot:--Subdivision:--",
        "tree_number": "1",
        "species": "Loblolly Pine (Pinus Tadea)"
      },
      "geometry": {
        "type": "Point",
        "coordinates": [
          -84.364718231413,
          33.858092332617
        ]
      }
    },
    {
      "type": "Feature",
      "properties": {
        "record": "BA-202603704",
        "address": "1690 DELOWE DR SW, ATLANTA GA 30311",
        "status": "ACA Pending",
        "date": "08/03/2026",
        "description": null,
        "owner": "HOOD DOROTHY",
        "tree_dbh": "19",
        "tree_location": "Northern borer of parcel.",
        "reason_removal": "Dead tree",
        "tree_description": "Entire top of tree is gone and trunk is covered in vines.  Reason for Removal:Dead tree\n\t\t\n\t\n\t\n                                \n                            \n                        \n                    \n                        \n                            \n                                \n                                    \n                                        \n                                         Parcel Information\n                                \n                            \n                            \n                                \n                                    \n\t\tParcel Number:14 01850001004 *Block:--Lot:--Subdivision:--",
        "tree_number": "19",
        "species": "unknown"
      },
      "geometry": {
        "type": "Point",
        "coordinates": [
          -84.459938950701,
          33.709539286051
        ]
      }
    },
    {
      "type": "Feature",
      "properties": {
        "record": "26TMP-050272",
        "address": "1392 KENILWORTH DR SW, ATLANTA GA 30310",
        "status": "",
        "date": "08/03/2026",
        "description": null,
        "owner": null,
        "tree_dbh": null,
        "tree_location": null,
        "reason_removal": null,
        "tree_description": null,
        "tree_number": null,
        "species": null
      },
      "geometry": {
        "type": "Point",
        "coordinates": [
          -84.434094129552,
          33.717766316554
        ]
      }
    },
    {
      "type": "Feature",
      "properties": {
        "record": "26TMP-050399",
        "address": "309 BLACKLAND RD NW, ATLANTA GA 30342",
        "status": "",
        "date": "08/03/2026",
        "description": null,
        "owner": null,
        "tree_dbh": null,
        "tree_location": null,
        "reason_removal": null,
        "tree_description": null,
        "tree_number": null,
        "species": null
      },
      "geometry": {
        "type": "Point",
        "coordinates": [
          -84.397718364809,
          33.859497664499
        ]
      }
    },
    {
      "type": "Feature",
      "properties": {
        "record": "BA-202603695",
        "address": "2330 VENETIAN DR SW, ATLANTA GA 30311",
        "status": "Accepted",
        "date": "08/03/2026",
        "description": null,
        "owner": null,
        "tree_dbh": "19",
        "tree_location": "Eastern edge",
        "reason_removal": "Other",
        "tree_description": "Top of tree is gone and inundated with vines. Tree is dead. Reason for Removal:Dead tree\n\t\t\n\t\t\n\t\t\tTree number:9Species:Quercus AlbaTree Size (DBH):14Tree location:Eastern edgeDescription of Tree:inundated with vines. Reason for Removal:Other\n\t\t\n\t\n\t\n                                \n                            \n                        \n                    \n                        \n                            \n                                \n                                    \n                                        \n                                         Parcel Information\n                                \n                            \n                            \n                                \n                                    \n\t\tParcel Number:14 01840004001 *Block:--Lot:--Subdivision:--",
        "tree_number": "8",
        "species": "Hardwood"
      },
      "geometry": {
        "type": "Point",
        "coordinates": [
          -84.465546468652,
          33.71835972614
        ]
      }
    },
    {
      "type": "Feature",
      "properties": {
        "record": "BA-202603678",
        "address": "1304 NORTH MORNINGSIDE DR NE, ATLANTA GA 30306",
        "status": "Issued",
        "date": "08/03/2026",
        "description": null,
        "owner": "ONE THREE ZERO FOUR NORTH MORN LLC",
        "tree_dbh": "56",
        "tree_location": "Rear right",
        "reason_removal": "Other",
        "tree_description": "Large water oak located near the property line. The tree has a pronounced lean toward the neighboring properties, a large cavity in the upper trunk, fungal growth at the base, and visible damage consistent with a recent lightning strike.Reason for Removal:Other\n\t\t\n\t\t\n\t\t\tTree number:1Species:water oak Tree Size (DBH):31.8Tree location:Rear right Description of Tree:Tree located in the rear-right portion of the property, next to the water oak. The tree has an excessive lean toward the neighboring property, with possible internal decay. An adjacent tree scheduled for removal has fungal growth at the base, and the two trees are located very close together. The excessive lean is the primary safety concern.Reason for Removal:Other\n\t\t\n\t\n\t\n                                \n                            \n                        \n                    \n                        \n                            \n                                \n                                    \n                                        \n                                         Parcel Information\n                                \n                            \n                            \n                                \n                                    \n\t\tParcel Number:17 00020011007 *Block:--Lot:--Subdivision:--",
        "tree_number": "1",
        "species": "water oak"
      },
      "geometry": {
        "type": "Point",
        "coordinates": [
          -84.353808978118,
          33.790604463213
        ]
      }
    },
    {
      "type": "Feature",
      "properties": {
        "record": "BA-202603689",
        "address": "2350 VENETIAN DR SW, ATLANTA GA 30311",
        "status": "Accepted",
        "date": "08/03/2026",
        "description": null,
        "owner": "ROBINSON CONSTANCE Y",
        "tree_dbh": "28",
        "tree_location": "North corner",
        "reason_removal": "Other",
        "tree_description": null,
        "tree_number": "1",
        "species": "Southern Red Oak"
      },
      "geometry": {
        "type": "Point",
        "coordinates": [
          -84.46555254548,
          33.719271257605
        ]
      }
    },
    {
      "type": "Feature",
      "properties": {
        "record": "BA-202603690",
        "address": "2348 VENETIAN DR SW, ATLANTA GA 30311",
        "status": "Accepted",
        "date": "08/03/2026",
        "description": null,
        "owner": "BAKARI PRISCILLA",
        "tree_dbh": "13",
        "tree_location": "South East Corner",
        "reason_removal": "Other",
        "tree_description": null,
        "tree_number": "2",
        "species": "Quecus sp."
      },
      "geometry": {
        "type": "Point",
        "coordinates": [
          -84.465551937797,
          33.719180104458
        ]
      }
    },
    {
      "type": "Feature",
      "properties": {
        "record": "BA-202603686",
        "address": "2679 HOSEA L WILLIAMS DR SE, ATLANTA GA 30317",
        "status": "Accepted",
        "date": "08/03/2026",
        "description": null,
        "owner": "SLAWIENSKI MELANIE",
        "tree_dbh": "20",
        "tree_location": "Back left of house",
        "reason_removal": "Invasive/undesirable tree",
        "tree_description": "Undesirable, and decay fungi present on trunkReason for Removal:Significant cavity/area of decayComments:Orange paint\n\t\t\n\t\t\n\t\t\tTree number:2Species:Cherry LaurelTree Size (DBH):8Tree location:Back right of houseDescription of Tree:UndesirableReason for Removal:Invasive/undesirable treeComments:Orange paint\n\t\t\n\t\n\t\n                                \n                            \n                        \n                    \n                        \n                            \n                                \n                                    \n                                        \n                                         Parcel Information\n                                \n                            \n                            \n                                \n                                    \n\t\tParcel Number:15 203 04 095 *Block:--Lot:--Subdivision:--",
        "tree_number": "1",
        "species": "Cherry Laurel"
      },
      "geometry": {
        "type": "Point",
        "coordinates": [
          -84.299106664211,
          33.751331618524
        ]
      }
    },
    {
      "type": "Feature",
      "properties": {
        "record": "BA-202603672",
        "address": "2855 CASCADE RD SW, ATLANTA GA 30311",
        "status": "Issued",
        "date": "08/03/2026",
        "description": "DDH",
        "owner": "James Barrett Lingenfelter",
        "tree_dbh": null,
        "tree_location": null,
        "reason_removal": null,
        "tree_description": null,
        "tree_number": null,
        "species": null
      },
      "geometry": {
        "type": "Point",
        "coordinates": [
          -84.481845096844,
          33.720171020775
        ]
      }
    }
  ]
}