{
  "type": "FeatureCollection",
  "features": [
    {
      "type": "Feature",
      "properties": {
        "record": "BA-202603813",
        "address": "2197 WILLOW AVE NE, ATLANTA GA 30305",
        "status": "ACA Pending",
        "date": "08/07/2026",
        "description": null,
        "owner": null,
        "tree_dbh": "29",
        "tree_location": "Right side of backyard",
        "reason_removal": "Dead tree",
        "tree_description": "DeadReason for Removal:Dead tree\n\t\t\n\t\n\t\n                                \n                            \n                        \n                    \n                        \n                            \n                                \n                                    \n                                        \n                                         Parcel Information\n                                \n                            \n                            \n                                \n                                    \n\t\tParcel Number:17 01020007038 *Block:--Lot:--Subdivision:--",
        "tree_number": "1",
        "species": "Pine"
      },
      "geometry": {
        "type": "Point",
        "coordinates": [
          -84.387148664501,
          33.815377210851
        ]
      }
    },
    {
      "type": "Feature",
      "properties": {
        "record": "BA-202603824",
        "address": "2199 BROWNING ST NE, ATLANTA GA 30317",
        "status": "ACA Pending",
        "date": "08/07/2026",
        "description": null,
        "owner": null,
        "tree_dbh": "36",
        "tree_location": "Backyard",
        "reason_removal": "Uncorrectable defect",
        "tree_description": null,
        "tree_number": "1",
        "species": "Water oak"
      },
      "geometry": {
        "type": "Point",
        "coordinates": [
          -84.315822916236,
          33.762460296427
        ]
      }
    },
    {
      "type": "Feature",
      "properties": {
        "record": "BA-202603825",
        "address": "325 EAST PACES FERRY RD NE, ATLANTA GA 30305",
        "status": "ACA Pending",
        "date": "08/07/2026",
        "description": null,
        "owner": null,
        "tree_dbh": null,
        "tree_location": null,
        "reason_removal": null,
        "tree_description": null,
        "tree_number": null,
        "species": null
      },
      "geometry": {
        "type": "Point",
        "coordinates": [
          -84.376523364386,
          33.839024061009
        ]
      }
    },
    {
      "type": "Feature",
      "properties": {
        "record": "BA-202603821",
        "address": "179 CLEVELAND ST SE, UNIT B, ATLANTA GA 30316",
        "status": "ACA Pending",
        "date": "08/07/2026",
        "description": null,
        "owner": null,
        "tree_dbh": null,
        "tree_location": null,
        "reason_removal": null,
        "tree_description": null,
        "tree_number": null,
        "species": null
      },
      "geometry": {
        "type": "Point",
        "coordinates": [
          -84.350416176119,
          33.749475108269
        ]
      }
    },
    {
      "type": "Feature",
      "properties": {
        "record": "BA-202603815",
        "address": "1941 LA DAWN LN NW, ATLANTA GA 30318",
        "status": "ACA Pending",
        "date": "08/07/2026",
        "description": null,
        "owner": null,
        "tree_dbh": null,
        "tree_location": null,
        "reason_removal": null,
        "tree_description": null,
        "tree_number": null,
        "species": null
      },
      "geometry": {
        "type": "Point",
        "coordinates": [
          -84.451506431078,
          33.81569792532
        ]
      }
    },
    {
      "type": "Feature",
      "properties": {
        "record": "BA-202603817",
        "address": "1179 MECASLIN ST NW, ATLANTA GA 30318",
        "status": "ACA Pending",
        "date": "08/07/2026",
        "description": null,
        "owner": null,
        "tree_dbh": null,
        "tree_location": null,
        "reason_removal": null,
        "tree_description": null,
        "tree_number": null,
        "species": null
      },
      "geometry": {
        "type": "Point",
        "coordinates": [
          -84.399739853677,
          33.787081944204
        ]
      }
    },
    {
      "type": "Feature",
      "properties": {
        "record": "BA-202603811",
        "address": "860 VIRGIL ST NE, ATLANTA GA 30307",
        "status": "ACA Pending",
        "date": "08/07/2026",
        "description": null,
        "owner": null,
        "tree_dbh": null,
        "tree_location": null,
        "reason_removal": null,
        "tree_description": null,
        "tree_number": null,
        "species": null
      },
      "geometry": {
        "type": "Point",
        "coordinates": [
          -84.360139253774,
          33.758716080544
        ]
      }
    },
    {
      "type": "Feature",
      "properties": {
        "record": "BA-202603812",
        "address": "556 OAKDALE RD NE, ATLANTA GA 30307",
        "status": "ACA Pending",
        "date": "08/07/2026",
        "description": null,
        "owner": null,
        "tree_dbh": null,
        "tree_location": null,
        "reason_removal": null,
        "tree_description": null,
        "tree_number": null,
        "species": null
      },
      "geometry": {
        "type": "Point",
        "coordinates": [
          -84.341715668091,
          33.7696432226
        ]
      }
    },
    {
      "type": "Feature",
      "properties": {
        "record": "BA-202603819",
        "address": "2234 SPINK ST NW, ATLANTA GA 30318",
        "status": "ACA Pending",
        "date": "08/07/2026",
        "description": null,
        "owner": null,
        "tree_dbh": null,
        "tree_location": null,
        "reason_removal": null,
        "tree_description": null,
        "tree_number": null,
        "species": null
      },
      "geometry": {
        "type": "Point",
        "coordinates": [
          -84.473309091194,
          33.81673281351
        ]
      }
    },
    {
      "type": "Feature",
      "properties": {
        "record": "26TMP-051793",
        "address": "448 ROCKWELL ST SW, ATLANTA GA 30310",
        "status": "",
        "date": "08/07/2026",
        "description": null,
        "owner": null,
        "tree_dbh": null,
        "tree_location": null,
        "reason_removal": null,
        "tree_description": null,
        "tree_number": null,
        "species": null
      },
      "geometry": {
        "type": "Point",
        "coordinates": [
          -84.402408603443,
          33.731875063716
        ]
      }
    },
    {
      "type": "Feature",
      "properties": {
        "record": "26TMP-051706",
        "address": "27 MADDOX DR NE, ATLANTA GA 30309",
        "status": "",
        "date": "08/07/2026",
        "description": null,
        "owner": null,
        "tree_dbh": null,
        "tree_location": null,
        "reason_removal": null,
        "tree_description": null,
        "tree_number": null,
        "species": null
      },
      "geometry": {
        "type": "Point",
        "coordinates": [
          -84.378091467731,
          33.795159986145
        ]
      }
    },
    {
      "type": "Feature",
      "properties": {
        "record": "BA-202603823",
        "address": "2785 MEMORIAL DR SE, ATLANTA GA 30317",
        "status": "ACA Pending",
        "date": "08/07/2026",
        "description": null,
        "owner": null,
        "tree_dbh": "51",
        "tree_location": "Front yard",
        "reason_removal": "Dying tree",
        "tree_description": "Tree Has history of large branch failures and the canopy is dying.Reason for Removal:Dying tree\n\t\t\n\t\n\t\n                                \n                            \n                        \n                    \n                        \n                            \n                                \n                                    \n                                        \n                                         Parcel Information\n                                \n                            \n                            \n                                \n                                    \n\t\tParcel Number:15 182 01 058 *Block:--Lot:--Subdivision:--",
        "tree_number": "1",
        "species": "Red Oak"
      },
      "geometry": {
        "type": "Point",
        "coordinates": [
          -84.295509019833,
          33.747044385946
        ]
      }
    },
    {
      "type": "Feature",
      "properties": {
        "record": "BA-202603814",
        "address": "2691 HEDGEWOOD DR NW, ATLANTA GA 30311",
        "status": "ACA Pending",
        "date": "08/07/2026",
        "description": null,
        "owner": "DOUGLAS CHARLES",
        "tree_dbh": "23",
        "tree_location": "front",
        "reason_removal": "Diseased",
        "tree_description": "Dead pine tree with intermit danger from falling on house or neighbor's home. Also has beetle holes.Reason for Removal:Dead tree\n\t\t\n\t\t\n\t\t\tTree number:2Species:Sweet GumTree Size (DBH):13Tree location:Back yardDescription of Tree:Dead Sweet Gum treeReason for Removal:Dead tree\n\t\t\n\t\t\n\t\t\tTree number:3Species:PineTree Size (DBH):23Tree location:Side of houseDescription of Tree:diseased at base of tree.Reason for Removal:Diseased\n\t\t\n\t\t\n\t\t\tTree number:4Species:PineTree Size (DBH):26Tree location:frontDescription of Tree:Diseased from the base of the tree with a lean.Reason for Removal:DiseasedComments:This tree is in interment danger of falling with a lean that may fall on house or utility lines.\n\t\t\n\t\n\t\n                                \n                            \n                        \n                    \n                        \n                            \n                                \n                                    \n                                        \n                                         Parcel Information\n                                \n                            \n                            \n                                \n                                    \n\t\tParcel Number:14 02060001018 *Block:--Lot:--Subdivision:--",
        "tree_number": "1",
        "species": "Pine"
      },
      "geometry": {
        "type": "Point",
        "coordinates": [
          -84.476116244822,
          33.75717500856
        ]
      }
    },
    {
      "type": "Feature",
      "properties": {
        "record": "BA-202603816",
        "address": "2022 WEST PACES FERRY RD NW, ATLANTA GA 30327",
        "status": "ACA Pending",
        "date": "08/07/2026",
        "description": null,
        "owner": "PACES END LLC",
        "tree_dbh": "22",
        "tree_location": "back right of house",
        "reason_removal": "Dying tree",
        "tree_description": "Canopy die-back in excess of 30% due to major cavity in the main trunk at 35 feet above ground level. Reason for Removal:Dying tree\n\t\t\n\t\n\t\n                                \n                            \n                        \n                    \n                        \n                            \n                                \n                                    \n                                        \n                                         Parcel Information\n                                \n                            \n                            \n                                \n                                    \n\t\tParcel Number:17 0240  LL016 *Block:--Lot:--Subdivision:--",
        "tree_number": "1",
        "species": "Water Oak"
      },
      "geometry": {
        "type": "Point",
        "coordinates": [
          -84.45426324721,
          33.847981785106
        ]
      }
    }
  ]
}