{
  "type": "FeatureCollection",
  "features": [
    {
      "type": "Feature",
      "properties": {
        "record": "BA-202604078",
        "address": "2769 MORNINGTON DR NW, ATLANTA GA 30327",
        "status": "ACA Pending",
        "date": "08/19/2026",
        "description": null,
        "owner": "Stuart Carrington",
        "tree_dbh": "26",
        "tree_location": "Rear",
        "reason_removal": "Significant cavity/area of decay",
        "tree_description": "Decay at baseReason for Removal:Significant cavity/area of decayComments:Orange dot\n\t\t\n\t\t\n\t\t\tTree number:2Species:Water OakTree Size (DBH):24Tree location:RearDescription of Tree:decay on trunk, lean over house, unbalanced canopyReason for Removal:Significant cavity/area of decayComments:Orange dot\n\t\t\n\t\n\t\n                                \n                            \n                        \n                    \n                        \n                            \n                                \n                                    \n                                        \n                                         Parcel Information\n                                \n                            \n                            \n                                \n                                    \n\t\tParcel Number:17 0156  LL057 *Block:--Lot:--Subdivision:--",
        "tree_number": "1",
        "species": "Hickory"
      },
      "geometry": {
        "type": "Point",
        "coordinates": [
          -84.41350405373,
          33.83325623504
        ]
      }
    },
    {
      "type": "Feature",
      "properties": {
        "record": "BA-202604092",
        "address": "1385 GRAHAM ST SW, ATLANTA GA 30310",
        "status": "ACA Pending",
        "date": "08/19/2026",
        "description": null,
        "owner": "JAMES AZALENE",
        "tree_dbh": "30",
        "tree_location": "Front Yard",
        "reason_removal": "Other",
        "tree_description": "Large tree with several branches reaching towards the street and neighbors' house and one attached limb lying on the house.Reason for Removal:OtherComments:Significant canopy failure. Broken Elm tree.\n\t\t\n\t\n\t\n                                \n                            \n                        \n                    \n                        \n                            \n                                \n                                    \n                                        \n                                         Parcel Information\n                                \n                            \n                            \n                                \n                                    \n\t\tParcel Number:14 01050007040 *Block:--Lot:--Subdivision:--",
        "tree_number": "1",
        "species": "Elm"
      },
      "geometry": {
        "type": "Point",
        "coordinates": [
          -84.416159785309,
          33.716754367162
        ]
      }
    },
    {
      "type": "Feature",
      "properties": {
        "record": "BA-202604088",
        "address": "2652 BROOKDALE DR NW, ATLANTA GA 30305",
        "status": "ACA Pending",
        "date": "08/19/2026",
        "description": null,
        "owner": "LIPMAN LESLIE J",
        "tree_dbh": "21",
        "tree_location": "behind small house on the right",
        "reason_removal": "Other",
        "tree_description": null,
        "tree_number": "1",
        "species": "hardwood"
      },
      "geometry": {
        "type": "Point",
        "coordinates": [
          -84.402661346539,
          33.826383376553
        ]
      }
    },
    {
      "type": "Feature",
      "properties": {
        "record": "BA-202604100",
        "address": "805 LORIDAN CIR NE, ATLANTA GA 00000",
        "status": "ACA Pending",
        "date": "08/19/2026",
        "description": null,
        "owner": "ZAGHA RAPHAEL",
        "tree_dbh": "29",
        "tree_location": "See site map",
        "reason_removal": "Uncorrectable defect",
        "tree_description": "Numbered flagging tape Reason for Removal:Uncorrectable defectComments:Tree possesses a low live crown ratio and is missing its natural top, resulting in loss of apical dominance. Following failure of\nthe original central leader, a replacement leader developed around the retained leader remnant, creating a contorted and\nstructurally weakened upper crown. A broken or failed replacement-leader segment appears to be resting across an adjacent\nscaffold branch.\n\t\t\n\t\t\n\t\t\tTree number:3Species:Japanese LigustrumTree Size (DBH):7Tree location:See site map Description of Tree:Numbered flagging tape Reason for Removal:Invasive/undesirable treeComments:Undesirable species.\n\t\t\n\t\t\n\t\t\tTree number:4Species:Japanese LigustrumTree Size (DBH):8Tree location:See site map Description of Tree:Numbered flagging tape Reason for Removal:Invasive/undesirable treeComments:Undesirable species.\n\t\t\n\t\t\n\t\t\tTree number:5Species:SourwoodTree Size (DBH):12Tree location:See site map Description of Tree:Numbered flagging tape Reason for Removal:Significant cavity/area of decayComments:Tree has a basal cavity with visible bark and wood loss. A separate cavity is present higher on the main stem and appears to\nserve as a wildlife nesting site, with visible wood loss surrounding the opening.\n\t\t\n\t\t\n\t\t\tTree number:6Species:SourwoodTree Size (DBH):12Tree location:See site map Description of Tree:Numbered flagging tape Reason for Removal:Dead treeComments:Tree appears dead.\n\t\t\n\t\t\n\t\t\tTree number:16Species:Sweetgum Tree Size (DBH):30Tree location:See site map Description of Tree:Numbered flagging tape 16AReason for Removal:Significant cavity/area of decayComments:Tree possesses a low live crown ratio, invasive growth, and crown dieback. An old codominant leader has failed, leaving a\ndead remnant with visible woodpecker activity. A crack with visible wood loss is present at the tree's base. Sounding of the\nlower trunk produced a response strongly indicative of advanced internal decay.\n\t\t\n\t\t\n\t\t\tTree number:18Species:Black Cherry Tree Size (DBH):14Tree location:See site map Description of Tree:Numbered flagging tape Reason for Removal:OtherComments:Tree possesses poor overall form and is extensively covered in invasive vines, limiting full visual assessment of the trunk and\ncrown. The distorted and twisting branch architecture is consistent with previous topping and/or multiple leader failures. An\nold limb-loss site appears to contain decay, with epicormic sprouting developing around the affected area. Canopy decline,\nbranch dieback, and deadwood are present throughout the crown.\n\t\t\n\t\t\n\t\t\tTree number:19Species:Chinese Privet Tree Size (DBH):12Tree location:See site map Description of Tree:Numbered flagging tape Reason for Removal:Invasive/undesirable treeComments:Invasive, undesirable species.\n\t\t\n\t\t\n\t\t\tTree number:22Species: Red Tip PhotiniaTree Size (DBH):9Tree location:See site map Description of Tree:Numbered flagging tape Reason for Removal:Invasive/undesirable treeComments:Invasive, undesirable species.\n\t\t\n\t\t\n\t\t\tTree number:23Species:Boxelder Tree Size (DBH):8Tree location:See site map Description of Tree:Numbered flagging tape Reason for Removal:Significant cavity/area of decayComments:Cavity with visible wood loss and active oozing is present at an old pruning or branch-breakout site. Tree possesses a\npronounced dogleg form, poor overall structure, and minimal viable canopy. No available pruning recommendation would\nremediate the tree's form or restore a viable canopy.\n\t\t\n\t\t\n\t\t\tTree number:25Species:Pine Tree Size (DBH):18Tree location:See site map Description of Tree:Numbered flagging tape Reason for Removal:Significant cavity/area of decayComments:Tree has a visible basal cavity with decay.\n\t\t\n\t\t\n\t\t\tTree number:30Species:OakTree Size (DBH):28Tree location:See site map Description of Tree:Numbered flagging tape Reason for Removal:Uncorrectable defectComments:Tree appears to be actively failing, with visible lifting and displacement of the structural root plate. Tree possesses an\napproximately 25-degree lean toward the neighboring dwelling\n\t\t\n\t\n\t\n                                \n                            \n                        \n                    \n                        \n                            \n                                \n                                    \n                                        \n                                         Parcel Information\n                                \n                            \n                            \n                                \n                                    \n\t\tParcel Number:17 00420002024 *Block:--Lot:--Subdivision:--",
        "tree_number": "2",
        "species": "Pine"
      },
      "geometry": {
        "type": "Point",
        "coordinates": [
          -84.360106656614,
          33.872310478904
        ]
      }
    },
    {
      "type": "Feature",
      "properties": {
        "record": "26TMP-054570",
        "address": "1560 NEW ST NE, ATLANTA GA 30307",
        "status": "",
        "date": "08/19/2026",
        "description": null,
        "owner": null,
        "tree_dbh": null,
        "tree_location": null,
        "reason_removal": null,
        "tree_description": null,
        "tree_number": null,
        "species": null
      },
      "geometry": {
        "type": "Point",
        "coordinates": [
          -84.336141737203,
          33.759317300859
        ]
      }
    },
    {
      "type": "Feature",
      "properties": {
        "record": "BA-202604087",
        "address": "1180 UNIVERSITY DR NE, ATLANTA GA 30306",
        "status": "ACA Pending",
        "date": "08/19/2026",
        "description": null,
        "owner": null,
        "tree_dbh": null,
        "tree_location": null,
        "reason_removal": null,
        "tree_description": null,
        "tree_number": null,
        "species": null
      },
      "geometry": {
        "type": "Point",
        "coordinates": [
          -84.349123916512,
          33.791162192724
        ]
      }
    },
    {
      "type": "Feature",
      "properties": {
        "record": "BA-202604082",
        "address": "1357 SUMMER LANE DR, ATLANTA GA 30316",
        "status": "ACA Pending",
        "date": "08/19/2026",
        "description": null,
        "owner": "SUMMER CREEK PARK HOMEOWNERS ASSOCIATION",
        "tree_dbh": "26",
        "tree_location": "Behind neighborhood entrance wall, on the south edge of driveway of 1387 Summer Lane Dr",
        "reason_removal": "Dying tree",
        "tree_description": "Co-dominant double trunk 22\" / 26\". Reason for Removal:Dying treeComments:Note: while very close by, this tree is NOT located on the property of 1387 Summer Lane Dr. It is located on the Summer Creek Park Homeowner's Association property, parcel 14 0009 LL1043.\n\t\t\n\t\n\t\n                                \n                            \n                        \n                    \n                        \n                            \n                                \n                                    \n                                        \n                                         Parcel Information\n                                \n                            \n                            \n                                \n                                    \n\t\tParcel Number:14 0009  LL104 *Block:--Lot:--Subdivision:--",
        "tree_number": "1",
        "species": "Water oak"
      },
      "geometry": {
        "type": "Point",
        "coordinates": [
          -84.351695061847,
          33.715975302181
        ]
      }
    },
    {
      "type": "Feature",
      "properties": {
        "record": "BA-202604095",
        "address": "2530 HOSEA L WILLIAMS DR NE, ATLANTA GA 30317",
        "status": "ACA Pending",
        "date": "08/19/2026",
        "description": null,
        "owner": "Brenton Strine",
        "tree_dbh": "44",
        "tree_location": "Backyard",
        "reason_removal": "Significant cavity/area of decay",
        "tree_description": "Large tree leaning over house near back parking padReason for Removal:Significant cavity/area of decayComments:Tree had an active/vigorous termite infestation in 2025, treated with termite bait stations.",
        "tree_number": "1",
        "species": "Red Oak"
      },
      "geometry": {
        "type": "Point",
        "coordinates": [
          -84.304300274398,
          33.751082401435
        ]
      }
    },
    {
      "type": "Feature",
      "properties": {
        "record": "26TMP-054654",
        "address": "3549 CREIGHTON RD SW, ATLANTA GA 30331",
        "status": "",
        "date": "08/19/2026",
        "description": null,
        "owner": null,
        "tree_dbh": null,
        "tree_location": null,
        "reason_removal": null,
        "tree_description": null,
        "tree_number": null,
        "species": null
      },
      "geometry": {
        "type": "Point",
        "coordinates": [
          -84.505029172028,
          33.700037495133
        ]
      }
    },
    {
      "type": "Feature",
      "properties": {
        "record": "BA-202604072",
        "address": "1962 GRANDVIEW AVE NW, ATLANTA GA 30318",
        "status": "ACA Pending",
        "date": "08/19/2026",
        "description": null,
        "owner": "Keith Neas",
        "tree_dbh": "15",
        "tree_location": "Right side of driveway",
        "reason_removal": "Uncorrectable defect",
        "tree_description": "Low LCR, 40% canopy is deadReason for Removal:Dying treeComments:Orange paint\n\t\t\n\t\t\n\t\t\tTree number:2Species:HollyTree Size (DBH):17Tree location:Right side of drivewayDescription of Tree:Low LCR. Too close to driveway to prune for clearance without removing",
        "tree_number": "1",
        "species": "Red Oak"
      },
      "geometry": {
        "type": "Point",
        "coordinates": [
          -84.473000389402,
          33.808982753427
        ]
      }
    },
    {
      "type": "Feature",
      "properties": {
        "record": "BA-202604086",
        "address": "543 SEMINOLE AVE NE, ATLANTA GA 30307",
        "status": "ACA Pending",
        "date": "08/19/2026",
        "description": null,
        "owner": null,
        "tree_dbh": null,
        "tree_location": null,
        "reason_removal": null,
        "tree_description": null,
        "tree_number": null,
        "species": null
      },
      "geometry": {
        "type": "Point",
        "coordinates": [
          -84.350673481812,
          33.769003360002
        ]
      }
    },
    {
      "type": "Feature",
      "properties": {
        "record": "BA-202604085",
        "address": "973 BLUE RIDGE AVE NE, ATLANTA GA 30306",
        "status": "ACA Pending",
        "date": "08/19/2026",
        "description": null,
        "owner": "Hugh Daniel Phillips",
        "tree_dbh": "34",
        "tree_location": "Backyard",
        "reason_removal": "Dead tree",
        "tree_description": "Dead dogwood in backyard hanging over walkway. Also some kind of invasive insect burrowing into base. Reason for Removal:Dead tree\n\t\t\n\t\n\t\n                                \n                            \n                        \n                    \n                        \n                            \n                                \n                                    \n                                        \n                                         Parcel Information\n                                \n                            \n                            \n                                \n                                    \n\t\tParcel Number:14 00160011049 *Block:--Lot:--Subdivision:--",
        "tree_number": "1",
        "species": "Dogwood"
      },
      "geometry": {
        "type": "Point",
        "coordinates": [
          -84.355086647146,
          33.77238571877
        ]
      }
    },
    {
      "type": "Feature",
      "properties": {
        "record": "26TMP-054418",
        "address": "3833 LAKE FORREST DR NE, ATLANTA GA 30342",
        "status": "",
        "date": "08/19/2026",
        "description": null,
        "owner": null,
        "tree_dbh": null,
        "tree_location": null,
        "reason_removal": null,
        "tree_description": null,
        "tree_number": null,
        "species": null
      },
      "geometry": {
        "type": "Point",
        "coordinates": [
          -84.386676855751,
          33.859824312585
        ]
      }
    },
    {
      "type": "Feature",
      "properties": {
        "record": "BA-202604102",
        "address": "35 ATLANTA AVE SE, ATLANTA GA 30315",
        "status": "ACA Pending",
        "date": "08/19/2026",
        "description": null,
        "owner": "Shameeka Pellum",
        "tree_dbh": "5",
        "tree_location": "backyard",
        "reason_removal": "Dying tree",
        "tree_description": null,
        "tree_number": "1",
        "species": "ash"
      },
      "geometry": {
        "type": "Point",
        "coordinates": [
          -84.38667142667,
          33.730336518825
        ]
      }
    },
    {
      "type": "Feature",
      "properties": {
        "record": "26TMP-054503",
        "address": "1001 CARTER DR NE, ATLANTA GA 30319",
        "status": "",
        "date": "08/19/2026",
        "description": null,
        "owner": null,
        "tree_dbh": null,
        "tree_location": null,
        "reason_removal": null,
        "tree_description": null,
        "tree_number": null,
        "species": null
      },
      "geometry": {
        "type": "Point",
        "coordinates": [
          -84.353825199051,
          33.876877721043
        ]
      }
    },
    {
      "type": "Feature",
      "properties": {
        "record": "BA-202604099",
        "address": "797 SKIPPER DR NW, ATLANTA GA 30318",
        "status": "ACA Pending",
        "date": "08/19/2026",
        "description": null,
        "owner": null,
        "tree_dbh": "28",
        "tree_location": "Back Yard",
        "reason_removal": "Dead tree",
        "tree_description": null,
        "tree_number": "1",
        "species": "Pine"
      },
      "geometry": {
        "type": "Point",
        "coordinates": [
          -84.490194301272,
          33.776927183678
        ]
      }
    },
    {
      "type": "Feature",
      "properties": {
        "record": "BA-202604090",
        "address": "1975 BAKER RD NW, ATLANTA GA 30318",
        "status": "ACA Pending",
        "date": "08/19/2026",
        "description": null,
        "owner": null,
        "tree_dbh": "40",
        "tree_location": "located behind the house",
        "reason_removal": "Diseased",
        "tree_description": "Tree has been dropping several large dead limbs. Visible decay on the lower part of the trunk.",
        "tree_number": "1",
        "species": "sugar maple"
      },
      "geometry": {
        "type": "Point",
        "coordinates": [
          -84.451709976794,
          33.770396596507
        ]
      }
    },
    {
      "type": "Feature",
      "properties": {
        "record": "BA-202604084",
        "address": "379 9TH ST NE, ATLANTA GA 30309",
        "status": "ACA Pending",
        "date": "08/19/2026",
        "description": null,
        "owner": "Kyle Zeman",
        "tree_dbh": "30",
        "tree_location": "Front yard",
        "reason_removal": "Dead tree",
        "tree_description": "DeadReason for Removal:Dead tree\n\t\t\n\t\n\t\n                                \n                            \n                        \n                    \n                        \n                            \n                                \n                                    \n                                        \n                                         Parcel Information\n                                \n                            \n                            \n                                \n                                    \n\t\tParcel Number:17 00540004058 *Block:--Lot:--Subdivision:--",
        "tree_number": "1",
        "species": "Maple"
      },
      "geometry": {
        "type": "Point",
        "coordinates": [
          -84.3748372434,
          33.780502202115
        ]
      }
    },
    {
      "type": "Feature",
      "properties": {
        "record": "BA-202604101",
        "address": "2622 BIRCHWOOD DR NE, ATLANTA GA 30305",
        "status": "ACA Pending",
        "date": "08/19/2026",
        "description": null,
        "owner": "Gloria Pacheco",
        "tree_dbh": "50",
        "tree_location": "in between property line infront the garage.",
        "reason_removal": "Uncorrectable defect",
        "tree_description": null,
        "tree_number": "1",
        "species": "Oak"
      },
      "geometry": {
        "type": "Point",
        "coordinates": [
          -84.374631178384,
          33.826230827401
        ]
      }
    },
    {
      "type": "Feature",
      "properties": {
        "record": "BA-202604098",
        "address": "1612 TALLULAH ST NW, ATLANTA GA 30318",
        "status": "ACA Pending",
        "date": "08/19/2026",
        "description": null,
        "owner": "MC DONOUGH ALICE W",
        "tree_dbh": "24",
        "tree_location": "Right side of house",
        "reason_removal": "Dying tree",
        "tree_description": "Dieback in canopyReason for Removal:Dying tree\n\t\t\n\t\t\n\t\t\tTree number:2Species:SweetgumTree Size (DBH):19Tree location:Right side of houseDescription of Tree:Dieback in canopyReason for Removal:Dying tree\n\t\t\n\t\n\t\n                                \n                            \n                        \n                    \n                        \n                            \n                                \n                                    \n                                        \n                                         Parcel Information\n                                \n                            \n                            \n                                \n                                    \n\t\tParcel Number:17 01520006017 *Block:--Lot:--Subdivision:--",
        "tree_number": "1",
        "species": "Sweetgum"
      },
      "geometry": {
        "type": "Point",
        "coordinates": [
          -84.411383883525,
          33.799076829547
        ]
      }
    },
    {
      "type": "Feature",
      "properties": {
        "record": "BA-202604079",
        "address": "2769 MORNINGTON DR NW, ATLANTA GA 30327",
        "status": "ACA Pending",
        "date": "08/19/2026",
        "description": null,
        "owner": "Stuart Carrington",
        "tree_dbh": "26",
        "tree_location": "Rear",
        "reason_removal": "Significant cavity/area of decay",
        "tree_description": "decay at the base",
        "tree_number": "1",
        "species": "Hickory"
      },
      "geometry": {
        "type": "Point",
        "coordinates": [
          -84.41350405373,
          33.83325623504
        ]
      }
    },
    {
      "type": "Feature",
      "properties": {
        "record": "BA-202604097",
        "address": "1504 MILL ACRES DR SW, ATLANTA GA 30311",
        "status": "ACA Pending",
        "date": "08/19/2026",
        "description": null,
        "owner": "THOMAS ANNIE R",
        "tree_dbh": "26",
        "tree_location": "Backyard",
        "reason_removal": "Dead tree",
        "tree_description": "DeadReason for Removal:Dead tree\n\t\t\n\t\t\n\t\t\tTree number:2Species:PineTree Size (DBH):28Tree location:Backyard Description of Tree:DeadReason for Removal:Dead tree\n\t\t\n\t\n\t\n                                \n                            \n                        \n                    \n                        \n                            \n                                \n                                    \n                                        \n                                         Parcel Information\n                                \n                            \n                            \n                                \n                                    \n\t\tParcel Number:14 02000002022 *Block:--Lot:--Subdivision:--",
        "tree_number": "1",
        "species": "Pine"
      },
      "geometry": {
        "type": "Point",
        "coordinates": [
          -84.471003371155,
          33.714585123923
        ]
      }
    },
    {
      "type": "Feature",
      "properties": {
        "record": "BA-202604094",
        "address": "153 17TH ST NE, ATLANTA GA 30309",
        "status": "ACA Pending",
        "date": "08/19/2026",
        "description": null,
        "owner": "WHITE EFROSINI M",
        "tree_dbh": "10",
        "tree_location": "front yard, NE corner",
        "reason_removal": "Other",
        "tree_description": "evergreen, approximately 18' highReason for Removal:OtherComments:Tree roots are pushing against retaining wall which is cracking.\n\t\t\n\t\n\t\n                                \n                            \n                        \n                    \n                        \n                            \n                                \n                                    \n                                        \n                                         Parcel Information\n                                \n                            \n                            \n                                \n                                    \n\t\tParcel Number:17 01050007012 *Block:--Lot:--Subdivision:--",
        "tree_number": "1",
        "species": "cherry laurel"
      },
      "geometry": {
        "type": "Point",
        "coordinates": [
          -84.381120396231,
          33.793038794973
        ]
      }
    },
    {
      "type": "Feature",
      "properties": {
        "record": "BA-202604091",
        "address": "196 MONTGOMERY FERRY DR NE, ATLANTA GA 30309",
        "status": "ACA Pending",
        "date": "08/19/2026",
        "description": null,
        "owner": "ANSLEY GOLF CLUB",
        "tree_dbh": "18",
        "tree_location": "Near lower parking lot",
        "reason_removal": "Dead tree",
        "tree_description": "(compromised) dead treeReason for Removal:Dead tree\n\t\t\n\t\n\t\n                                \n                            \n                        \n                    \n                        \n                            \n                                \n                                    \n                                        \n                                         Parcel Information\n                                \n                            \n                            \n                                \n                                    \n\t\tParcel Number:17 0056  LL001 *Block:--Lot:--Subdivision:--",
        "tree_number": "1",
        "species": "pine"
      },
      "geometry": {
        "type": "Point",
        "coordinates": [
          -84.375375249922,
          33.800294415488
        ]
      }
    },
    {
      "type": "Feature",
      "properties": {
        "record": "BA-202604093",
        "address": "1713 INVERNESS AVE NE, ATLANTA GA 30306",
        "status": "ACA Pending",
        "date": "08/19/2026",
        "description": null,
        "owner": "JORDAK JOHN A JR OR JORDAK NANCY Y",
        "tree_dbh": "29",
        "tree_location": "back right",
        "reason_removal": "Dying tree",
        "tree_description": "heavy lean towards homeReason for Removal:Dying tree\n\t\t\n\t\n\t\n                                \n                            \n                        \n                    \n                        \n                            \n                                \n                                    \n                                        \n                                         Parcel Information\n                                \n                            \n                            \n                                \n                                    \n\t\tParcel Number:18 056 04 033 *Block:--Lot:--Subdivision:--",
        "tree_number": "1",
        "species": "pine"
      },
      "geometry": {
        "type": "Point",
        "coordinates": [
          -84.346311878143,
          33.801619338691
        ]
      }
    },
    {
      "type": "Feature",
      "properties": {
        "record": "BA-202604089",
        "address": "931 GRESHAM AVE SE, ATLANTA GA 30316",
        "status": "ACA Pending",
        "date": "08/19/2026",
        "description": null,
        "owner": null,
        "tree_dbh": "13",
        "tree_location": "tree located on the left side of the backyard.",
        "reason_removal": "Uncorrectable defect",
        "tree_description": "tree is on the other side of the creek. The creek is causing erosion and exposing the roots, leaving the tree vulnerable to failure. It is leaning in the direction of the house.",
        "tree_number": "1",
        "species": "pine"
      },
      "geometry": {
        "type": "Point",
        "coordinates": [
          -84.345981469243,
          33.728123583449
        ]
      }
    },
    {
      "type": "Feature",
      "properties": {
        "record": "26TMP-054608",
        "address": "366 PEACHTREE AVE NE, ATLANTA GA 30305",
        "status": "",
        "date": "08/19/2026",
        "description": null,
        "owner": null,
        "tree_dbh": null,
        "tree_location": null,
        "reason_removal": null,
        "tree_description": null,
        "tree_number": null,
        "species": null
      },
      "geometry": {
        "type": "Point",
        "coordinates": [
          -84.375617956455,
          33.835029415301
        ]
      }
    },
    {
      "type": "Feature",
      "properties": {
        "record": "BA-202604083",
        "address": "4770 GUILFORD FOREST DR SW, ATLANTA GA 30331",
        "status": "ACA Pending",
        "date": "08/19/2026",
        "description": null,
        "owner": "Debbie Inniss",
        "tree_dbh": "19",
        "tree_location": "beside sidewalk in between clubhouse and tennis court",
        "reason_removal": "Dying tree",
        "tree_description": "Significant decay at baseReason for Removal:Significant cavity/area of decayComments:Ribbon\n\t\t\n\t\t\n\t\t\tTree number:2Species:HickoryTree Size (DBH):15Tree location:Grove of trees behind clubhouseDescription of Tree:mushrooms/decay at baseReason for Removal:Significant cavity/area of decayComments:Ribbon\n\t\t\n\t\t\n\t\t\tTree number:3Species:White OakTree Size (DBH):21Tree location:left side dumpster beside clubhouse parking gateDescription of Tree:Decay at baseReason for Removal:Significant cavity/area of decayComments:Ribbon\n\t\t\n\t\t\n\t\t\tTree number:4Species:DogwoodTree Size (DBH):10Tree location:beside sidewalk in between clubhouse and tennis courtDescription of Tree:dieback/decline exceeding 1/3 total canopyReason for Removal:Dying treeComments:Ribbon\n\t\t\n\t\n\t\n                                \n                            \n                        \n                    \n                        \n                            \n                                \n                                    \n                                        \n                                         Parcel Information\n                                \n                            \n                            \n                                \n                                    \n\t\tParcel Number:14F080  LL009 *Block:--Lot:--Subdivision:--",
        "tree_number": "1",
        "species": "Hickory"
      },
      "geometry": {
        "type": "Point",
        "coordinates": [
          -84.546417122883,
          33.7257998631
        ]
      }
    }
  ]
}