{
  "type": "FeatureCollection",
  "features": [
    {
      "type": "Feature",
      "properties": {
        "record": "BA-202605079",
        "address": "308 BASS ST SE, ATLANTA GA 30315",
        "status": "Accepted",
        "date": "09/30/2026",
        "description": null,
        "owner": "JACKSON INEZ",
        "tree_dbh": "40",
        "tree_location": "Back yard",
        "reason_removal": "Dying tree",
        "tree_description": "Dying oak tree in back yard, right off porch, looming over the house",
        "tree_number": "1",
        "species": "Oak",
        "comments": null,
        "tree_count": 1,
        "trees": [
          {
            "tree_number": "1",
            "species": "Oak",
            "tree_dbh": "40",
            "tree_location": "Back yard",
            "tree_description": "Dying oak tree in back yard, right off porch, looming over the house",
            "reason_removal": "Dying tree",
            "comments": null
          }
        ]
      },
      "geometry": {
        "type": "Point",
        "coordinates": [
          -84.37768426256,
          33.73480937214
        ]
      }
    },
    {
      "type": "Feature",
      "properties": {
        "record": "BA-202605077",
        "address": "3757 VERMONT RD NE, ATLANTA GA 30319",
        "status": "Accepted",
        "date": "09/30/2026",
        "description": null,
        "owner": null,
        "tree_dbh": null,
        "tree_location": null,
        "reason_removal": null,
        "tree_description": null,
        "tree_number": null,
        "species": null,
        "comments": null,
        "tree_count": null,
        "trees": null
      },
      "geometry": {
        "type": "Point",
        "coordinates": [
          -84.353071655814,
          33.856824822891
        ]
      }
    },
    {
      "type": "Feature",
      "properties": {
        "record": "BA-202605080",
        "address": "2200 PEACHTREE RD NW, ATLANTA GA 30309",
        "status": "Accepted",
        "date": "09/30/2026",
        "description": null,
        "owner": null,
        "tree_dbh": null,
        "tree_location": null,
        "reason_removal": null,
        "tree_description": null,
        "tree_number": null,
        "species": null,
        "comments": null,
        "tree_count": null,
        "trees": null
      },
      "geometry": {
        "type": "Point",
        "coordinates": [
          -84.391894290529,
          33.814833949133
        ]
      }
    },
    {
      "type": "Feature",
      "properties": {
        "record": "BA-202605069",
        "address": "1629 HOSEA L WILLIAMS DR SE, ATLANTA GA 30317",
        "status": "Accepted",
        "date": "09/30/2026",
        "description": null,
        "owner": null,
        "tree_dbh": null,
        "tree_location": null,
        "reason_removal": null,
        "tree_description": null,
        "tree_number": null,
        "species": null,
        "comments": null,
        "tree_count": null,
        "trees": null
      },
      "geometry": {
        "type": "Point",
        "coordinates": [
          -84.33370177604,
          33.753316513867
        ]
      }
    },
    {
      "type": "Feature",
      "properties": {
        "record": "BA-202605073",
        "address": "1620 NORTH PELHAM RD NE, ATLANTA GA 30324",
        "status": "Accepted",
        "date": "09/30/2026",
        "description": null,
        "owner": null,
        "tree_dbh": null,
        "tree_location": null,
        "reason_removal": null,
        "tree_description": null,
        "tree_number": null,
        "species": null,
        "comments": null,
        "tree_count": null,
        "trees": null
      },
      "geometry": {
        "type": "Point",
        "coordinates": [
          -84.359252972604,
          33.798805697227
        ]
      }
    },
    {
      "type": "Feature",
      "properties": {
        "record": "26TMP-064561",
        "address": "393 DEERING RD NW, ATLANTA GA 30309",
        "status": "",
        "date": "09/30/2026",
        "description": null,
        "owner": null,
        "tree_dbh": null,
        "tree_location": null,
        "reason_removal": null,
        "tree_description": null,
        "tree_number": null,
        "species": null,
        "comments": null,
        "tree_count": null,
        "trees": null
      },
      "geometry": {
        "type": "Point",
        "coordinates": [
          -84.400876673237,
          33.796242307023
        ]
      }
    },
    {
      "type": "Feature",
      "properties": {
        "record": "BA-202605075",
        "address": "438 JAMES P BRAWLEY DR NW, ATLANTA GA 30318",
        "status": "Accepted",
        "date": "09/30/2026",
        "description": null,
        "owner": null,
        "tree_dbh": null,
        "tree_location": null,
        "reason_removal": null,
        "tree_description": null,
        "tree_number": null,
        "species": null,
        "comments": null,
        "tree_count": null,
        "trees": null
      },
      "geometry": {
        "type": "Point",
        "coordinates": [
          -84.412653950754,
          33.766545265492
        ]
      }
    },
    {
      "type": "Feature",
      "properties": {
        "record": "26TMP-064615",
        "address": "21 NORTH EUGENIA PL NW, ATLANTA GA 30318",
        "status": "",
        "date": "09/30/2026",
        "description": null,
        "owner": null,
        "tree_dbh": null,
        "tree_location": null,
        "reason_removal": null,
        "tree_description": null,
        "tree_number": null,
        "species": null,
        "comments": null,
        "tree_count": null,
        "trees": null
      },
      "geometry": {
        "type": "Point",
        "coordinates": [
          -84.454122664748,
          33.776103723925
        ]
      }
    },
    {
      "type": "Feature",
      "properties": {
        "record": "BA-202605084",
        "address": "1660 ADAMS DR SW, ATLANTA GA 30311",
        "status": "ACA Pending",
        "date": "09/30/2026",
        "description": null,
        "owner": null,
        "tree_dbh": null,
        "tree_location": null,
        "reason_removal": null,
        "tree_description": null,
        "tree_number": null,
        "species": null,
        "comments": null,
        "tree_count": null,
        "trees": null
      },
      "geometry": {
        "type": "Point",
        "coordinates": [
          -84.486948789806,
          33.709929810955
        ]
      }
    },
    {
      "type": "Feature",
      "properties": {
        "record": "BA-202605078",
        "address": "41 SCREVEN AVE NE, ATLANTA GA 30307",
        "status": "Issued",
        "date": "09/30/2026",
        "description": null,
        "owner": null,
        "tree_dbh": null,
        "tree_location": null,
        "reason_removal": null,
        "tree_description": null,
        "tree_number": null,
        "species": null,
        "comments": null,
        "tree_count": null,
        "trees": null
      },
      "geometry": {
        "type": "Point",
        "coordinates": [
          -84.348004424455,
          33.754440659859
        ]
      }
    },
    {
      "type": "Feature",
      "properties": {
        "record": "BA-202605076",
        "address": "2124 RIDGEDALE RD NE, ATLANTA GA 30317",
        "status": "Accepted",
        "date": "09/30/2026",
        "description": null,
        "owner": null,
        "tree_dbh": null,
        "tree_location": null,
        "reason_removal": null,
        "tree_description": null,
        "tree_number": null,
        "species": null,
        "comments": null,
        "tree_count": null,
        "trees": null
      },
      "geometry": {
        "type": "Point",
        "coordinates": [
          -84.317909899173,
          33.753263857856
        ]
      }
    },
    {
      "type": "Feature",
      "properties": {
        "record": "BA-202605074",
        "address": "2836 OLDKNOW DR NW, ATLANTA GA 30318",
        "status": "Accepted",
        "date": "09/30/2026",
        "description": null,
        "owner": null,
        "tree_dbh": null,
        "tree_location": null,
        "reason_removal": null,
        "tree_description": null,
        "tree_number": null,
        "species": null,
        "comments": null,
        "tree_count": null,
        "trees": null
      },
      "geometry": {
        "type": "Point",
        "coordinates": [
          -84.481144183768,
          33.771743268564
        ]
      }
    },
    {
      "type": "Feature",
      "properties": {
        "record": "BA-202605081",
        "address": "3037 EAST PINE VALLEY RD NW, ATLANTA GA 30305",
        "status": "Accepted",
        "date": "09/30/2026",
        "description": null,
        "owner": null,
        "tree_dbh": null,
        "tree_location": null,
        "reason_removal": null,
        "tree_description": null,
        "tree_number": null,
        "species": null,
        "comments": null,
        "tree_count": null,
        "trees": null
      },
      "geometry": {
        "type": "Point",
        "coordinates": [
          -84.399513379873,
          33.838256076583
        ]
      }
    },
    {
      "type": "Feature",
      "properties": {
        "record": "BA-202605067",
        "address": "979 LANIER BLVD NE, ATLANTA GA 30306",
        "status": "Accepted",
        "date": "09/30/2026",
        "description": null,
        "owner": null,
        "tree_dbh": null,
        "tree_location": null,
        "reason_removal": null,
        "tree_description": null,
        "tree_number": null,
        "species": null,
        "comments": null,
        "tree_count": null,
        "trees": null
      },
      "geometry": {
        "type": "Point",
        "coordinates": [
          -84.352840411211,
          33.781971417686
        ]
      }
    },
    {
      "type": "Feature",
      "properties": {
        "record": "BA-202605072",
        "address": "1820 GARRAUX RD NW, ATLANTA GA 30327",
        "status": "Accepted",
        "date": "09/30/2026",
        "description": null,
        "owner": null,
        "tree_dbh": null,
        "tree_location": null,
        "reason_removal": null,
        "tree_description": null,
        "tree_number": null,
        "species": null,
        "comments": null,
        "tree_count": null,
        "trees": null
      },
      "geometry": {
        "type": "Point",
        "coordinates": [
          -84.447952148646,
          33.853843418226
        ]
      }
    }
  ]
}