{
  "type": "FeatureCollection",
  "features": [
    {
      "type": "Feature",
      "properties": {
        "record": "BA-202604121",
        "address": "3833 LAKE FORREST DR NE, ATLANTA GA 30342",
        "status": "ACA Pending",
        "date": "08/20/2026",
        "description": null,
        "owner": null,
        "tree_dbh": "32",
        "tree_location": "front center",
        "reason_removal": "Significant cavity/area of decay",
        "tree_description": "32\" DBH tulip poplar at front center. Significant open cavity and advanced decay associated with a prior large limb failure in the upper portion of the tree. The wound has resulted in substantial loss of structural wood, with decay extending into the remaining main stem at a major load-bearing portion of the canopy.Reason for Removal:Significant cavity/area of decay\n\t\t\n\t\t\n\t\t\tTree number:2Species:white oakTree Size (DBH):34Tree location:front centerDescription of Tree:34\" diameter white oak tree at front center of property observed with greater than 33% canopy decline.Reason for Removal:Dying tree\n\t\t\n\t\t\n\t\t\tTree number:3Species:tulip poplarTree Size (DBH):44Tree location:right sideDescription of Tree:Significant cavity/area of decay at bifurcation on main stem. See attached level 3 risk assessment.Reason for Removal:Significant cavity/area of decay\n\t\t\n\t\t\n\t\t\tTree number:4Species:tulip poplarTree Size (DBH):27Tree location:back centerDescription of Tree:27-inch DBH tulip poplar with significant decay and loss of sound wood at a major stem bifurcation. An open cavity with visibly deteriorated wood is present at the union, with decay extending from the bifurcation into the main stem.Reason for Removal:Significant cavity/area of decay\n\t\t\n\t\n\t\n                                \n                            \n                        \n                    \n                        \n                            \n                                \n                                    \n                                        \n                                         Parcel Information\n                                \n                            \n                            \n                                \n                                    \n\t\tParcel Number:17 00970002066 *Block:--Lot:--Subdivision:--",
        "tree_number": "1",
        "species": "tulip poplar"
      },
      "geometry": {
        "type": "Point",
        "coordinates": [
          -84.386676855751,
          33.859824312585
        ]
      }
    },
    {
      "type": "Feature",
      "properties": {
        "record": "BA-202604120",
        "address": "353 HENRY AARON AVE SW, ATLANTA GA",
        "status": "ACA Pending",
        "date": "08/20/2026",
        "description": null,
        "owner": "JACKSON GAIL L",
        "tree_dbh": "101010",
        "tree_location": "Backyard",
        "reason_removal": "Invasive/undesirable tree",
        "tree_description": "Grown from severe flooding caused by poor city drainageReason for Removal:Invasive/undesirable tree\n\t\t\n\t\n\t\n                                \n                            \n                        \n                    \n                        \n                            \n                                \n                                    \n                                        \n                                         Parcel Information\n                                \n                            \n                            \n                                \n                                    \n\t\tParcel Number:14 01810005007 *Block:--Lot:--Subdivision:--",
        "tree_number": "5",
        "species": "Unknown"
      },
      "geometry": {
        "type": "Point",
        "coordinates": [
          -84.457321699867,
          33.746126380807
        ]
      }
    },
    {
      "type": "Feature",
      "properties": {
        "record": "BA-202604122",
        "address": "1025 CORONADO DR NW, ATLANTA GA 30327",
        "status": "ACA Pending",
        "date": "08/20/2026",
        "description": null,
        "owner": null,
        "tree_dbh": null,
        "tree_location": null,
        "reason_removal": null,
        "tree_description": null,
        "tree_number": null,
        "species": null
      },
      "geometry": {
        "type": "Point",
        "coordinates": [
          -84.420424160678,
          33.873863258917
        ]
      }
    },
    {
      "type": "Feature",
      "properties": {
        "record": "BA-202604103",
        "address": "820 WILSON RD NW, ATLANTA GA 30318",
        "status": "Accepted",
        "date": "08/20/2026",
        "description": null,
        "owner": null,
        "tree_dbh": null,
        "tree_location": null,
        "reason_removal": null,
        "tree_description": null,
        "tree_number": null,
        "species": null
      },
      "geometry": {
        "type": "Point",
        "coordinates": [
          -84.414312771632,
          33.815753139798
        ]
      }
    },
    {
      "type": "Feature",
      "properties": {
        "record": "BA-202604104",
        "address": "3573 STONE RD SW, ATLANTA GA 30331",
        "status": "Accepted",
        "date": "08/20/2026",
        "description": null,
        "owner": null,
        "tree_dbh": null,
        "tree_location": null,
        "reason_removal": null,
        "tree_description": null,
        "tree_number": null,
        "species": null
      },
      "geometry": {
        "type": "Point",
        "coordinates": [
          -84.505115290784,
          33.677413528347
        ]
      }
    },
    {
      "type": "Feature",
      "properties": {
        "record": "BA-202604110",
        "address": "1005 LINDBERGH DR NE, ATLANTA GA 30324",
        "status": "Accepted",
        "date": "08/20/2026",
        "description": null,
        "owner": null,
        "tree_dbh": null,
        "tree_location": null,
        "reason_removal": null,
        "tree_description": null,
        "tree_number": null,
        "species": null
      },
      "geometry": {
        "type": "Point",
        "coordinates": [
          -84.354804941417,
          33.819419133955
        ]
      }
    },
    {
      "type": "Feature",
      "properties": {
        "record": "26TMP-054827",
        "address": "1237 LENA ST NW, ATLANTA GA 30314",
        "status": "",
        "date": "08/20/2026",
        "description": null,
        "owner": null,
        "tree_dbh": null,
        "tree_location": null,
        "reason_removal": null,
        "tree_description": null,
        "tree_number": null,
        "species": null
      },
      "geometry": {
        "type": "Point",
        "coordinates": [
          -84.427176636652,
          33.756761968637
        ]
      }
    },
    {
      "type": "Feature",
      "properties": {
        "record": "BA-202604106",
        "address": "1831 LAKEWOOD TER SE, ATLANTA GA 00000",
        "status": "Accepted",
        "date": "08/20/2026",
        "description": null,
        "owner": null,
        "tree_dbh": null,
        "tree_location": null,
        "reason_removal": null,
        "tree_description": null,
        "tree_number": null,
        "species": null
      },
      "geometry": {
        "type": "Point",
        "coordinates": [
          -84.379470987529,
          33.704049859532
        ]
      }
    },
    {
      "type": "Feature",
      "properties": {
        "record": "BA-202604115",
        "address": "25 VALLEY RD NW, ATLANTA GA 30305",
        "status": "Accepted",
        "date": "08/20/2026",
        "description": null,
        "owner": null,
        "tree_dbh": null,
        "tree_location": null,
        "reason_removal": null,
        "tree_description": null,
        "tree_number": null,
        "species": null
      },
      "geometry": {
        "type": "Point",
        "coordinates": [
          -84.389025368805,
          33.849004371296
        ]
      }
    },
    {
      "type": "Feature",
      "properties": {
        "record": "BA-202604107",
        "address": "1704 HOMESTEAD AVE NE, ATLANTA GA 30306",
        "status": "Accepted",
        "date": "08/20/2026",
        "description": null,
        "owner": null,
        "tree_dbh": null,
        "tree_location": null,
        "reason_removal": null,
        "tree_description": null,
        "tree_number": null,
        "species": null
      },
      "geometry": {
        "type": "Point",
        "coordinates": [
          -84.348108989844,
          33.800980127961
        ]
      }
    },
    {
      "type": "Feature",
      "properties": {
        "record": "BA-202604113",
        "address": "946 DEAN DR NW, ATLANTA GA 30318",
        "status": "Accepted",
        "date": "08/20/2026",
        "description": null,
        "owner": null,
        "tree_dbh": null,
        "tree_location": null,
        "reason_removal": null,
        "tree_description": null,
        "tree_number": null,
        "species": null
      },
      "geometry": {
        "type": "Point",
        "coordinates": [
          -84.419685645854,
          33.820237552306
        ]
      }
    },
    {
      "type": "Feature",
      "properties": {
        "record": "BA-202604108",
        "address": "2606 BIRCHWOOD DR NE, ATLANTA GA 30305",
        "status": "Accepted",
        "date": "08/20/2026",
        "description": null,
        "owner": null,
        "tree_dbh": null,
        "tree_location": null,
        "reason_removal": null,
        "tree_description": null,
        "tree_number": null,
        "species": null
      },
      "geometry": {
        "type": "Point",
        "coordinates": [
          -84.375003872111,
          33.82590418079
        ]
      }
    },
    {
      "type": "Feature",
      "properties": {
        "record": "BA-202604111",
        "address": "2679 RIDGEMORE RD NW, ATLANTA GA 30318",
        "status": "Accepted",
        "date": "08/20/2026",
        "description": null,
        "owner": null,
        "tree_dbh": null,
        "tree_location": null,
        "reason_removal": null,
        "tree_description": null,
        "tree_number": null,
        "species": null
      },
      "geometry": {
        "type": "Point",
        "coordinates": [
          -84.446682688835,
          33.82798735605
        ]
      }
    },
    {
      "type": "Feature",
      "properties": {
        "record": "BA-202604116",
        "address": "210 EAST SIMON TER NW, ATLANTA GA 30318",
        "status": "Accepted",
        "date": "08/20/2026",
        "description": null,
        "owner": null,
        "tree_dbh": null,
        "tree_location": null,
        "reason_removal": null,
        "tree_description": null,
        "tree_number": null,
        "species": null
      },
      "geometry": {
        "type": "Point",
        "coordinates": [
          -84.47468651601,
          33.76123958965
        ]
      }
    },
    {
      "type": "Feature",
      "properties": {
        "record": "26TMP-054772",
        "address": "193 CLAY ST SE, ATLANTA GA 30317",
        "status": "",
        "date": "08/20/2026",
        "description": null,
        "owner": null,
        "tree_dbh": null,
        "tree_location": null,
        "reason_removal": null,
        "tree_description": null,
        "tree_number": null,
        "species": null
      },
      "geometry": {
        "type": "Point",
        "coordinates": [
          -84.330501686251,
          33.748583005308
        ]
      }
    },
    {
      "type": "Feature",
      "properties": {
        "record": "BA-202604117",
        "address": "4491 RIO GRANDE RD SW, ATLANTA GA 30331",
        "status": "ACA Pending",
        "date": "08/20/2026",
        "description": null,
        "owner": null,
        "tree_dbh": null,
        "tree_location": null,
        "reason_removal": null,
        "tree_description": null,
        "tree_number": null,
        "species": null
      },
      "geometry": {
        "type": "Point",
        "coordinates": [
          -84.535176686221,
          33.692026348379
        ]
      }
    },
    {
      "type": "Feature",
      "properties": {
        "record": "BA-202604112",
        "address": "958 EAST ROCK SPRINGS RD NE, ATLANTA GA 30306",
        "status": "Accepted",
        "date": "08/20/2026",
        "description": null,
        "owner": null,
        "tree_dbh": null,
        "tree_location": null,
        "reason_removal": null,
        "tree_description": null,
        "tree_number": null,
        "species": null
      },
      "geometry": {
        "type": "Point",
        "coordinates": [
          -84.355844198537,
          33.797412104308
        ]
      }
    },
    {
      "type": "Feature",
      "properties": {
        "record": "BA-202604123",
        "address": "3647 HADDON HALL RD NW, ATLANTA GA 30327",
        "status": "ACA Pending",
        "date": "08/20/2026",
        "description": null,
        "owner": null,
        "tree_dbh": null,
        "tree_location": null,
        "reason_removal": null,
        "tree_description": null,
        "tree_number": null,
        "species": null
      },
      "geometry": {
        "type": "Point",
        "coordinates": [
          -84.412117524809,
          33.855674438472
        ]
      }
    },
    {
      "type": "Feature",
      "properties": {
        "record": "BA-202604105",
        "address": "300 BLACKLAND RD NW, ATLANTA GA 30342",
        "status": "Accepted",
        "date": "08/20/2026",
        "description": null,
        "owner": null,
        "tree_dbh": null,
        "tree_location": null,
        "reason_removal": null,
        "tree_description": null,
        "tree_number": null,
        "species": null
      },
      "geometry": {
        "type": "Point",
        "coordinates": [
          -84.396810684922,
          33.85936908911
        ]
      }
    },
    {
      "type": "Feature",
      "properties": {
        "record": "BA-202604109",
        "address": "217 15TH ST NE, ATLANTA GA 30309",
        "status": "Accepted",
        "date": "08/20/2026",
        "description": null,
        "owner": null,
        "tree_dbh": null,
        "tree_location": null,
        "reason_removal": null,
        "tree_description": null,
        "tree_number": null,
        "species": null
      },
      "geometry": {
        "type": "Point",
        "coordinates": [
          -84.380014286501,
          33.788191638851
        ]
      }
    }
  ]
}