{
  "type": "FeatureCollection",
  "features": [
    {
      "type": "Feature",
      "properties": {
        "record": "BA-202604920",
        "address": "585 ORCHARD CT SE, ATLANTA GA 30312",
        "status": "ACA Pending",
        "date": "09/24/2026",
        "description": null,
        "owner": "Alex glustrom",
        "tree_dbh": "45",
        "tree_location": "left of house near driveway",
        "reason_removal": "Dying tree",
        "tree_description": "large tree damaged by fire",
        "tree_number": "1",
        "species": "oak",
        "comments": null,
        "tree_count": 1,
        "trees": [
          {
            "tree_number": "1",
            "species": "oak",
            "tree_dbh": "45",
            "tree_location": "left of house near driveway",
            "tree_description": "large tree damaged by fire",
            "reason_removal": "Dying tree",
            "comments": null
          }
        ]
      },
      "geometry": {
        "type": "Point",
        "coordinates": [
          -84.353427726986,
          33.940163351471
        ]
      }
    },
    {
      "type": "Feature",
      "properties": {
        "record": "BA-202604929",
        "address": "875 HAVEN OAKS CT NE, ATLANTA GA 30342",
        "status": "ACA Pending",
        "date": "09/24/2026",
        "description": null,
        "owner": "NEPOR NICHOLAS A",
        "tree_dbh": "40",
        "tree_location": "Rear center",
        "reason_removal": "Dying tree",
        "tree_description": "Lightning struck; significant decline in canopy",
        "tree_number": "1",
        "species": "White Oak",
        "comments": null,
        "tree_count": 2,
        "trees": [
          {
            "tree_number": "1",
            "species": "White Oak",
            "tree_dbh": "40",
            "tree_location": "Rear center",
            "tree_description": "Lightning struck; significant decline in canopy",
            "reason_removal": "Dying tree",
            "comments": null
          },
          {
            "tree_number": "2",
            "species": "Loblolly pine",
            "tree_dbh": "20",
            "tree_location": "Rear right of drive",
            "tree_description": "Dead",
            "reason_removal": "Dead tree",
            "comments": null
          }
        ]
      },
      "geometry": {
        "type": "Point",
        "coordinates": [
          -84.358694771248,
          33.857562428944
        ]
      }
    },
    {
      "type": "Feature",
      "properties": {
        "record": "26TMP-063475",
        "address": "1384 DODSON DR SW, ATLANTA GA 30311",
        "status": "",
        "date": "09/24/2026",
        "description": null,
        "owner": null,
        "tree_dbh": null,
        "tree_location": null,
        "reason_removal": null,
        "tree_description": null,
        "tree_number": null,
        "species": null,
        "comments": null,
        "tree_count": null,
        "trees": null
      },
      "geometry": {
        "type": "Point",
        "coordinates": [
          -84.471483085116,
          33.717845640962
        ]
      }
    },
    {
      "type": "Feature",
      "properties": {
        "record": "BA-202604937",
        "address": "2841 TUPELO ST SE, ATLANTA GA 30317",
        "status": "ACA Pending",
        "date": "09/24/2026",
        "description": null,
        "owner": "MAHONE MARTHA RUTH",
        "tree_dbh": "38.2",
        "tree_location": "left side of the property",
        "reason_removal": "Dying tree",
        "tree_description": "co-dominant decaying tree",
        "tree_number": "1",
        "species": "Maple",
        "comments": null,
        "tree_count": 1,
        "trees": [
          {
            "tree_number": "1",
            "species": "Maple",
            "tree_dbh": "38.2",
            "tree_location": "left side of the property",
            "tree_description": "co-dominant decaying tree",
            "reason_removal": "Dying tree",
            "comments": null
          }
        ]
      },
      "geometry": {
        "type": "Point",
        "coordinates": [
          -84.293931950944,
          33.748780366104
        ]
      }
    },
    {
      "type": "Feature",
      "properties": {
        "record": "BA-202604934",
        "address": "1158 DOLPHIN DR SW, ATLANTA GA 30311",
        "status": "ACA Pending",
        "date": "09/24/2026",
        "description": null,
        "owner": null,
        "tree_dbh": "10",
        "tree_location": "side of the house",
        "reason_removal": "Dead tree",
        "tree_description": "Dead branches.",
        "tree_number": "2",
        "species": "not sure",
        "comments": null,
        "tree_count": 2,
        "trees": [
          {
            "tree_number": "2",
            "species": "not sure",
            "tree_dbh": "10",
            "tree_location": "side of the house",
            "tree_description": "Dead branches.",
            "reason_removal": "Dead tree",
            "comments": null
          },
          {
            "tree_number": "2",
            "species": "not sure",
            "tree_dbh": "3",
            "tree_location": "on the side of the house",
            "tree_description": null,
            "reason_removal": "Dead tree",
            "comments": null
          }
        ]
      },
      "geometry": {
        "type": "Point",
        "coordinates": [
          -84.461690036115,
          33.723798225479
        ]
      }
    },
    {
      "type": "Feature",
      "properties": {
        "record": "BA-202604931",
        "address": "565 TWIN SPRINGS RD NW, ATLANTA GA 30327",
        "status": "ACA Pending",
        "date": "09/24/2026",
        "description": null,
        "owner": null,
        "tree_dbh": null,
        "tree_location": null,
        "reason_removal": null,
        "tree_description": null,
        "tree_number": null,
        "species": null,
        "comments": null,
        "tree_count": null,
        "trees": null
      },
      "geometry": {
        "type": "Point",
        "coordinates": [
          -84.405579908198,
          33.880910580997
        ]
      }
    },
    {
      "type": "Feature",
      "properties": {
        "record": "BA-202604933",
        "address": "443 PONCE DE LEON AVE NE, ATLANTA GA 30308",
        "status": "ACA Pending",
        "date": "09/24/2026",
        "description": null,
        "owner": null,
        "tree_dbh": null,
        "tree_location": null,
        "reason_removal": null,
        "tree_description": null,
        "tree_number": null,
        "species": null,
        "comments": null,
        "tree_count": null,
        "trees": null
      },
      "geometry": {
        "type": "Point",
        "coordinates": [
          -84.371956837983,
          33.773313463584
        ]
      }
    },
    {
      "type": "Feature",
      "properties": {
        "record": "BA-202604923",
        "address": "4155 CLUB DR NE, ATLANTA GA 30319",
        "status": "ACA Pending",
        "date": "09/24/2026",
        "description": null,
        "owner": "FARBOLIN CAROL J",
        "tree_dbh": "24",
        "tree_location": "Please see site map.",
        "reason_removal": "Dead tree",
        "tree_description": "Numbered flagging tape",
        "tree_number": "1",
        "species": "Pine",
        "comments": "Tree appears dead.",
        "tree_count": 14,
        "trees": [
          {
            "tree_number": "1",
            "species": "Pine",
            "tree_dbh": "24",
            "tree_location": "Please see site map.",
            "tree_description": "Numbered flagging tape",
            "reason_removal": "Dead tree",
            "comments": "Tree appears dead."
          },
          {
            "tree_number": "2",
            "species": "Pine",
            "tree_dbh": "21",
            "tree_location": "Please see site map.",
            "tree_description": "Numbered flagging tape",
            "reason_removal": "Dead tree",
            "comments": "Tree appears dead."
          },
          {
            "tree_number": "3",
            "species": "Pine",
            "tree_dbh": "17",
            "tree_location": "Please see site map.",
            "tree_description": "Numbered flagging tape",
            "reason_removal": "Dead tree",
            "comments": "Tree appears dead."
          },
          {
            "tree_number": "4",
            "species": "Pine",
            "tree_dbh": "21",
            "tree_location": "Please see site map.",
            "tree_description": "Numbered flagging tape",
            "reason_removal": "Dead tree",
            "comments": "Tree appears dead."
          },
          {
            "tree_number": "5",
            "species": "Pine",
            "tree_dbh": "13",
            "tree_location": "Please see site map.",
            "tree_description": "Numbered flagging tape",
            "reason_removal": "Dead tree",
            "comments": "Tree appears dead."
          },
          {
            "tree_number": "6",
            "species": "Pine",
            "tree_dbh": "19",
            "tree_location": "Please see site map.",
            "tree_description": "Numbered flagging tape",
            "reason_removal": "Dead tree",
            "comments": "Tree appears dead."
          },
          {
            "tree_number": "7",
            "species": "Oak",
            "tree_dbh": "32",
            "tree_location": "Please see site map.",
            "tree_description": "Numbered flagging tape",
            "reason_removal": "Significant cavity/area of decay",
            "comments": "Former co-dominant stem remains grafted to the main trunk at the co-dominant union. The grafted union contains a large cavity with visible internal wood loss and decay."
          },
          {
            "tree_number": "8",
            "species": "Glossy Privet",
            "tree_dbh": "14",
            "tree_location": "Please see site map.",
            "tree_description": "Numbered flagging tape",
            "reason_removal": "Invasive/undesirable tree",
            "comments": "Undesired species."
          },
          {
            "tree_number": "9",
            "species": "Glossy Privet",
            "tree_dbh": "15",
            "tree_location": "Please see site map.",
            "tree_description": "Numbered flagging tape",
            "reason_removal": "Invasive/undesirable tree",
            "comments": "Undesired species."
          },
          {
            "tree_number": "10",
            "species": "Pine",
            "tree_dbh": "8",
            "tree_location": "Please see site map.",
            "tree_description": "Numbered flagging tape",
            "reason_removal": "Other",
            "comments": "This tree is under 12 inches DBH and therefore is not protected but is being included for permitting and removal clarity."
          },
          {
            "tree_number": "11",
            "species": "Water Oak",
            "tree_dbh": "17",
            "tree_location": "Please see site map.",
            "tree_description": "Numbered flagging tape",
            "reason_removal": "Uncorrectable defect",
            "comments": "Structural root plate is deformed by the existing retaining wall and adjacent Trees #3 and #12. Removal of adjacent dead Trees #1-6 will result in increased canopy exposure and altered wind dynamics. A large mid-stem cavity is present at an older pruning wound, with visible wood deterioration consistent with decay. Canopy is asymmetrical and oriented toward the outdoor living area."
          },
          {
            "tree_number": "12",
            "species": "Water Oak",
            "tree_dbh": "18",
            "tree_location": "Please see site map.",
            "tree_description": "Numbered flagging tape",
            "reason_removal": "Uncorrectable defect",
            "comments": "Structural root plate is deformed by the existing retaining wall and adjacent Trees #3 and #11. Removal of adjacent dead Trees #1-6 will result in increased canopy exposure and altered wind dynamics. Canopy is asymmetrical and oriented toward the outdoor living area."
          },
          {
            "tree_number": "13",
            "species": "Water Oak",
            "tree_dbh": "34",
            "tree_location": "Please see site map.",
            "tree_description": "Numbered flagging tape",
            "reason_removal": "Significant cavity/area of decay",
            "comments": "Large cavity associated with an old pruning wound. Additional mechanical damage is present on the trunk. Significant basal decay is present on the back side with substantial visible wood loss."
          },
          {
            "tree_number": "14",
            "species": "Pine",
            "tree_dbh": "27",
            "tree_location": "Please see site map.",
            "tree_description": "Numbered flagging tape",
            "reason_removal": "Uncorrectable defect",
            "comments": "Two opposing stem cankers. Combined defects affect greater than 30% of the stem circumference, with exposed heartwood and active pitch production."
          }
        ]
      },
      "geometry": {
        "type": "Point",
        "coordinates": [
          -84.357040091227,
          33.86888414654
        ]
      }
    },
    {
      "type": "Feature",
      "properties": {
        "record": "BA-202604927",
        "address": "3284 BENJAMIN E MAYS DR SW, ATLANTA GA 30311",
        "status": "ACA Pending",
        "date": "09/24/2026",
        "description": null,
        "owner": "PHARR MALINDA D",
        "tree_dbh": "12",
        "tree_location": "right side of the property",
        "reason_removal": "Other",
        "tree_description": "Dangerous tree hanging on neighbors property",
        "tree_number": "1",
        "species": "Oak",
        "comments": null,
        "tree_count": 1,
        "trees": [
          {
            "tree_number": "1",
            "species": "Oak",
            "tree_dbh": "12",
            "tree_location": "right side of the property",
            "tree_description": "Dangerous tree hanging on neighbors property",
            "reason_removal": "Other",
            "comments": null
          }
        ]
      },
      "geometry": {
        "type": "Point",
        "coordinates": [
          -84.495730488939,
          33.736440289224
        ]
      }
    },
    {
      "type": "Feature",
      "properties": {
        "record": "BA-202604940",
        "address": "209 ANDERSON AVE NW, ATLANTA GA 30314",
        "status": "ACA Pending",
        "date": "09/24/2026",
        "description": null,
        "owner": "DAWSON PRESTON AGT EST DAWSON LOUISE LANDRUM",
        "tree_dbh": "26",
        "tree_location": "on property line north",
        "reason_removal": "Dying tree",
        "tree_description": "26\" oak tree dying. shared on property line. both property owners would like this tree to be removed",
        "tree_number": "1",
        "species": "oak",
        "comments": "26\" oak tree dying. shared on property line. both property owners would like this tree to be removed",
        "tree_count": 1,
        "trees": [
          {
            "tree_number": "1",
            "species": "oak",
            "tree_dbh": "26",
            "tree_location": "on property line north",
            "tree_description": "26\" oak tree dying. shared on property line. both property owners would like this tree to be removed",
            "reason_removal": "Dying tree",
            "comments": "26\" oak tree dying. shared on property line. both property owners would like this tree to be removed"
          }
        ]
      },
      "geometry": {
        "type": "Point",
        "coordinates": [
          -84.450423361458,
          33.760475672073
        ]
      }
    },
    {
      "type": "Feature",
      "properties": {
        "record": "BA-202604911",
        "address": "1920 DELANO DR NE, ATLANTA GA 30317",
        "status": "ACA Pending",
        "date": "09/24/2026",
        "description": null,
        "owner": "JACOBS BERT OR JACOBS ELIZABETH",
        "tree_dbh": "22",
        "tree_location": "left rear close to the house",
        "reason_removal": "Unpermitted destruction",
        "tree_description": "Dangerous near the house that might do unpermitted destruction in the future. Falling debris like branches on the house.",
        "tree_number": "1",
        "species": "sweetgum",
        "comments": null,
        "tree_count": 1,
        "trees": [
          {
            "tree_number": "1",
            "species": "sweetgum",
            "tree_dbh": "22",
            "tree_location": "left rear close to the house",
            "tree_description": "Dangerous near the house that might do unpermitted destruction in the future. Falling debris like branches on the house.",
            "reason_removal": "Unpermitted destruction",
            "comments": null
          }
        ]
      },
      "geometry": {
        "type": "Point",
        "coordinates": [
          -84.325040454443,
          33.755396857664
        ]
      }
    },
    {
      "type": "Feature",
      "properties": {
        "record": "BA-202604912",
        "address": "1431 GARMON FERRY RD NW, ATLANTA GA 30327",
        "status": "ACA Pending",
        "date": "09/24/2026",
        "description": null,
        "owner": "Phil Coletti",
        "tree_dbh": "6",
        "tree_location": "Rear right of pool",
        "reason_removal": "Dead tree",
        "tree_description": "Dead",
        "tree_number": "1",
        "species": "Dogwood",
        "comments": null,
        "tree_count": 3,
        "trees": [
          {
            "tree_number": "1",
            "species": "Dogwood",
            "tree_dbh": "6",
            "tree_location": "Rear right of pool",
            "tree_description": "Dead",
            "reason_removal": "Dead tree",
            "comments": null
          },
          {
            "tree_number": "2",
            "species": "Chinese Elm",
            "tree_dbh": "21",
            "tree_location": "Left of house, at corner of garage",
            "tree_description": "Undesirable species",
            "reason_removal": "Invasive/undesirable tree",
            "comments": null
          },
          {
            "tree_number": "3",
            "species": "Redbud",
            "tree_dbh": "10",
            "tree_location": "Left of driveway",
            "tree_description": "Severe lean, sinuous trunk, mostly horizontal canopy growth",
            "reason_removal": "Uncorrectable defect",
            "comments": null
          }
        ]
      },
      "geometry": {
        "type": "Point",
        "coordinates": [
          -84.427824169703,
          33.870839302936
        ]
      }
    },
    {
      "type": "Feature",
      "properties": {
        "record": "BA-202604935",
        "address": "2841 TUPELO ST SE, ATLANTA GA 30317",
        "status": "ACA Pending",
        "date": "09/24/2026",
        "description": null,
        "owner": "MAHONE MARTHA RUTH",
        "tree_dbh": "38.2",
        "tree_location": "left side of the property",
        "reason_removal": "Dying tree",
        "tree_description": "Dying tree showing decay. Co-dominant tree",
        "tree_number": "1",
        "species": "Maple",
        "comments": null,
        "tree_count": 1,
        "trees": [
          {
            "tree_number": "1",
            "species": "Maple",
            "tree_dbh": "38.2",
            "tree_location": "left side of the property",
            "tree_description": "Dying tree showing decay. Co-dominant tree",
            "reason_removal": "Dying tree",
            "comments": null
          }
        ]
      },
      "geometry": {
        "type": "Point",
        "coordinates": [
          -84.293931950944,
          33.748780366104
        ]
      }
    },
    {
      "type": "Feature",
      "properties": {
        "record": "BA-202604916",
        "address": "263 THE PRADO NE, ATLANTA GA 30309",
        "status": "ACA Pending",
        "date": "09/24/2026",
        "description": null,
        "owner": "Holly Greene",
        "tree_dbh": "18",
        "tree_location": "Front right corner of the house",
        "reason_removal": "Uncorrectable defect",
        "tree_description": "Continued dieback and loss of 1/3 canopy in past year, some infection in trunk",
        "tree_number": "1",
        "species": "Apricot",
        "comments": "Orange paint",
        "tree_count": 1,
        "trees": [
          {
            "tree_number": "1",
            "species": "Apricot",
            "tree_dbh": "18",
            "tree_location": "Front right corner of the house",
            "tree_description": "Continued dieback and loss of 1/3 canopy in past year, some infection in trunk",
            "reason_removal": "Uncorrectable defect",
            "comments": "Orange paint"
          }
        ]
      },
      "geometry": {
        "type": "Point",
        "coordinates": [
          -84.38265783176,
          33.795458188745
        ]
      }
    },
    {
      "type": "Feature",
      "properties": {
        "record": "BA-202604942",
        "address": "1125 CORDOVA ST SW, ATLANTA GA 30310",
        "status": "ACA Pending",
        "date": "09/24/2026",
        "description": null,
        "owner": "Ayana Patton",
        "tree_dbh": "20",
        "tree_location": "Home",
        "reason_removal": "Invasive/undesirable tree",
        "tree_description": "very old pine tree at home.",
        "tree_number": "1",
        "species": "1",
        "comments": "tree is hanging over drive way causing damage to car would like to trim branches down to not cause any further damage to driveway and car.",
        "tree_count": 3,
        "trees": [
          {
            "tree_number": "1",
            "species": "1",
            "tree_dbh": "20",
            "tree_location": "Home",
            "tree_description": "very old pine tree at home.",
            "reason_removal": "Invasive/undesirable tree",
            "comments": "tree is hanging over drive way causing damage to car would like to trim branches down to not cause any further damage to driveway and car."
          },
          {
            "tree_number": "2",
            "species": "2",
            "tree_dbh": "20",
            "tree_location": "home",
            "tree_description": "tree touching roof",
            "reason_removal": "Dead tree",
            "comments": "tree is damaging the roof and tree is already dying."
          },
          {
            "tree_number": "3",
            "species": "3",
            "tree_dbh": "30",
            "tree_location": "home",
            "tree_description": "tree in back of home",
            "reason_removal": "Other",
            "comments": "tree in back of home is growing into my yard and would like to trim branches to not cause any potential damage."
          }
        ]
      },
      "geometry": {
        "type": "Point",
        "coordinates": [
          -84.424724315683,
          33.727040404014
        ]
      }
    },
    {
      "type": "Feature",
      "properties": {
        "record": "BA-202604914",
        "address": "1216 WOODLAND AVE SE, ATLANTA GA 30316",
        "status": "ACA Pending",
        "date": "09/24/2026",
        "description": null,
        "owner": "Justin Trudeau",
        "tree_dbh": "17",
        "tree_location": "nearest right front of ADU at rear of property",
        "reason_removal": "Significant cavity/area of decay",
        "tree_description": "more than 20-degree phototropic lean over the adjacent structure with minimal counterbalancing canopy opposite lean, significant decay and visible brittle cinder fungus at root flare of tree on tension side of lean (Kretzschmeria deusta)",
        "tree_number": "1",
        "species": "River Birch",
        "comments": "Ribbon",
        "tree_count": 1,
        "trees": [
          {
            "tree_number": "1",
            "species": "River Birch",
            "tree_dbh": "17",
            "tree_location": "nearest right front of ADU at rear of property",
            "tree_description": "more than 20-degree phototropic lean over the adjacent structure with minimal counterbalancing canopy opposite lean, significant decay and visible brittle cinder fungus at root flare of tree on tension side of lean (Kretzschmeria deusta)",
            "reason_removal": "Significant cavity/area of decay",
            "comments": "Ribbon"
          }
        ]
      },
      "geometry": {
        "type": "Point",
        "coordinates": [
          -84.35329249956,
          33.721340005343
        ]
      }
    },
    {
      "type": "Feature",
      "properties": {
        "record": "BA-202604926",
        "address": "3284 BENJAMIN E MAYS DR SW, ATLANTA GA 30311",
        "status": "ACA Pending",
        "date": "09/24/2026",
        "description": null,
        "owner": "PHARR MALINDA D",
        "tree_dbh": "12",
        "tree_location": "right side of the property",
        "reason_removal": "Other",
        "tree_description": "Dangerous tree hanging in neighbors property",
        "tree_number": "1",
        "species": "Oak",
        "comments": null,
        "tree_count": 1,
        "trees": [
          {
            "tree_number": "1",
            "species": "Oak",
            "tree_dbh": "12",
            "tree_location": "right side of the property",
            "tree_description": "Dangerous tree hanging in neighbors property",
            "reason_removal": "Other",
            "comments": null
          }
        ]
      },
      "geometry": {
        "type": "Point",
        "coordinates": [
          -84.495730488939,
          33.736440289224
        ]
      }
    },
    {
      "type": "Feature",
      "properties": {
        "record": "BA-202604913",
        "address": "911 EMERSON AVE SE, ATLANTA GA 30316",
        "status": "ACA Pending",
        "date": "09/24/2026",
        "description": null,
        "owner": "Sarita Vora",
        "tree_dbh": "45",
        "tree_location": "Left front of property",
        "reason_removal": "Uncorrectable defect",
        "tree_description": "See TRA",
        "tree_number": "1",
        "species": "Water Oak",
        "comments": "Ribbon",
        "tree_count": 1,
        "trees": [
          {
            "tree_number": "1",
            "species": "Water Oak",
            "tree_dbh": "45",
            "tree_location": "Left front of property",
            "tree_description": "See TRA",
            "reason_removal": "Uncorrectable defect",
            "comments": "Ribbon"
          }
        ]
      },
      "geometry": {
        "type": "Point",
        "coordinates": [
          -84.356860326247,
          33.733362495503
        ]
      }
    },
    {
      "type": "Feature",
      "properties": {
        "record": "BA-202604925",
        "address": "755 BRAEMAR AVE SW, ATLANTA GA 30311",
        "status": "ACA Pending",
        "date": "09/24/2026",
        "description": null,
        "owner": "RANKINS RAY",
        "tree_dbh": "22.6",
        "tree_location": "Left side of the property",
        "reason_removal": "Unpermitted destruction",
        "tree_description": "Dangerous tree leaning towards neighbors property",
        "tree_number": "1",
        "species": "cypress",
        "comments": null,
        "tree_count": 2,
        "trees": [
          {
            "tree_number": "1",
            "species": "cypress",
            "tree_dbh": "22.6",
            "tree_location": "Left side of the property",
            "tree_description": "Dangerous tree leaning towards neighbors property",
            "reason_removal": "Unpermitted destruction",
            "comments": null
          },
          {
            "tree_number": "2",
            "species": "cypress",
            "tree_dbh": "39.3",
            "tree_location": "Left side of the property",
            "tree_description": "Dangerous tree leaning towards neighbors property",
            "reason_removal": "Unpermitted destruction",
            "comments": "Left side of the property"
          }
        ]
      },
      "geometry": {
        "type": "Point",
        "coordinates": [
          -84.495324983345,
          33.734914233977
        ]
      }
    },
    {
      "type": "Feature",
      "properties": {
        "record": "BA-202604932",
        "address": "2404 COUNTY LINE RD SW, ATLANTA GA 30331",
        "status": "ACA Pending",
        "date": "09/24/2026",
        "description": null,
        "owner": "MC KINNON EUNICE H",
        "tree_dbh": "28",
        "tree_location": "back yard",
        "reason_removal": "Dying tree",
        "tree_description": null,
        "tree_number": "1",
        "species": "pine",
        "comments": null,
        "tree_count": 4,
        "trees": [
          {
            "tree_number": "1",
            "species": "pine",
            "tree_dbh": "28",
            "tree_location": "back yard",
            "tree_description": null,
            "reason_removal": "Dying tree",
            "comments": null
          },
          {
            "tree_number": "2",
            "species": "pine",
            "tree_dbh": "14",
            "tree_location": "back yard",
            "tree_description": null,
            "reason_removal": "Dying tree",
            "comments": null
          },
          {
            "tree_number": "3",
            "species": "pine",
            "tree_dbh": "14",
            "tree_location": "back yard",
            "tree_description": null,
            "reason_removal": "Dying tree",
            "comments": null
          },
          {
            "tree_number": "4",
            "species": "pine",
            "tree_dbh": "13",
            "tree_location": "back yaed",
            "tree_description": null,
            "reason_removal": "Dying tree",
            "comments": null
          }
        ]
      },
      "geometry": {
        "type": "Point",
        "coordinates": [
          -84.534062544934,
          33.689514282228
        ]
      }
    },
    {
      "type": "Feature",
      "properties": {
        "record": "BA-202604909",
        "address": "59 CARLTON DR NE, ATLANTA GA 30342",
        "status": "ACA Pending",
        "date": "09/24/2026",
        "description": null,
        "owner": null,
        "tree_dbh": "33",
        "tree_location": "center of backyard",
        "reason_removal": "Significant cavity/area of decay",
        "tree_description": "The tree is leaning over the house and is a hazard",
        "tree_number": "33",
        "species": "oak",
        "comments": null,
        "tree_count": 1,
        "trees": [
          {
            "tree_number": "33",
            "species": "oak",
            "tree_dbh": "33",
            "tree_location": "center of backyard",
            "tree_description": "The tree is leaning over the house and is a hazard",
            "reason_removal": "Significant cavity/area of decay",
            "comments": null
          }
        ]
      },
      "geometry": {
        "type": "Point",
        "coordinates": [
          -84.385609111592,
          33.872179661683
        ]
      }
    },
    {
      "type": "Feature",
      "properties": {
        "record": "BA-202604924",
        "address": "3120 MARNE DR NW, ATLANTA GA 30305",
        "status": "ACA Pending",
        "date": "09/24/2026",
        "description": null,
        "owner": "Natalie Cyphers",
        "tree_dbh": "24",
        "tree_location": "back right of property",
        "reason_removal": "Dying tree",
        "tree_description": "Sweet gum back right of property behind garage is dying. Has less than 50% leaves and lots of branches falling off.",
        "tree_number": "1",
        "species": "Sweet gum",
        "comments": null,
        "tree_count": 2,
        "trees": [
          {
            "tree_number": "1",
            "species": "Sweet gum",
            "tree_dbh": "24",
            "tree_location": "back right of property",
            "tree_description": "Sweet gum back right of property behind garage is dying. Has less than 50% leaves and lots of branches falling off.",
            "reason_removal": "Dying tree",
            "comments": null
          },
          {
            "tree_number": "2",
            "species": "Maple",
            "tree_dbh": "36",
            "tree_location": "front right of property",
            "tree_description": "Maple tree dying in front right of property. Had a permit previously to cut down but didnt get it done. Main leader of tree already died and had that cut off. Only about 10% of tree still alive.",
            "reason_removal": "Dying tree",
            "comments": null
          }
        ]
      },
      "geometry": {
        "type": "Point",
        "coordinates": [
          -84.403944143051,
          33.840362413117
        ]
      }
    },
    {
      "type": "Feature",
      "properties": {
        "record": "BA-202604922",
        "address": "331 EAST RHINEHILL RD SE, ATLANTA GA 30315",
        "status": "ACA Pending",
        "date": "09/24/2026",
        "description": null,
        "owner": null,
        "tree_dbh": "24",
        "tree_location": "backyard",
        "reason_removal": "Dying tree",
        "tree_description": null,
        "tree_number": "1",
        "species": "Pecan",
        "comments": null,
        "tree_count": 1,
        "trees": [
          {
            "tree_number": "1",
            "species": "Pecan",
            "tree_dbh": "24",
            "tree_location": "backyard",
            "tree_description": null,
            "reason_removal": "Dying tree",
            "comments": null
          }
        ]
      },
      "geometry": {
        "type": "Point",
        "coordinates": [
          -84.378245927096,
          33.691520908822
        ]
      }
    },
    {
      "type": "Feature",
      "properties": {
        "record": "BA-202604930",
        "address": "409 MORGAN PL SE, ATLANTA GA 30317",
        "status": "ACA Pending",
        "date": "09/24/2026",
        "description": null,
        "owner": "Bethany Lynn Whetzel",
        "tree_dbh": "6",
        "tree_location": "Front yard",
        "reason_removal": "Diseased",
        "tree_description": null,
        "tree_number": "1",
        "species": "Water Oak",
        "comments": null,
        "tree_count": 2,
        "trees": [
          {
            "tree_number": "1",
            "species": "Water Oak",
            "tree_dbh": "6",
            "tree_location": "Front yard",
            "tree_description": null,
            "reason_removal": "Diseased",
            "comments": null
          },
          {
            "tree_number": "2",
            "species": "bradford pear",
            "tree_dbh": "6",
            "tree_location": "backyard",
            "tree_description": "diseased and dying",
            "reason_removal": "Dying tree",
            "comments": null
          }
        ]
      },
      "geometry": {
        "type": "Point",
        "coordinates": [
          -84.290615641748,
          33.741259966681
        ]
      }
    },
    {
      "type": "Feature",
      "properties": {
        "record": "BA-202604907",
        "address": "3051 HABERSHAM RD NW, ATLANTA GA 30305",
        "status": "ACA Pending",
        "date": "09/24/2026",
        "description": null,
        "owner": "JEFFRIES ALICE M",
        "tree_dbh": "30",
        "tree_location": "Left of driveway near mailbox",
        "reason_removal": "Dying tree",
        "tree_description": "Large tulip poplar near street (outside of fence) is dying",
        "tree_number": "1",
        "species": "Tulip Poplar",
        "comments": null,
        "tree_count": 1,
        "trees": [
          {
            "tree_number": "1",
            "species": "Tulip Poplar",
            "tree_dbh": "30",
            "tree_location": "Left of driveway near mailbox",
            "tree_description": "Large tulip poplar near street (outside of fence) is dying",
            "reason_removal": "Dying tree",
            "comments": null
          }
        ]
      },
      "geometry": {
        "type": "Point",
        "coordinates": [
          -84.39694727528,
          33.838323798794
        ]
      }
    },
    {
      "type": "Feature",
      "properties": {
        "record": "26TMP-063316",
        "address": "30 WARREN ST SE, ATLANTA GA 30317",
        "status": "",
        "date": "09/24/2026",
        "description": null,
        "owner": null,
        "tree_dbh": null,
        "tree_location": null,
        "reason_removal": null,
        "tree_description": null,
        "tree_number": null,
        "species": null,
        "comments": null,
        "tree_count": null,
        "trees": null
      },
      "geometry": {
        "type": "Point",
        "coordinates": [
          -84.326173903819,
          33.751913301593
        ]
      }
    },
    {
      "type": "Feature",
      "properties": {
        "record": "BA-202604919",
        "address": "1457 BENTEEN AVE SE, ATLANTA GA 30315",
        "status": "ACA Pending",
        "date": "09/24/2026",
        "description": null,
        "owner": null,
        "tree_dbh": "18",
        "tree_location": "front right",
        "reason_removal": "Dying tree",
        "tree_description": "invasive",
        "tree_number": "1",
        "species": "mimosa",
        "comments": null,
        "tree_count": 2,
        "trees": [
          {
            "tree_number": "1",
            "species": "mimosa",
            "tree_dbh": "18",
            "tree_location": "front right",
            "tree_description": "invasive",
            "reason_removal": "Dying tree",
            "comments": null
          },
          {
            "tree_number": "2",
            "species": "pear",
            "tree_dbh": "16",
            "tree_location": "left",
            "tree_description": "Large pocket of decay at branch union. Both major branches have decay throughout.",
            "reason_removal": "Dying tree",
            "comments": null
          }
        ]
      },
      "geometry": {
        "type": "Point",
        "coordinates": [
          -84.366764051299,
          33.714180143558
        ]
      }
    },
    {
      "type": "Feature",
      "properties": {
        "record": "BA-202604936",
        "address": "2841 TUPELO ST SE, ATLANTA GA 30317",
        "status": "ACA Pending",
        "date": "09/24/2026",
        "description": null,
        "owner": "MAHONE MARTHA RUTH",
        "tree_dbh": "38.2",
        "tree_location": "left side of the property",
        "reason_removal": "Dying tree",
        "tree_description": "Co-dominant decaying dying tree",
        "tree_number": "1",
        "species": "Maple",
        "comments": null,
        "tree_count": 1,
        "trees": [
          {
            "tree_number": "1",
            "species": "Maple",
            "tree_dbh": "38.2",
            "tree_location": "left side of the property",
            "tree_description": "Co-dominant decaying dying tree",
            "reason_removal": "Dying tree",
            "comments": null
          }
        ]
      },
      "geometry": {
        "type": "Point",
        "coordinates": [
          -84.293931950944,
          33.748780366104
        ]
      }
    },
    {
      "type": "Feature",
      "properties": {
        "record": "BA-202604915",
        "address": "1079 WOODLAND AVE SE, ATLANTA GA 30316",
        "status": "ACA Pending",
        "date": "09/24/2026",
        "description": null,
        "owner": null,
        "tree_dbh": "52",
        "tree_location": "back of house",
        "reason_removal": "Diseased",
        "tree_description": "located near chainlink gate",
        "tree_number": "1",
        "species": "pecan",
        "comments": null,
        "tree_count": 1,
        "trees": [
          {
            "tree_number": "1",
            "species": "pecan",
            "tree_dbh": "52",
            "tree_location": "back of house",
            "tree_description": "located near chainlink gate",
            "reason_removal": "Diseased",
            "comments": null
          }
        ]
      },
      "geometry": {
        "type": "Point",
        "coordinates": [
          -84.353478428636,
          33.724929775765
        ]
      }
    },
    {
      "type": "Feature",
      "properties": {
        "record": "BA-202604941",
        "address": "216 NORWOOD AVE NE, ATLANTA GA 30317",
        "status": "ACA Pending",
        "date": "09/24/2026",
        "description": null,
        "owner": "KEY CORYNN OR KEY CHRISTOPHER",
        "tree_dbh": "30",
        "tree_location": "Front yard, right side of driveway",
        "reason_removal": "Uncorrectable defect",
        "tree_description": "Codominant stems. With a union that has included bark. Some root decay at the base. Routinely drops branches over the power line.",
        "tree_number": "1",
        "species": "Pecan",
        "comments": null,
        "tree_count": 1,
        "trees": [
          {
            "tree_number": "1",
            "species": "Pecan",
            "tree_dbh": "30",
            "tree_location": "Front yard, right side of driveway",
            "tree_description": "Codominant stems. With a union that has included bark. Some root decay at the base. Routinely drops branches over the power line.",
            "reason_removal": "Uncorrectable defect",
            "comments": null
          }
        ]
      },
      "geometry": {
        "type": "Point",
        "coordinates": [
          -84.320234257484,
          33.758670586756
        ]
      }
    },
    {
      "type": "Feature",
      "properties": {
        "record": "26TMP-063398",
        "address": "1147 COLEMAN ST SW, ATLANTA GA 30310",
        "status": "",
        "date": "09/24/2026",
        "description": null,
        "owner": null,
        "tree_dbh": null,
        "tree_location": null,
        "reason_removal": null,
        "tree_description": null,
        "tree_number": null,
        "species": null,
        "comments": null,
        "tree_count": null,
        "trees": null
      },
      "geometry": {
        "type": "Point",
        "coordinates": [
          -84.404055609182,
          33.7237435737
        ]
      }
    },
    {
      "type": "Feature",
      "properties": {
        "record": "26TMP-063269",
        "address": "1871 CAMPBELLTON RD SW, ATLANTA GA 30311",
        "status": "",
        "date": "09/24/2026",
        "description": null,
        "owner": null,
        "tree_dbh": null,
        "tree_location": null,
        "reason_removal": null,
        "tree_description": null,
        "tree_number": null,
        "species": null,
        "comments": null,
        "tree_count": null,
        "trees": null
      },
      "geometry": {
        "type": "Point",
        "coordinates": [
          -84.450306013171,
          33.70929917668
        ]
      }
    },
    {
      "type": "Feature",
      "properties": {
        "record": "BA-202604939",
        "address": "341 OAKDALE RD NE, ATLANTA GA 30307",
        "status": "Issued",
        "date": "09/24/2026",
        "description": null,
        "owner": "Caesar Sweitzer",
        "tree_dbh": "34",
        "tree_location": "Front yard",
        "reason_removal": "Uncorrectable defect",
        "tree_description": "large limbs on the house, Significant Canopy Failure/Undesirable Species",
        "tree_number": "1",
        "species": "Bradford Pear",
        "comments": null,
        "tree_count": 1,
        "trees": [
          {
            "tree_number": "1",
            "species": "Bradford Pear",
            "tree_dbh": "34",
            "tree_location": "Front yard",
            "tree_description": "large limbs on the house, Significant Canopy Failure/Undesirable Species",
            "reason_removal": "Uncorrectable defect",
            "comments": null
          }
        ]
      },
      "geometry": {
        "type": "Point",
        "coordinates": [
          -84.341698603966,
          33.763695974526
        ]
      }
    },
    {
      "type": "Feature",
      "properties": {
        "record": "BA-202604908",
        "address": "10 ABINGTON CT NW, ATLANTA GA 30327",
        "status": "ACA Pending",
        "date": "09/24/2026",
        "description": null,
        "owner": null,
        "tree_dbh": "16",
        "tree_location": "back yard",
        "reason_removal": "Dead tree",
        "tree_description": "tree is completely dead. no live canopy.",
        "tree_number": "1",
        "species": "Hickory",
        "comments": null,
        "tree_count": 1,
        "trees": [
          {
            "tree_number": "1",
            "species": "Hickory",
            "tree_dbh": "16",
            "tree_location": "back yard",
            "tree_description": "tree is completely dead. no live canopy.",
            "reason_removal": "Dead tree",
            "comments": null
          }
        ]
      },
      "geometry": {
        "type": "Point",
        "coordinates": [
          -84.420654117922,
          33.82704364132
        ]
      }
    },
    {
      "type": "Feature",
      "properties": {
        "record": "26TMP-063477",
        "address": "3725 ADKINS RD NW, ATLANTA GA 30331",
        "status": "",
        "date": "09/24/2026",
        "description": null,
        "owner": null,
        "tree_dbh": null,
        "tree_location": null,
        "reason_removal": null,
        "tree_description": null,
        "tree_number": null,
        "species": null,
        "comments": null,
        "tree_count": null,
        "trees": null
      },
      "geometry": {
        "type": "Point",
        "coordinates": [
          -84.509372372252,
          33.773509418848
        ]
      }
    },
    {
      "type": "Feature",
      "properties": {
        "record": "BA-202604921",
        "address": "1145 BRIARCLIFF CT NE, ATLANTA GA 30306",
        "status": "Issued",
        "date": "09/24/2026",
        "description": null,
        "owner": "ROSEBRIAR COURT APARTMENTS",
        "tree_dbh": "55",
        "tree_location": "Behind building 897",
        "reason_removal": "Uncorrectable defect",
        "tree_description": "tree split in half. One half is resting on the building. The other half could fail at any time",
        "tree_number": "1",
        "species": "Water Oak",
        "comments": null,
        "tree_count": 1,
        "trees": [
          {
            "tree_number": "1",
            "species": "Water Oak",
            "tree_dbh": "55",
            "tree_location": "Behind building 897",
            "tree_description": "tree split in half. One half is resting on the building. The other half could fail at any time",
            "reason_removal": "Uncorrectable defect",
            "comments": null
          }
        ]
      },
      "geometry": {
        "type": "Point",
        "coordinates": [
          -84.349427613878,
          33.77861853497
        ]
      }
    },
    {
      "type": "Feature",
      "properties": {
        "record": "BA-202604917",
        "address": "1650 WEST SUSSEX RD NE, ATLANTA GA 30306",
        "status": "ACA Pending",
        "date": "09/24/2026",
        "description": null,
        "owner": null,
        "tree_dbh": "33",
        "tree_location": "Front yard",
        "reason_removal": "Dead tree",
        "tree_description": "Dead tree.",
        "tree_number": "1",
        "species": "Loblolly Pine",
        "comments": null,
        "tree_count": 2,
        "trees": [
          {
            "tree_number": "1",
            "species": "Loblolly Pine",
            "tree_dbh": "33",
            "tree_location": "Front yard",
            "tree_description": "Dead tree.",
            "reason_removal": "Dead tree",
            "comments": null
          },
          {
            "tree_number": "2",
            "species": "Loblolly Pine",
            "tree_dbh": "30",
            "tree_location": "Front left, flagged with ribbon",
            "tree_description": "Tree has fungal infection along the base with evidence of basal decay",
            "reason_removal": "Significant cavity/area of decay",
            "comments": null
          }
        ]
      },
      "geometry": {
        "type": "Point",
        "coordinates": [
          -84.354002448166,
          33.799922727986
        ]
      }
    },
    {
      "type": "Feature",
      "properties": {
        "record": "BA-202604910",
        "address": "1988 HOLLYWOOD RD NW, ATLANTA GA 30318",
        "status": "ACA Pending",
        "date": "09/24/2026",
        "description": null,
        "owner": "GRAY CHARITA",
        "tree_dbh": "31",
        "tree_location": "Left side of building",
        "reason_removal": "Unpermitted destruction",
        "tree_description": "Previously destroyed under BA-202602851",
        "tree_number": "50",
        "species": "White Oak",
        "comments": null,
        "tree_count": 4,
        "trees": [
          {
            "tree_number": "50",
            "species": "White Oak",
            "tree_dbh": "31",
            "tree_location": "Left side of building",
            "tree_description": "Previously destroyed under BA-202602851",
            "reason_removal": "Unpermitted destruction",
            "comments": null
          },
          {
            "tree_number": "51",
            "species": "White Oak",
            "tree_dbh": "35",
            "tree_location": "Left side of building",
            "tree_description": "Previously destroyed under BA-202602851",
            "reason_removal": "Unpermitted destruction",
            "comments": null
          },
          {
            "tree_number": "52",
            "species": "Black cherry",
            "tree_dbh": "8",
            "tree_location": "Left side of building",
            "tree_description": "Previously destroyed under BA-202602851",
            "reason_removal": "Unpermitted destruction",
            "comments": null
          },
          {
            "tree_number": "53",
            "species": "White Oak",
            "tree_dbh": "38",
            "tree_location": "Left side of building",
            "tree_description": "Previously destroyed under BA-202602851",
            "reason_removal": "Unpermitted destruction",
            "comments": null
          }
        ]
      },
      "geometry": {
        "type": "Point",
        "coordinates": [
          -84.471912052803,
          33.809921331494
        ]
      }
    },
    {
      "type": "Feature",
      "properties": {
        "record": "BA-202604928",
        "address": "3488 TUXEDO RD NW, ATLANTA GA 30305",
        "status": "ACA Pending",
        "date": "09/24/2026",
        "description": null,
        "owner": "SANDERS BETTY F MRS",
        "tree_dbh": "27",
        "tree_location": "left side of the drive",
        "reason_removal": "Significant cavity/area of decay",
        "tree_description": "Tree presents with two open cavities at 14-17' up on the parent stem, on drive side. No healing or correcting will lower the risk rating of this tree's failure.",
        "tree_number": "480",
        "species": "Water Oak",
        "comments": null,
        "tree_count": 1,
        "trees": [
          {
            "tree_number": "480",
            "species": "Water Oak",
            "tree_dbh": "27",
            "tree_location": "left side of the drive",
            "tree_description": "Tree presents with two open cavities at 14-17' up on the parent stem, on drive side. No healing or correcting will lower the risk rating of this tree's failure.",
            "reason_removal": "Significant cavity/area of decay",
            "comments": null
          }
        ]
      },
      "geometry": {
        "type": "Point",
        "coordinates": [
          -84.405707175679,
          33.850189113923
        ]
      }
    },
    {
      "type": "Feature",
      "properties": {
        "record": "BA-202604938",
        "address": "373 LAKE FORREST LN NE, ATLANTA GA 30342",
        "status": "Issued",
        "date": "09/24/2026",
        "description": "DDH",
        "owner": null,
        "tree_dbh": null,
        "tree_location": null,
        "reason_removal": null,
        "tree_description": null,
        "tree_number": null,
        "species": null,
        "comments": null,
        "tree_count": null,
        "trees": null
      },
      "geometry": {
        "type": "Point",
        "coordinates": [
          -84.386613962328,
          33.87076946236
        ]
      }
    },
    {
      "type": "Feature",
      "properties": {
        "record": "BA-202604918",
        "address": "2203 STAR MIST DR SW, ATLANTA GA 30311",
        "status": "Issued",
        "date": "09/24/2026",
        "description": "DDH",
        "owner": null,
        "tree_dbh": null,
        "tree_location": null,
        "reason_removal": null,
        "tree_description": null,
        "tree_number": null,
        "species": null,
        "comments": null,
        "tree_count": null,
        "trees": null
      },
      "geometry": {
        "type": "Point",
        "coordinates": [
          -84.490896669367,
          33.696439109901
        ]
      }
    }
  ]
}