{
  "type": "FeatureCollection",
  "features": [
    {
      "type": "Feature",
      "properties": {
        "record": "BA-202604736",
        "address": "325 KENDRICK AVE SE, ATLANTA GA 30315",
        "status": "ACA Pending",
        "date": "09/17/2026",
        "description": null,
        "owner": "CHAPAR ALBERT A JR",
        "tree_dbh": "14",
        "tree_location": "left center fenceline",
        "reason_removal": "Uncorrectable defect",
        "tree_description": "black cherry with lost canopy, severe lean toward fence and residence, basal wound on root flare.Reason for Removal:Uncorrectable defectComments:see images\n\t\t\n\t\t\n\t\t\tTree number:2Species:HackberryTree Size (DBH):16Tree location:left rear property cornerDescription of Tree:Hackberry closesest to uphill fence. Lost most of canoy in recent storm failures from neighboring property.Reason for Removal:Uncorrectable defectComments:See images\n\t\t\n\t\n\t\n                                \n                            \n                        \n                    \n                        \n                            \n                                \n                                    \n                                        \n                                         Parcel Information\n                                \n                            \n                            \n                                \n                                    \n\t\tParcel Number:14 00420001021 *Block:--Lot:--Subdivision:--",
        "tree_number": "1",
        "species": "black cherry"
      },
      "geometry": {
        "type": "Point",
        "coordinates": [
          -84.37724108665,
          33.72903484658
        ]
      }
    },
    {
      "type": "Feature",
      "properties": {
        "record": "26TMP-061438",
        "address": "2291 BAYWOOD DR SE, ATLANTA GA 30315",
        "status": "",
        "date": "09/17/2026",
        "description": null,
        "owner": null,
        "tree_dbh": null,
        "tree_location": null,
        "reason_removal": null,
        "tree_description": null,
        "tree_number": null,
        "species": null
      },
      "geometry": {
        "type": "Point",
        "coordinates": [
          -84.388024394547,
          33.691634701859
        ]
      }
    },
    {
      "type": "Feature",
      "properties": {
        "record": "BA-202604750",
        "address": "1648 FERNLEAF CIR NW, ATLANTA GA 30318",
        "status": "ACA Pending",
        "date": "09/17/2026",
        "description": null,
        "owner": "CALVERT JANE M",
        "tree_dbh": "32",
        "tree_location": "front right corner of house",
        "reason_removal": "Other",
        "tree_description": "32\" White Oak, front right corner of house, Declining, Mushrooms at baseReason for Removal:OtherComments:32\" White Oak, front right corner of house, Declining, Mushrooms at base\n\t\t\n\t\t\n\t\t\tTree number:2Species:OakTree Size (DBH):10Tree location:front by streetDescription of Tree:10\" Oak, front by street, leaning excessivelyReason for Removal:OtherComments:10\" Oak, front by street, leaning excessively\n\t\t\n\t\n\t\n                                \n                            \n                        \n                    \n                        \n                            \n                                \n                                    \n                                        \n                                         Parcel Information\n                                \n                            \n                            \n                                \n                                    \n\t\tParcel Number:17 02210003003 *Block:--Lot:--Subdivision:--",
        "tree_number": "1",
        "species": "Oak"
      },
      "geometry": {
        "type": "Point",
        "coordinates": [
          -84.44080288134,
          33.821140928774
        ]
      }
    },
    {
      "type": "Feature",
      "properties": {
        "record": "BA-202604726",
        "address": "2836 OLDKNOW DR NW, ATLANTA GA 30318",
        "status": "Accepted",
        "date": "09/17/2026",
        "description": null,
        "owner": "JEWETT DARA Y",
        "tree_dbh": "48",
        "tree_location": "NUMBER 4 IN RED MARK",
        "reason_removal": "Diseased",
        "tree_description": null,
        "tree_number": "8",
        "species": "PINE"
      },
      "geometry": {
        "type": "Point",
        "coordinates": [
          -84.481144183768,
          33.771743268564
        ]
      }
    },
    {
      "type": "Feature",
      "properties": {
        "record": "BA-202604722",
        "address": "2922 DIANA DR SW, ATLANTA GA 30315",
        "status": "Accepted",
        "date": "09/17/2026",
        "description": null,
        "owner": null,
        "tree_dbh": null,
        "tree_location": null,
        "reason_removal": null,
        "tree_description": null,
        "tree_number": null,
        "species": null
      },
      "geometry": {
        "type": "Point",
        "coordinates": [
          -84.411662209867,
          33.675166671522
        ]
      }
    },
    {
      "type": "Feature",
      "properties": {
        "record": "BA-202604720",
        "address": "945 PROSPECT AVE SE, ATLANTA GA 30316",
        "status": "Accepted",
        "date": "09/17/2026",
        "description": null,
        "owner": null,
        "tree_dbh": null,
        "tree_location": null,
        "reason_removal": null,
        "tree_description": null,
        "tree_number": null,
        "species": null
      },
      "geometry": {
        "type": "Point",
        "coordinates": [
          -84.354626256397,
          33.728407111042
        ]
      }
    },
    {
      "type": "Feature",
      "properties": {
        "record": "BA-202604746",
        "address": "2633 RIDGEMORE RD NW, ATLANTA GA 30318",
        "status": "ACA Pending",
        "date": "09/17/2026",
        "description": null,
        "owner": null,
        "tree_dbh": null,
        "tree_location": null,
        "reason_removal": null,
        "tree_description": null,
        "tree_number": null,
        "species": null
      },
      "geometry": {
        "type": "Point",
        "coordinates": [
          -84.446972185599,
          33.826766174556
        ]
      }
    },
    {
      "type": "Feature",
      "properties": {
        "record": "BA-202604714",
        "address": "40 PEACHTREE HILLS AVE NE, ATLANTA GA 30305",
        "status": "Accepted",
        "date": "09/17/2026",
        "description": null,
        "owner": null,
        "tree_dbh": null,
        "tree_location": null,
        "reason_removal": null,
        "tree_description": null,
        "tree_number": null,
        "species": null
      },
      "geometry": {
        "type": "Point",
        "coordinates": [
          -84.387217090531,
          33.818073057479
        ]
      }
    },
    {
      "type": "Feature",
      "properties": {
        "record": "BA-202604718",
        "address": "734 PONCE DE LEON CT NE, ATLANTA GA 30308",
        "status": "Accepted",
        "date": "09/17/2026",
        "description": null,
        "owner": null,
        "tree_dbh": null,
        "tree_location": null,
        "reason_removal": null,
        "tree_description": null,
        "tree_number": null,
        "species": null
      },
      "geometry": {
        "type": "Point",
        "coordinates": [
          -84.368460050989,
          33.774064095816
        ]
      }
    },
    {
      "type": "Feature",
      "properties": {
        "record": "BA-202604743",
        "address": "500 WESTOVER DR NW, ATLANTA GA 30305",
        "status": "ACA Pending",
        "date": "09/17/2026",
        "description": null,
        "owner": null,
        "tree_dbh": null,
        "tree_location": null,
        "reason_removal": null,
        "tree_description": null,
        "tree_number": null,
        "species": null
      },
      "geometry": {
        "type": "Point",
        "coordinates": [
          -84.404178484602,
          33.826932828141
        ]
      }
    },
    {
      "type": "Feature",
      "properties": {
        "record": "BA-202604741",
        "address": "660 WEST PACES FERRY RD NW, ATLANTA GA 30327",
        "status": "ACA Pending",
        "date": "09/17/2026",
        "description": null,
        "owner": null,
        "tree_dbh": null,
        "tree_location": null,
        "reason_removal": null,
        "tree_description": null,
        "tree_number": null,
        "species": null
      },
      "geometry": {
        "type": "Point",
        "coordinates": [
          -84.40911614383,
          33.847931316081
        ]
      }
    },
    {
      "type": "Feature",
      "properties": {
        "record": "26TMP-061677",
        "address": "4343 CREEK VALLEY CT SW, ATLANTA GA 30331",
        "status": "",
        "date": "09/17/2026",
        "description": null,
        "owner": null,
        "tree_dbh": null,
        "tree_location": null,
        "reason_removal": null,
        "tree_description": null,
        "tree_number": null,
        "species": null
      },
      "geometry": {
        "type": "Point",
        "coordinates": [
          -84.53120147093,
          33.690824311877
        ]
      }
    },
    {
      "type": "Feature",
      "properties": {
        "record": "BA-202604723",
        "address": "1920 DELANO DR NE, ATLANTA GA 30317",
        "status": "Accepted",
        "date": "09/17/2026",
        "description": null,
        "owner": "JACOBS BERT OR JACOBS ELIZABETH",
        "tree_dbh": "22",
        "tree_location": "left rear close to the house",
        "reason_removal": "Other",
        "tree_description": "Tree removalReason for Removal:OtherComments:Dangerous tree near the house. Debris falling from tree.\n\t\t\n\t\n\t\n                                \n                            \n                        \n                    \n                        \n                            \n                                \n                                    \n                                        \n                                         Parcel Information\n                                \n                            \n                            \n                                \n                                    \n\t\tParcel Number:15 211 02 082 *Block:--Lot:--Subdivision:--",
        "tree_number": "1",
        "species": "Oak"
      },
      "geometry": {
        "type": "Point",
        "coordinates": [
          -84.325040454443,
          33.755396857664
        ]
      }
    },
    {
      "type": "Feature",
      "properties": {
        "record": "BA-202604748",
        "address": "457 LYNN VALLEY RD SW, ATLANTA GA 30311",
        "status": "ACA Pending",
        "date": "09/17/2026",
        "description": null,
        "owner": "Trina Chaney",
        "tree_dbh": "70",
        "tree_location": "front yard",
        "reason_removal": "Dead tree",
        "tree_description": "70 feet pine tree with dead branches extending from tree over the public street. Dead branches are breaking off and falling into yard and street.Reason for Removal:Dead tree\n\t\t\n\t\t\n\t\t\tTree number:2Species:PineTree Size (DBH):70Tree location:front yardDescription of Tree:70 feet pine tree with dead branches extending from tree over the public street. Dead branches are breaking off and falling into yard and street.Reason for Removal:Dead tree\n\t\t\n\t\t\n\t\t\tTree number:3Species:PineTree Size (DBH):70Tree location:front yardDescription of Tree:70 feet pine tree with dead branches extending from tree over the public street. Dead branches are breaking off and falling into yard and street.Reason for Removal:Dead tree\n\t\t\n\t\t\n\t\t\tTree number:4Species:PineTree Size (DBH):70Tree location:front yardDescription of Tree:70 feet pine tree with dead branches extending from tree over the public street. Dead branches are breaking off and falling into yard and street.Reason for Removal:Dead tree\n\t\t\n\t\t\n\t\t\tTree number:5Species:PineTree Size (DBH):70Tree location:front yardDescription of Tree:70 feet pine tree with dead branches extending from tree over the public street. Dead branches are breaking off and falling into yard and street. There are also brown beatles on this tree.Reason for Removal:Dead tree\n\t\t\n\t\t\n\t\t\tTree number:6Species:PineTree Size (DBH):70Tree location:front yardDescription of Tree:70 feet pine tree with dead branches extending from tree over the public street. Dead branches are breaking off and falling into yard and street.Reason for Removal:Dead tree\n\t\t\n\t\n\t\n                                \n                            \n                        \n                    \n                        \n                            \n                                \n                                    \n                                        \n                                         Parcel Information\n                                \n                            \n                            \n                                \n                                    \n\t\tParcel Number:14 02140001043 *Block:--Lot:--Subdivision:--",
        "tree_number": "1",
        "species": "Pine"
      },
      "geometry": {
        "type": "Point",
        "coordinates": [
          -84.484641706951,
          33.738292545937
        ]
      }
    },
    {
      "type": "Feature",
      "properties": {
        "record": "BA-202604729",
        "address": "252 POWELL ST SE, ATLANTA GA 30316",
        "status": "Accepted",
        "date": "09/17/2026",
        "description": null,
        "owner": "Michelle Loutoo",
        "tree_dbh": "21",
        "tree_location": "Right front corner of home",
        "reason_removal": "Uncorrectable defect",
        "tree_description": "Too close to foundation, in physical contact with the roofReason for Removal:Uncorrectable defectComments:Ribbon\n\t\t\n\t\n\t\n                                \n                            \n                        \n                    \n                        \n                            \n                                \n                                    \n                                        \n                                         Parcel Information\n                                \n                            \n                            \n                                \n                                    \n\t\tParcel Number:14 00200010085 *Block:--Lot:--Subdivision:--",
        "tree_number": "1",
        "species": "Water Oak"
      },
      "geometry": {
        "type": "Point",
        "coordinates": [
          -84.365617482612,
          33.748113052088
        ]
      }
    },
    {
      "type": "Feature",
      "properties": {
        "record": "26TMP-061441",
        "address": "3033 EAST PINE VALLEY RD NW, ATLANTA GA 30305",
        "status": "",
        "date": "09/17/2026",
        "description": null,
        "owner": null,
        "tree_dbh": null,
        "tree_location": null,
        "reason_removal": null,
        "tree_description": null,
        "tree_number": null,
        "species": null
      },
      "geometry": {
        "type": "Point",
        "coordinates": [
          -84.399547324291,
          33.83818611481
        ]
      }
    },
    {
      "type": "Feature",
      "properties": {
        "record": "BA-202604725",
        "address": "351 8TH ST NE, ATLANTA GA 30309",
        "status": "ACA Pending",
        "date": "09/17/2026",
        "description": null,
        "owner": "CALLAGHAN SUSAN F",
        "tree_dbh": "26",
        "tree_location": "right side of the house",
        "reason_removal": "Unpermitted destruction",
        "tree_description": "Dangerous treeReason for Removal:Unpermitted destruction\n\t\t\n\t\t\n\t\t\tTree number:1Species:oakTree Size (DBH):36Tree location: right side of the houseDescription of Tree:Dangerous treeReason for Removal:Unpermitted destruction\n\t\t\n\t\t\n\t\t\tTree number:1Species:oakTree Size (DBH):34Tree location: right side of the houseDescription of Tree:Dangerous treeReason for Removal:Unpermitted destruction\n\t\t\n\t\n\t\n                                \n                            \n                        \n                    \n                        \n                            \n                                \n                                    \n                                        \n                                         Parcel Information\n                                \n                            \n                            \n                                \n                                    \n\t\tParcel Number:14 00480001024 *Block:--Lot:--Subdivision:--",
        "tree_number": "1",
        "species": "Oak"
      },
      "geometry": {
        "type": "Point",
        "coordinates": [
          -84.375767074541,
          33.779442322239
        ]
      }
    },
    {
      "type": "Feature",
      "properties": {
        "record": "26TMP-061532",
        "address": "749 BRAEMAR AVE SW, ATLANTA GA 30311",
        "status": "",
        "date": "09/17/2026",
        "description": null,
        "owner": null,
        "tree_dbh": null,
        "tree_location": null,
        "reason_removal": null,
        "tree_description": null,
        "tree_number": null,
        "species": null
      },
      "geometry": {
        "type": "Point",
        "coordinates": [
          -84.495322960606,
          33.735051779754
        ]
      }
    },
    {
      "type": "Feature",
      "properties": {
        "record": "BA-202604716",
        "address": "25 CHATSWORTH PL NW, ATLANTA GA 30327",
        "status": "ACA Pending",
        "date": "09/17/2026",
        "description": null,
        "owner": "HEALY MARY C",
        "tree_dbh": "10",
        "tree_location": "Left side of house",
        "reason_removal": "Uncorrectable defect",
        "tree_description": "Hemlock split and landed on the houseReason for Removal:Uncorrectable defect\n\t\t\n\t\n\t\n                                \n                            \n                        \n                    \n                        \n                            \n                                \n                                    \n                                        \n                                         Parcel Information\n                                \n                            \n                            \n                                \n                                    \n\t\tParcel Number:17 01840007029 *Block:--Lot:--Subdivision:--",
        "tree_number": "1",
        "species": "Hemlock"
      },
      "geometry": {
        "type": "Point",
        "coordinates": [
          -84.419440717042,
          33.827686582613
        ]
      }
    },
    {
      "type": "Feature",
      "properties": {
        "record": "BA-202604747",
        "address": "1382 AVON AVE SW, ATLANTA GA 30310",
        "status": "ACA Pending",
        "date": "09/17/2026",
        "description": null,
        "owner": "leonard livsey",
        "tree_dbh": "36",
        "tree_location": "Front yard",
        "reason_removal": "Dead tree",
        "tree_description": "Dead tall pine tree leaning in the direction the houseReason for Removal:Dead tree\n\t\t\n\t\n\t\n                                \n                            \n                        \n                    \n                        \n                            \n                                \n                                    \n                                        \n                                         Parcel Information\n                                \n                            \n                            \n                                \n                                    \n\t\tParcel Number:14 01370002004 *Block:--Lot:--Subdivision:--",
        "tree_number": "1",
        "species": "Pine"
      },
      "geometry": {
        "type": "Point",
        "coordinates": [
          -84.433461768152,
          33.722363043333
        ]
      }
    },
    {
      "type": "Feature",
      "properties": {
        "record": "BA-202604719",
        "address": "3929 NORTH STRATFORD RD NE, ATLANTA GA 30342",
        "status": "ACA Pending",
        "date": "09/17/2026",
        "description": null,
        "owner": "DANNER JUSTIN",
        "tree_dbh": "37",
        "tree_location": "left side behind the house",
        "reason_removal": "Significant cavity/area of decay",
        "tree_description": "Dying oak treeReason for Removal:Significant cavity/area of decay\n\t\t\n\t\t\n\t\t\tTree number:1Species:OakTree Size (DBH):36Tree location:left side behind the houseDescription of Tree:Dying oak treeReason for Removal:Significant cavity/area of decay\n\t\t\n\t\n\t\n                                \n                            \n                        \n                    \n                        \n                            \n                                \n                                    \n                                        \n                                         Parcel Information\n                                \n                            \n                            \n                                \n                                    \n\t\tParcel Number:17 00430004018 *Block:--Lot:--Subdivision:--",
        "tree_number": "1",
        "species": "Oak"
      },
      "geometry": {
        "type": "Point",
        "coordinates": [
          -84.362545266242,
          33.862596459553
        ]
      }
    },
    {
      "type": "Feature",
      "properties": {
        "record": "BA-202604738",
        "address": "1986 WEST PACES FERRY RD NW, ATLANTA GA 30327",
        "status": "ACA Pending",
        "date": "09/17/2026",
        "description": null,
        "owner": "RINZLER MARLENE",
        "tree_dbh": "8",
        "tree_location": "front center",
        "reason_removal": "Dying tree",
        "tree_description": "There is no live canopy on this tree. Multiple Fungal fruiting bodies on trunk. Reason for Removal:Diseased\n\t\t\n\t\t\n\t\t\tTree number:2Species:red oakTree Size (DBH):18Tree location:front left Description of Tree:Roots are exposed on hill side. Heavy lean towards house.",
        "tree_number": "1",
        "species": "red oak"
      },
      "geometry": {
        "type": "Point",
        "coordinates": [
          -84.453302154554,
          33.847543822379
        ]
      }
    },
    {
      "type": "Feature",
      "properties": {
        "record": "26TMP-061443",
        "address": "1680 VENETIAN DR SW, ATLANTA GA 30311",
        "status": "",
        "date": "09/17/2026",
        "description": null,
        "owner": null,
        "tree_dbh": null,
        "tree_location": null,
        "reason_removal": null,
        "tree_description": null,
        "tree_number": null,
        "species": null
      },
      "geometry": {
        "type": "Point",
        "coordinates": [
          -84.442582415302,
          33.714569859717
        ]
      }
    },
    {
      "type": "Feature",
      "properties": {
        "record": "BA-202604721",
        "address": "1010 KATHERWOOD DR SW, ATLANTA GA 30310",
        "status": "ACA Pending",
        "date": "09/17/2026",
        "description": null,
        "owner": "LONG RALPH III",
        "tree_dbh": "11",
        "tree_location": "back right",
        "reason_removal": "Dying tree",
        "tree_description": "Bifurcated, tree cannot be pruned to ISA guidelines in order to achieve proper roof and building clearance Reason for Removal:Dying tree\n\t\t\n\t\n\t\n                                \n                            \n                        \n                    \n                        \n                            \n                                \n                                    \n                                        \n                                         Parcel Information\n                                \n                            \n                            \n                                \n                                    \n\t\tParcel Number:14 01210006003 *Block:--Lot:--Subdivision:--",
        "tree_number": "1",
        "species": "maple"
      },
      "geometry": {
        "type": "Point",
        "coordinates": [
          -84.421391170569,
          33.710447021369
        ]
      }
    },
    {
      "type": "Feature",
      "properties": {
        "record": "BA-202604715",
        "address": "708 FLAT SHOALS AVE SE, ATLANTA GA 30316",
        "status": "ACA Pending",
        "date": "09/17/2026",
        "description": null,
        "owner": "KOCHER RONALD W",
        "tree_dbh": "8",
        "tree_location": "Backyard behind the tiny house",
        "reason_removal": "Invasive/undesirable tree",
        "tree_description": null,
        "tree_number": "1",
        "species": "Alanthus"
      },
      "geometry": {
        "type": "Point",
        "coordinates": [
          -84.341286009852,
          33.735327871577
        ]
      }
    },
    {
      "type": "Feature",
      "properties": {
        "record": "BA-202604734",
        "address": "72 WARREN ST SE, ATLANTA GA 30317",
        "status": "ACA Pending",
        "date": "09/17/2026",
        "description": null,
        "owner": "PRIME PROPERTIES INVESTMENT GROUP LLC",
        "tree_dbh": "32",
        "tree_location": "left rear property corner",
        "reason_removal": "Uncorrectable defect",
        "tree_description": "Tall water oak behind fence and trampoline. Located in old allyway.Reason for Removal:Uncorrectable defectComments:Large recent limb sheding on both sides of trunk. Canopy dieback.",
        "tree_number": "1",
        "species": "Water Oak"
      },
      "geometry": {
        "type": "Point",
        "coordinates": [
          -84.32617390387,
          33.750950353608
        ]
      }
    },
    {
      "type": "Feature",
      "properties": {
        "record": "BA-202604733",
        "address": "740 CLIFTON RD, ATLANTA GA 30307",
        "status": "ACA Pending",
        "date": "09/17/2026",
        "description": null,
        "owner": "DRUID HILLS GOLF CLUB",
        "tree_dbh": "14",
        "tree_location": "in the clubhouse parking lot.",
        "reason_removal": "Dead tree",
        "tree_description": "(dead) (in parking lot)Reason for Removal:Dying tree\n\t\t\n\t\t\n\t\t\tTree number:2Species:mapleTree Size (DBH):14Tree location: in the clubhouse parking lot. Description of Tree:(decline over 50%) (in parking lot)Reason for Removal:Dying tree\n\t\t\n\t\t\n\t\t\tTree number:3Species:dogwoodTree Size (DBH):8Tree location:near entranceDescription of Tree: (Dead) (Near Entrance)Reason for Removal:Dead tree\n\t\t\n\t\t\n\t\t\tTree number:4Species:oakTree Size (DBH):36Tree location:near Ponce De LeonDescription of Tree:(Dead) (Near Clifton Rd)Reason for Removal:Dead tree\n\t\t\n\t\n\t\n                                \n                            \n                        \n                    \n                        \n                            \n                                \n                                    \n                                        \n                                         Parcel Information\n                                \n                            \n                            \n                                \n                                    \n\t\tParcel Number:15 242 01 052 *Block:--Lot:--Subdivision:--",
        "tree_number": "1",
        "species": "maple"
      },
      "geometry": {
        "type": "Point",
        "coordinates": [
          -84.328569514286,
          33.776163100105
        ]
      }
    },
    {
      "type": "Feature",
      "properties": {
        "record": "26TMP-061540",
        "address": "1257 WESTRIDGE RD SW, ATLANTA GA 30311",
        "status": "",
        "date": "09/17/2026",
        "description": null,
        "owner": null,
        "tree_dbh": null,
        "tree_location": null,
        "reason_removal": null,
        "tree_description": null,
        "tree_number": null,
        "species": null
      },
      "geometry": {
        "type": "Point",
        "coordinates": [
          -84.446928763239,
          33.720917876075
        ]
      }
    },
    {
      "type": "Feature",
      "properties": {
        "record": "BA-202604713",
        "address": "969 NORTH ORMEWOOD PARK DR SE, ATLANTA GA 30316",
        "status": "ACA Pending",
        "date": "09/17/2026",
        "description": null,
        "owner": "HEDGEWOOD PROPERTIES INC",
        "tree_dbh": "10",
        "tree_location": "side",
        "reason_removal": "Other",
        "tree_description": "within 5' of structureReason for Removal:Other\n\t\t\n\t\t\n\t\t\tTree number:2Species:MapleTree Size (DBH):10Tree location:sideDescription of Tree:Within 5' of structureReason for Removal:Other\n\t\t\n\t\t\n\t\t\tTree number:3Species:MapleTree Size (DBH):10Tree location:sideDescription of Tree:Within 5 ft of structureReason for Removal:Other\n\t\t\n\t\n\t\n                                \n                            \n                        \n                    \n                        \n                            \n                                \n                                    \n                                        \n                                         Parcel Information\n                                \n                            \n                            \n                                \n                                    \n\t\tParcel Number:14 00120006211 *Block:--Lot:--Subdivision:--",
        "tree_number": "1",
        "species": "Maple"
      },
      "geometry": {
        "type": "Point",
        "coordinates": [
          -84.3552998793,
          33.74311939246
        ]
      }
    },
    {
      "type": "Feature",
      "properties": {
        "record": "26TMP-061432",
        "address": "3478 FAIRLANE DR NW, ATLANTA GA 30331",
        "status": "",
        "date": "09/17/2026",
        "description": null,
        "owner": null,
        "tree_dbh": null,
        "tree_location": null,
        "reason_removal": null,
        "tree_description": null,
        "tree_number": null,
        "species": null
      },
      "geometry": {
        "type": "Point",
        "coordinates": [
          -84.501169840984,
          33.766865270352
        ]
      }
    },
    {
      "type": "Feature",
      "properties": {
        "record": "BA-202604742",
        "address": "4441 SKYLAND DR NE, ATLANTA GA 30342",
        "status": "ACA Pending",
        "date": "09/17/2026",
        "description": null,
        "owner": "DALTON SUZANNE V",
        "tree_dbh": "36",
        "tree_location": "towards home",
        "reason_removal": "Dying tree",
        "tree_description": "Decay in root crown / Bacterial infection in lower trunk / weight displacement towards homeReason for Removal:Dying tree\n\t\t\n\t\n\t\n                                \n                            \n                        \n                    \n                        \n                            \n                                \n                                    \n                                        \n                                         Parcel Information\n                                \n                            \n                            \n                                \n                                    \n\t\tParcel Number:17 00650008018 *Block:--Lot:--Subdivision:--",
        "tree_number": "1",
        "species": "red oak"
      },
      "geometry": {
        "type": "Point",
        "coordinates": [
          -84.368939860419,
          33.875406196145
        ]
      }
    },
    {
      "type": "Feature",
      "properties": {
        "record": "BA-202604740",
        "address": "749 BRAEMAR AVE SW, ATLANTA GA 30311",
        "status": "ACA Pending",
        "date": "09/17/2026",
        "description": null,
        "owner": "Susan Beckett Mitchell",
        "tree_dbh": "4",
        "tree_location": "Left side",
        "reason_removal": "Dead tree",
        "tree_description": null,
        "tree_number": "1",
        "species": "Boxelder"
      },
      "geometry": {
        "type": "Point",
        "coordinates": [
          -84.495322960606,
          33.735051779754
        ]
      }
    },
    {
      "type": "Feature",
      "properties": {
        "record": "BA-202604739",
        "address": "4362 NORTH BUCKHEAD DR NE, LOT 28, ATLANTA GA 30342",
        "status": "ACA Pending",
        "date": "09/17/2026",
        "description": null,
        "owner": null,
        "tree_dbh": "25",
        "tree_location": "Left rear side of property when facing the house from the street, along/near the property line shared with the neighboring property.",
        "reason_removal": "Other",
        "tree_description": "Large, mature tree located near the property line.Reason for Removal:OtherComments:I have a very tall tree near our property line, and my neighbor recently contacted me because she noticed that it was” swaying“ during one of the recent storms. Because of its size and location, she is concerned that it could potentially reach her house if it were ever to fall. Some pictures are attached. She had a certified arborist take a look at it, and my understanding is that he did not believe the tree was dead and indicated that removal would require approval from the City. I certainly want to address it if the tree is unhealthy or presents a safety concern, but I also don’t want to remove a healthy tree unnecessarily. Would you be able to come by and inspect it and let me know the City’s assessment of its condition and whether you believe it qualifies as dead, dying, or hazardous?\n\t\t\n\t\n\t\n                                \n                            \n                        \n                    \n                        \n                            \n                                \n                                    \n                                        \n                                         Parcel Information\n                                \n                            \n                            \n                                \n                                    \n\t\tParcel Number:17 0042  LL095 *Block:--Lot:--Subdivision:--",
        "tree_number": "1",
        "species": "Unknown"
      },
      "geometry": {
        "type": "Point",
        "coordinates": [
          -84.366489179253,
          33.877661545263
        ]
      }
    },
    {
      "type": "Feature",
      "properties": {
        "record": "BA-202604731",
        "address": "485 HILLSIDE DR NW, ATLANTA GA 30342",
        "status": "ACA Pending",
        "date": "09/17/2026",
        "description": null,
        "owner": null,
        "tree_dbh": "12",
        "tree_location": "right side",
        "reason_removal": "Dying tree",
        "tree_description": "This tree has no live canopy. Reason for Removal:Dying tree\n\t\t\n\t\n\t\n                                \n                            \n                        \n                    \n                        \n                            \n                                \n                                    \n                                        \n                                         Parcel Information\n                                \n                            \n                            \n                                \n                                    \n\t\tParcel Number:17 0139  LL038 *Block:--Lot:--Subdivision:--",
        "tree_number": "1",
        "species": "holly"
      },
      "geometry": {
        "type": "Point",
        "coordinates": [
          -84.40314108583,
          33.868948799578
        ]
      }
    },
    {
      "type": "Feature",
      "properties": {
        "record": "26TMP-055935",
        "address": "1680 VENETIAN DR SW, ATLANTA GA 30311",
        "status": "",
        "date": "09/17/2026",
        "description": null,
        "owner": null,
        "tree_dbh": null,
        "tree_location": null,
        "reason_removal": null,
        "tree_description": null,
        "tree_number": null,
        "species": null
      },
      "geometry": {
        "type": "Point",
        "coordinates": [
          -84.442582415302,
          33.714569859717
        ]
      }
    },
    {
      "type": "Feature",
      "properties": {
        "record": "BA-202604728",
        "address": "382 GREENDALE DR SE, ATLANTA GA 30315",
        "status": "ACA Pending",
        "date": "09/17/2026",
        "description": null,
        "owner": "Habitat for Humanity",
        "tree_dbh": "67",
        "tree_location": "Front center",
        "reason_removal": "Dying tree",
        "tree_description": "Triple trunk tree with leanReason for Removal:Other\n\t\t\n\t\t\n\t\t\tTree number:2Species:HardwoodTree Size (DBH):15Tree location:Left side of property Description of Tree:Tree has extreme leanReason for Removal:Other\n\t\t\n\t\t\n\t\t\tTree number:3Species:HardwoodTree Size (DBH):11Tree location:MiddleReason for Removal:Dying tree\n\t\t\n\t\t\n\t\t\tTree number:4Species:HardwoodTree Size (DBH):26Tree location:MiddleReason for Removal:Significant cavity/area of decay\n\t\t\n\t\t\n\t\t\tTree number:5Species:HardwoodTree Size (DBH):7Tree location:MiddleReason for Removal:Dying tree\n\t\t\n\t\t\n\t\t\tTree number:6Species:HardwoodTree Size (DBH):25Tree location:Middle/rightDescription of Tree:Split trunk tree with heavy leanReason for Removal:Other\n\t\t\n\t\t\n\t\t\tTree number:7Species:HardwoodTree Size (DBH):22Tree location:MiddleDescription of Tree:Fungal growth and cavity with decayReason for Removal:Diseased\n\t\t\n\t\t\n\t\t\tTree number:8Species:HardwoodTree Size (DBH):27Tree location:Middle/rightDescription of Tree:Double trunk tree with one of the trunks being completely dead and the canopy has broken off.Reason for Removal:Dying tree\n\t\t\n\t\n\t\n                                \n                            \n                        \n                    \n                        \n                            \n                                \n                                    \n                                        \n                                         Parcel Information\n                                \n                            \n                            \n                                \n                                    \n\t\tParcel Number:14 00390007096 *Block:--Lot:--Subdivision:--",
        "tree_number": "1",
        "species": "Oak"
      },
      "geometry": {
        "type": "Point",
        "coordinates": [
          -84.376529297813,
          33.699316362402
        ]
      }
    },
    {
      "type": "Feature",
      "properties": {
        "record": "BA-202604724",
        "address": "1307 WESLEY PL NW, ATLANTA GA 30327",
        "status": "ACA Pending",
        "date": "09/17/2026",
        "description": null,
        "owner": null,
        "tree_dbh": "24",
        "tree_location": "left driveway",
        "reason_removal": "Dying tree",
        "tree_description": "This tree is pushing on the retaining wall causing it to crack and lean. Reason for Removal:Dying tree\n\t\t\n\t\t\n\t\t\tTree number:2Species:tulip poplarTree Size (DBH):21Tree location:left drivewayDescription of Tree:This tree is pushing on the retaining wall causing it to crack and lean.Reason for Removal:Dying tree\n\t\t\n\t\n\t\n                                \n                            \n                        \n                    \n                        \n                            \n                                \n                                    \n                                        \n                                         Parcel Information\n                                \n                            \n                            \n                                \n                                    \n\t\tParcel Number:17 0196  LL203 *Block:--Lot:--Subdivision:--",
        "tree_number": "1",
        "species": "tulip poplar"
      },
      "geometry": {
        "type": "Point",
        "coordinates": [
          -84.430456343692,
          33.835703844405
        ]
      }
    },
    {
      "type": "Feature",
      "properties": {
        "record": "BA-202604732",
        "address": "862 BROOKRIDGE DR NE, ATLANTA GA 30306",
        "status": "Accepted",
        "date": "09/17/2026",
        "description": null,
        "owner": null,
        "tree_dbh": "46",
        "tree_location": "Left driveway behind utility lines.",
        "reason_removal": "Uncorrectable defect",
        "tree_description": "The tree experienced a major leader failure approximately halfway up the canopy, resulting in a significantly unbalanced crown. The tree exhibits a 20% lean toward the roadway and adjacent utility lines, increasing the potential for future branch or whole-tree failure. The site provides only approximately 15-20% available soil space due to surrounding pavement, including the roadway and driveways.Reason for Removal:Uncorrectable defectComments:Tree experienced a major structural failure, broken leader and branches, on 9/14/26 or 9/15/26. Georgia power removed the debris in the road and cleared broken limbs from utility lines. \n\t\t\n\t\n\t\n                                \n                            \n                        \n                    \n                        \n                            \n                                \n                                    \n                                        \n                                         Parcel Information\n                                \n                            \n                            \n                                \n                                    \n\t\tParcel Number:17 00530002031 *Block:--Lot:--Subdivision:--",
        "tree_number": "1",
        "species": "Water oak"
      },
      "geometry": {
        "type": "Point",
        "coordinates": [
          -84.359581047801,
          33.785150875187
        ]
      }
    },
    {
      "type": "Feature",
      "properties": {
        "record": "BA-202604745",
        "address": "1485 LANIER PL NE, ATLANTA GA 30306",
        "status": "ACA Pending",
        "date": "09/17/2026",
        "description": null,
        "owner": null,
        "tree_dbh": "32",
        "tree_location": "backyard - right side - see other attachment",
        "reason_removal": "Dying tree",
        "tree_description": "The tree is a 32” diameter white oak (Quercus alba) with an estimated height of 112 feet and an approximate\n50-foot spread. The tree is located in the rear of the property, back right side. The tree was marked with lime\ngreen flagging tape.Reason for Removal:Dying tree\n\t\t\n\t\n\t\n                                \n                            \n                        \n                    \n                        \n                            \n                                \n                                    \n                                        \n                                         Parcel Information\n                                \n                            \n                            \n                                \n                                    \n\t\tParcel Number:17 00020003048 *Block:--Lot:--Subdivision:--",
        "tree_number": "1",
        "species": "white oak"
      },
      "geometry": {
        "type": "Point",
        "coordinates": [
          -84.354283755832,
          33.793631172485
        ]
      }
    },
    {
      "type": "Feature",
      "properties": {
        "record": "BA-202604737",
        "address": "1394 BOULEVARD LORRAINE SW, ATLANTA GA 30311",
        "status": "ACA Pending",
        "date": "09/17/2026",
        "description": null,
        "owner": null,
        "tree_dbh": "28",
        "tree_location": "Front yard",
        "reason_removal": "Dead tree",
        "tree_description": "Several dead trees are located on my property and need to be removed due to their deteriorated condition and safety concerns. Several branches have already fallen and damaged my home, resulting in roof damage and water intrusion/flooding inside the house. The damage was significant enough that I had to replace the roof. I am requesting a permit to professionally remove the identified dead trees to prevent further property damage and safety hazardsReason for Removal:Dead treeComments:Several dead trees are located on my property and need to be removed due to their deteriorated condition and safety concerns. Several branches have already fallen and damaged my home, resulting in roof damage and water intrusion/flooding inside the house. The damage was significant enough that I had to replace the roof. I am requesting a permit to professionally remove the identified dead trees to prevent further property damage and safety hazards\n\t\t\n\t\n\t\n                                \n                            \n                        \n                    \n                        \n                            \n                                \n                                    \n                                        \n                                         Parcel Information\n                                \n                            \n                            \n                                \n                                    \n\t\tParcel Number:14 01840010021 *Block:--Lot:--Subdivision:--",
        "tree_number": "123",
        "species": "oak"
      },
      "geometry": {
        "type": "Point",
        "coordinates": [
          -84.457857569653,
          33.717786667943
        ]
      }
    },
    {
      "type": "Feature",
      "properties": {
        "record": "BA-202604735",
        "address": "1880 BAYBERRY DR SW, ATLANTA GA 30311",
        "status": "Accepted",
        "date": "09/17/2026",
        "description": "Dead dog wood tree and hazardous tree hanging half way over the house.",
        "owner": null,
        "tree_dbh": "0",
        "tree_location": "HANGING HALF WAY OVER HOUSE",
        "reason_removal": "Other",
        "tree_description": null,
        "tree_number": "1",
        "species": "DOG WOOD"
      },
      "geometry": {
        "type": "Point",
        "coordinates": [
          -84.449036719998,
          33.715907605513
        ]
      }
    },
    {
      "type": "Feature",
      "properties": {
        "record": "BA-202604730",
        "address": "1474 NISKEY LAKE TRL SW, ATLANTA GA 30331",
        "status": "Issued",
        "date": "09/17/2026",
        "description": "DDH",
        "owner": null,
        "tree_dbh": null,
        "tree_location": null,
        "reason_removal": null,
        "tree_description": null,
        "tree_number": null,
        "species": null
      },
      "geometry": {
        "type": "Point",
        "coordinates": [
          -84.5308948499,
          33.715384709775
        ]
      }
    },
    {
      "type": "Feature",
      "properties": {
        "record": "BA-202604717",
        "address": "683 STOKESWOOD AVE SE, ATLANTA GA 30316",
        "status": "Accepted",
        "date": "09/17/2026",
        "description": null,
        "owner": "FREEMAN JEANNETTE",
        "tree_dbh": "37",
        "tree_location": "Left side of backyard",
        "reason_removal": "Uncorrectable defect",
        "tree_description": "Phytopthera Canker, large limb failures resulting in property damage. Tree was heavily spiked when pruned last timeReason for Removal:Uncorrectable defectComments:Orange paint\n\t\t\n\t\t\n\t\t\tTree number:2Species:BlackgumTree Size (DBH):10Tree location:Left side of backyardDescription of Tree:growing out of base of Water Oak and will have to be removed during Water Oak removalReason for Removal:Uncorrectable defectComments:Orange paint\n\t\t\n\t\n\t\n                                \n                            \n                        \n                    \n                        \n                            \n                                \n                                    \n                                        \n                                         Parcel Information\n                                \n                            \n                            \n                                \n                                    \n\t\tParcel Number:15 176 03 022 *Block:--Lot:--Subdivision:--",
        "tree_number": "1",
        "species": "Blackgum"
      },
      "geometry": {
        "type": "Point",
        "coordinates": [
          -84.344762855424,
          33.735481931572
        ]
      }
    }
  ]
}