{
  "type": "FeatureCollection",
  "features": [
    {
      "type": "Feature",
      "properties": {
        "record": "BA-202604570",
        "address": "3077 PEACHTREE DR NE, ATLANTA GA 30305",
        "status": "ACA Pending",
        "date": "09/10/2026",
        "description": null,
        "owner": "ALLEN E SANDERS",
        "tree_dbh": "26",
        "tree_location": "Front Yard",
        "reason_removal": "Dying tree",
        "tree_description": "Large fungus growth at root crown. Dieback Reason for Removal:Dying tree\n\t\t\n\t\n\t\n                                \n                            \n                        \n                    \n                        \n                            \n                                \n                                    \n                                        \n                                         Parcel Information\n                                \n                            \n                            \n                                \n                                    \n\t\tParcel Number:17 00460011005 *Block:--Lot:--Subdivision:--",
        "tree_number": "1",
        "species": "Oak"
      },
      "geometry": {
        "type": "Point",
        "coordinates": [
          -84.366310260914,
          33.838885798913
        ]
      }
    },
    {
      "type": "Feature",
      "properties": {
        "record": "BA-202604566",
        "address": "130 PEACHTREE BATTLE AVE NW, ATLANTA GA 30305",
        "status": "ACA Pending",
        "date": "09/10/2026",
        "description": null,
        "owner": null,
        "tree_dbh": null,
        "tree_location": null,
        "reason_removal": null,
        "tree_description": null,
        "tree_number": null,
        "species": null
      },
      "geometry": {
        "type": "Point",
        "coordinates": [
          -84.392014283011,
          33.820847413092
        ]
      }
    },
    {
      "type": "Feature",
      "properties": {
        "record": "BA-202604557",
        "address": "145 BRIGHTON RD NE, ATLANTA GA 30309",
        "status": "ACA Pending",
        "date": "09/10/2026",
        "description": null,
        "owner": null,
        "tree_dbh": null,
        "tree_location": null,
        "reason_removal": null,
        "tree_description": null,
        "tree_number": null,
        "species": null
      },
      "geometry": {
        "type": "Point",
        "coordinates": [
          -84.38793719177,
          33.809715691554
        ]
      }
    },
    {
      "type": "Feature",
      "properties": {
        "record": "BA-202604576",
        "address": "531 SPRING VALLEY RD NW, ATLANTA GA 30318",
        "status": "ACA Pending",
        "date": "09/10/2026",
        "description": null,
        "owner": null,
        "tree_dbh": null,
        "tree_location": null,
        "reason_removal": null,
        "tree_description": null,
        "tree_number": null,
        "species": null
      },
      "geometry": {
        "type": "Point",
        "coordinates": [
          -84.405997970386,
          33.80938025425
        ]
      }
    },
    {
      "type": "Feature",
      "properties": {
        "record": "26TMP-059917",
        "address": "1421 WESLEY WALK NW, ATLANTA GA 30327",
        "status": "",
        "date": "09/10/2026",
        "description": null,
        "owner": null,
        "tree_dbh": null,
        "tree_location": null,
        "reason_removal": null,
        "tree_description": null,
        "tree_number": null,
        "species": null
      },
      "geometry": {
        "type": "Point",
        "coordinates": [
          -84.430282772784,
          33.83681984416
        ]
      }
    },
    {
      "type": "Feature",
      "properties": {
        "record": "BA-202604564",
        "address": "1344 OAKCREST DR SW, ATLANTA GA 30311",
        "status": "ACA Pending",
        "date": "09/10/2026",
        "description": null,
        "owner": null,
        "tree_dbh": "27",
        "tree_location": "right rear of the house",
        "reason_removal": "Other",
        "tree_description": null,
        "tree_number": "1",
        "species": "pine"
      },
      "geometry": {
        "type": "Point",
        "coordinates": [
          -84.495208114071,
          33.723460235596
        ]
      }
    },
    {
      "type": "Feature",
      "properties": {
        "record": "BA-202604578",
        "address": "395 WHITMORE DR NW, ATLANTA GA 30305",
        "status": "ACA Pending",
        "date": "09/10/2026",
        "description": null,
        "owner": null,
        "tree_dbh": "40",
        "tree_location": "Front left",
        "reason_removal": "Other",
        "tree_description": "Picture of treeReason for Removal:OtherComments:- severely storm damaged, utility clean up most of breaks. \n\t\t\n\t\n\t\n                                \n                            \n                        \n                    \n                        \n                            \n                                \n                                    \n                                        \n                                         Parcel Information\n                                \n                            \n                            \n                                \n                                    \n\t\tParcel Number:17 01450001052 *Block:--Lot:--Subdivision:--",
        "tree_number": "1",
        "species": "White Oak"
      },
      "geometry": {
        "type": "Point",
        "coordinates": [
          -84.401163255432,
          33.818949469069
        ]
      }
    },
    {
      "type": "Feature",
      "properties": {
        "record": "BA-202604554",
        "address": "485 KINGSWOOD LN NW, ATLANTA GA 30305",
        "status": "ACA Pending",
        "date": "09/10/2026",
        "description": null,
        "owner": "LEWANDOWSKI CLIFFORD",
        "tree_dbh": "23",
        "tree_location": "backyard on the left",
        "reason_removal": "Dead tree",
        "tree_description": "red tapeReason for Removal:Dead treeComments:Dead pine tree\n\t\t\n\t\n\t\n                                \n                            \n                        \n                    \n                        \n                            \n                                \n                                    \n                                        \n                                         Parcel Information\n                                \n                            \n                            \n                                \n                                    \n\t\tParcel Number:17 01430004002 *Block:--Lot:--Subdivision:--",
        "tree_number": "1",
        "species": "pine"
      },
      "geometry": {
        "type": "Point",
        "coordinates": [
          -84.403625622937,
          33.832471974657
        ]
      }
    },
    {
      "type": "Feature",
      "properties": {
        "record": "BA-202604563",
        "address": "764 LULLWATER RD NE, ATLANTA GA 30307",
        "status": "ACA Pending",
        "date": "09/10/2026",
        "description": null,
        "owner": "Julia Scott",
        "tree_dbh": "48",
        "tree_location": "Front",
        "reason_removal": "Dead tree",
        "tree_description": "fruiting bodies on the trunk, decay in trunkReason for Removal:Significant cavity/area of decayComments:Orange dot\n\t\t\n\t\t\n\t\t\tTree number:2Species:HardwoodTree Size (DBH):10Tree location:RearDescription of Tree:DeadReason for Removal:Dead treeComments:Orange dot\n\t\t\n\t\n\t\n                                \n                            \n                        \n                    \n                        \n                            \n                                \n                                    \n                                        \n                                         Parcel Information\n                                \n                            \n                            \n                                \n                                    \n\t\tParcel Number:15 242 01 005 *Block:--Lot:--Subdivision:--",
        "tree_number": "1",
        "species": "Hardwood"
      },
      "geometry": {
        "type": "Point",
        "coordinates": [
          -84.336533349149,
          33.775755541807
        ]
      }
    },
    {
      "type": "Feature",
      "properties": {
        "record": "BA-202604584",
        "address": "1247 ORMEWOOD AVE SE, ATLANTA GA 30316",
        "status": "ACA Pending",
        "date": "09/10/2026",
        "description": null,
        "owner": "Andrew Chen",
        "tree_dbh": "24",
        "tree_location": "Front yard",
        "reason_removal": "Dying tree",
        "tree_description": "24\" Dying Sweetgum with extensive decay around the base.Reason for Removal:Dying tree\n\t\t\n\t\n\t\n                                \n                            \n                        \n                    \n                        \n                            \n                                \n                                    \n                                        \n                                         Parcel Information\n                                \n                            \n                            \n                                \n                                    \n\t\tParcel Number:15 176 03 114 *Block:--Lot:--Subdivision:--",
        "tree_number": "1",
        "species": "Sweetgum"
      },
      "geometry": {
        "type": "Point",
        "coordinates": [
          -84.347214479705,
          33.734006784317
        ]
      }
    },
    {
      "type": "Feature",
      "properties": {
        "record": "BA-202604585",
        "address": "1809 DEFOOR AVE NW, ATLANTA GA 30318",
        "status": "ACA Pending",
        "date": "09/10/2026",
        "description": null,
        "owner": "ARCHIPPE MBEMBO",
        "tree_dbh": "26",
        "tree_location": "See Tree #3 on submitted survey",
        "reason_removal": "Other",
        "tree_description": "26-inch pine located within/adjacent to previously demolished area. Root zone/site conditions were affected by demolition activity.Reason for Removal:OtherComments:Tree is leaning toward the neighboring residence and presents a potential hazard to the adjacent structure and the street where it is leaning towards. Root zone was also affected by prior demolition/site disturbance. Removal requested under DDH.\n\t\t\n\t\t\n\t\t\tTree number:3Species:HardwoodTree Size (DBH):29Tree location:See Tree #3 on submitted surveyDescription of Tree:29-inch hardwood located within/adjacent to previously demolished area. Root zone/site conditions were affected by demolition activity.Reason for Removal:OtherComments:Tree is leaning toward the neighboring residence and presents a potential hazard to the adjacent structure. Root zone was also affected by prior demolition/site disturbance. Removal requested under DDH.\n\t\t\n\t\n\t\n                                \n                            \n                        \n                    \n                        \n                            \n                                \n                                    \n                                        \n                                         Parcel Information\n                                \n                            \n                            \n                                \n                                    \n\t\tParcel Number:17 01860005028 *Block:--Lot:--Subdivision:--",
        "tree_number": "2",
        "species": "Pine"
      },
      "geometry": {
        "type": "Point",
        "coordinates": [
          -84.422088320901,
          33.804795530528
        ]
      }
    },
    {
      "type": "Feature",
      "properties": {
        "record": "BA-202604558",
        "address": "2660 WEST WESLEY RD NW, ATLANTA GA 30327",
        "status": "ACA Pending",
        "date": "09/10/2026",
        "description": null,
        "owner": "Kevin Brown",
        "tree_dbh": "28",
        "tree_location": "Front right next to pool equipment",
        "reason_removal": "Uncorrectable defect",
        "tree_description": "Significant lean, see attached TRA alsoReason for Removal:Uncorrectable defectComments:Orange dot\n\t\t\n\t\n\t\n                                \n                            \n                        \n                    \n                        \n                            \n                                \n                                    \n                                        \n                                         Parcel Information\n                                \n                            \n                            \n                                \n                                    \n\t\tParcel Number:17 0233  LL077 *Block:--Lot:--Subdivision:--",
        "tree_number": "1",
        "species": "Pine"
      },
      "geometry": {
        "type": "Point",
        "coordinates": [
          -84.44800710146,
          33.842972192702
        ]
      }
    },
    {
      "type": "Feature",
      "properties": {
        "record": "BA-202604586",
        "address": "2099 MCKINLEY RD NW, ATLANTA GA 30318",
        "status": "ACA Pending",
        "date": "09/10/2026",
        "description": null,
        "owner": "Kristopher Gilliland",
        "tree_dbh": "23",
        "tree_location": "Left side back yard along fence",
        "reason_removal": "Uncorrectable defect",
        "tree_description": "Loblolly Pine, leaning toward adjacent property, canker toward top of trunkReason for Removal:Uncorrectable defect\n\t\t\n\t\t\n\t\t\tTree number:2Species:Loblolly PineTree Size (DBH):25.2Tree location:Back Center behind retaining wallDescription of Tree:Significant Lean on crown, hazard for ice stormReason for Removal:Uncorrectable defect\n\t\t\n\t\t\n\t\t\tTree number:3Species:Loblolly PineTree Size (DBH):20.5Tree location:Back center behind retaining wallDescription of Tree:three Burls along trunk, excretingReason for Removal:Uncorrectable defect\n\t\t\n\t\t\n\t\t\tTree number:4Species:Tulip PoplarTree Size (DBH):37.6Tree location:Back left behind retaining wallDescription of Tree:Large, good branch structureReason for Removal:OtherComments:large limb broke off in last weekends storms which is common on Tulip Poplar trees, large wound on back side from another tree falling on it previously (photo wouldn't load), wound naturally compartmentalized, I don't see enough to justify removal but told homeowner I would add it on\n\t\t\n\t\t\n\t\t\tTree number:5Species:HackberryTree Size (DBH):26.3Tree location:Left side back yard along fenceDescription of Tree:Tree looks beautiful and healthy aside from the Reason for Removal:Uncorrectable defectComments:See photos of the open crack along crotch, homeowner has Boutte doing subsurface injections as well as soil flushes for aphid treatments, could possible cable the tree he is worried it may split onto pool\n\t\t\n\t\n\t\n                                \n                            \n                        \n                    \n                        \n                            \n                                \n                                    \n                                        \n                                         Parcel Information\n                                \n                            \n                            \n                                \n                                    \n\t\tParcel Number:17 01530002008 *Block:--Lot:--Subdivision:--",
        "tree_number": "1",
        "species": "Loblolly Pine"
      },
      "geometry": {
        "type": "Point",
        "coordinates": [
          -84.411857298917,
          33.812778231818
        ]
      }
    },
    {
      "type": "Feature",
      "properties": {
        "record": "BA-202604571",
        "address": "1421 WESLEY WALK NW, ATLANTA GA 30327",
        "status": "ACA Pending",
        "date": "09/10/2026",
        "description": null,
        "owner": null,
        "tree_dbh": "36",
        "tree_location": "backyard",
        "reason_removal": "Diseased",
        "tree_description": "large oak, darkened areas of trunk, large holes in trunk, dead limbsReason for Removal:Diseased\n\t\t\n\t\n\t\n                                \n                            \n                        \n                    \n                        \n                            \n                                \n                                    \n                                        \n                                         Parcel Information\n                                \n                            \n                            \n                                \n                                    \n\t\tParcel Number:17 01960003011 *Block:--Lot:--Subdivision:--",
        "tree_number": "1",
        "species": "oak"
      },
      "geometry": {
        "type": "Point",
        "coordinates": [
          -84.430282772784,
          33.83681984416
        ]
      }
    },
    {
      "type": "Feature",
      "properties": {
        "record": "26TMP-059793",
        "address": "687 NORFLEET RD NW, ATLANTA GA 30305",
        "status": "",
        "date": "09/10/2026",
        "description": null,
        "owner": null,
        "tree_dbh": null,
        "tree_location": null,
        "reason_removal": null,
        "tree_description": null,
        "tree_number": null,
        "species": null
      },
      "geometry": {
        "type": "Point",
        "coordinates": [
          -84.410643631933,
          33.811604458528
        ]
      }
    },
    {
      "type": "Feature",
      "properties": {
        "record": "BA-202604569",
        "address": "3543 WOODHAVEN RD NW, ATLANTA GA 30305",
        "status": "ACA Pending",
        "date": "09/10/2026",
        "description": null,
        "owner": "PRINCE LARRY L",
        "tree_dbh": "14",
        "tree_location": "backyard",
        "reason_removal": "Dead tree",
        "tree_description": null,
        "tree_number": "1",
        "species": "Oak"
      },
      "geometry": {
        "type": "Point",
        "coordinates": [
          -84.399386178463,
          33.850414006102
        ]
      }
    },
    {
      "type": "Feature",
      "properties": {
        "record": "BA-202604559",
        "address": "41 MUSCOGEE AVE NW, ATLANTA GA 30305",
        "status": "ACA Pending",
        "date": "09/10/2026",
        "description": null,
        "owner": null,
        "tree_dbh": "25",
        "tree_location": "front right",
        "reason_removal": "Dead tree",
        "tree_description": "Picture of treeReason for Removal:Dead treeComments:DDH\n\t\t\n\t\n\t\n                                \n                            \n                        \n                    \n                        \n                            \n                                \n                                    \n                                        \n                                         Parcel Information\n                                \n                            \n                            \n                                \n                                    \n\t\tParcel Number:17 01120002025 *Block:--Lot:--Subdivision:--",
        "tree_number": "1",
        "species": "Hickory"
      },
      "geometry": {
        "type": "Point",
        "coordinates": [
          -84.390314100434,
          33.824860388123
        ]
      }
    },
    {
      "type": "Feature",
      "properties": {
        "record": "26TMP-059867",
        "address": "1095 SIMS ST SW, ATLANTA GA 30310",
        "status": "",
        "date": "09/10/2026",
        "description": null,
        "owner": null,
        "tree_dbh": null,
        "tree_location": null,
        "reason_removal": null,
        "tree_description": null,
        "tree_number": null,
        "species": null
      },
      "geometry": {
        "type": "Point",
        "coordinates": [
          -84.403252836318,
          33.724930650653
        ]
      }
    },
    {
      "type": "Feature",
      "properties": {
        "record": "BA-202604561",
        "address": "3365 VALLEY RD NW, ATLANTA GA 30305",
        "status": "ACA Pending",
        "date": "09/10/2026",
        "description": null,
        "owner": "GRANT JOHN W",
        "tree_dbh": "13",
        "tree_location": "front left of property",
        "reason_removal": "Dying tree",
        "tree_description": "Dying tulip poplar \n50 percent of canopy is dead Reason for Removal:Dying tree\n\t\t\n\t\n\t\n                                \n                            \n                        \n                    \n                        \n                            \n                                \n                                    \n                                        \n                                         Parcel Information\n                                \n                            \n                            \n                                \n                                    \n\t\tParcel Number:17 00980004027 *Block:--Lot:--Subdivision:--",
        "tree_number": "1",
        "species": "Tulip Poplar"
      },
      "geometry": {
        "type": "Point",
        "coordinates": [
          -84.384304731802,
          33.846284254336
        ]
      }
    },
    {
      "type": "Feature",
      "properties": {
        "record": "BA-202604567",
        "address": "1660 NORTH DECATUR RD NE, ATLANTA GA",
        "status": "ACA Pending",
        "date": "09/10/2026",
        "description": null,
        "owner": "Emory University",
        "tree_dbh": "21",
        "tree_location": "1660 N. decatur Road",
        "reason_removal": "Other",
        "tree_description": ">15 degree lean; HVAC chiller in target area as well as Church school playground. Reason for Removal:OtherComments:Tree is located east side of Church in the back in wooded area located on Fishburne drive.  Look for green metal chiller cover and school playground\n\t\t\n\t\n\t\n                                \n                            \n                        \n                    \n                        \n                            \n                                \n                                    \n                                        \n                                         Parcel Information\n                                \n                            \n                            \n                                \n                                    \n\t\tParcel Number:18 053 01 001 *Block:--Lot:--Subdivision:--",
        "tree_number": "1",
        "species": "Liriodendron tulipifera"
      },
      "geometry": {
        "type": "Point",
        "coordinates": [
          -84.322696214105,
          33.788463332889
        ]
      }
    },
    {
      "type": "Feature",
      "properties": {
        "record": "BA-202604565",
        "address": "939 MAGNA CARTA DR NW, ATLANTA GA 30318",
        "status": "ACA Pending",
        "date": "09/10/2026",
        "description": null,
        "owner": "Esther Cotton",
        "tree_dbh": "2",
        "tree_location": "Front",
        "reason_removal": "Dead tree",
        "tree_description": "DeadReason for Removal:Dead treeComments:Orange dot\n\t\t\n\t\n\t\n                                \n                            \n                        \n                    \n                        \n                            \n                                \n                                    \n                                        \n                                         Parcel Information\n                                \n                            \n                            \n                                \n                                    \n\t\tParcel Number:14 02090003054 *Block:--Lot:--Subdivision:--",
        "tree_number": "1",
        "species": "Maple"
      },
      "geometry": {
        "type": "Point",
        "coordinates": [
          -84.479838376983,
          33.777324431125
        ]
      }
    },
    {
      "type": "Feature",
      "properties": {
        "record": "BA-202604562",
        "address": "1762 NEW YORK AVE NE, ATLANTA GA 30307",
        "status": "ACA Pending",
        "date": "09/10/2026",
        "description": null,
        "owner": "John Pitman",
        "tree_dbh": "8",
        "tree_location": "Backyard",
        "reason_removal": "Invasive/undesirable tree",
        "tree_description": "UndesirableReason for Removal:Invasive/undesirable tree\n\t\t\n\t\t\n\t\t\tTree number:2Species:Cherry LaurelTree Size (DBH):8Tree location:BackyardDescription of Tree:UndesirableReason for Removal:Invasive/undesirable tree\n\t\t\n\t\n\t\n                                \n                            \n                        \n                    \n                        \n                            \n                                \n                                    \n                                        \n                                         Parcel Information\n                                \n                            \n                            \n                                \n                                    \n\t\tParcel Number:15 211 04 231 *Block:--Lot:--Subdivision:--",
        "tree_number": "1",
        "species": "Cherry Laurel"
      },
      "geometry": {
        "type": "Point",
        "coordinates": [
          -84.329468238602,
          33.762035308011
        ]
      }
    },
    {
      "type": "Feature",
      "properties": {
        "record": "BA-202604556",
        "address": "998 ALLENE AVE SW, ATLANTA GA 30310",
        "status": "ACA Pending",
        "date": "09/10/2026",
        "description": null,
        "owner": "DEUTSCHE BANK NATIONAL TRUST C  TRUSTEE",
        "tree_dbh": "4",
        "tree_location": "998 allene ave SW, Atlanta GA 30310",
        "reason_removal": "Dying tree",
        "tree_description": "Very large, mature water oak in the middle of the backyard. Next to the porch. Reason for Removal:Dying tree\n\t\t\n\t\n\t\n                                \n                            \n                        \n                    \n                        \n                            \n                                \n                                    \n                                        \n                                         Parcel Information\n                                \n                            \n                            \n                                \n                                    \n\t\tParcel Number:14 01060007028 *Block:--Lot:--Subdivision:--",
        "tree_number": "1",
        "species": "water oak"
      },
      "geometry": {
        "type": "Point",
        "coordinates": [
          -84.413538902737,
          33.727528882572
        ]
      }
    },
    {
      "type": "Feature",
      "properties": {
        "record": "BA-202604582",
        "address": "3550 INDIAN ROCK RD SW, ATLANTA GA 30331",
        "status": "ACA Pending",
        "date": "09/10/2026",
        "description": null,
        "owner": "GOODMAN DOROTHY C",
        "tree_dbh": "50",
        "tree_location": "side of home",
        "reason_removal": "Dying tree",
        "tree_description": null,
        "tree_number": "1",
        "species": "unknown"
      },
      "geometry": {
        "type": "Point",
        "coordinates": [
          -84.504719602578,
          33.679510006366
        ]
      }
    },
    {
      "type": "Feature",
      "properties": {
        "record": "BA-202604573",
        "address": "2325 DELLWOOD DR NW, ATLANTA GA 30305",
        "status": "ACA Pending",
        "date": "09/10/2026",
        "description": null,
        "owner": null,
        "tree_dbh": "25",
        "tree_location": "front left",
        "reason_removal": "Other",
        "tree_description": "25\" cherry treeReason for Removal:OtherComments:city knows about the tree",
        "tree_number": "1",
        "species": "cherry tree"
      },
      "geometry": {
        "type": "Point",
        "coordinates": [
          -84.398196713679,
          33.818710836425
        ]
      }
    },
    {
      "type": "Feature",
      "properties": {
        "record": "BA-202604575",
        "address": "524 ARGONNE DR NW, ATLANTA GA 30305",
        "status": "ACA Pending",
        "date": "09/10/2026",
        "description": null,
        "owner": "John Irwin",
        "tree_dbh": "19",
        "tree_location": "SW corner",
        "reason_removal": "Dying tree",
        "tree_description": "a 19inch pine approximately 100' tall marked with an orange ribbonReason for Removal:Dying tree\n\t\t\n\t\n\t\n                                \n                            \n                        \n                    \n                        \n                            \n                                \n                                    \n                                        \n                                         Parcel Information\n                                \n                            \n                            \n                                \n                                    \n\t\tParcel Number:17 01430002021 *Block:--Lot:--Subdivision:--",
        "tree_number": "1",
        "species": "Pine"
      },
      "geometry": {
        "type": "Point",
        "coordinates": [
          -84.404127501299,
          33.834892453277
        ]
      }
    },
    {
      "type": "Feature",
      "properties": {
        "record": "26TMP-060059",
        "address": "1853 SUMTER ST NW, ATLANTA GA 30318",
        "status": "",
        "date": "09/10/2026",
        "description": null,
        "owner": null,
        "tree_dbh": null,
        "tree_location": null,
        "reason_removal": null,
        "tree_description": null,
        "tree_number": null,
        "species": null
      },
      "geometry": {
        "type": "Point",
        "coordinates": [
          -84.448958826164,
          33.814811699805
        ]
      }
    },
    {
      "type": "Feature",
      "properties": {
        "record": "BA-202604580",
        "address": "2610 LISA DR SW, ATLANTA GA 30311",
        "status": "ACA Pending",
        "date": "09/10/2026",
        "description": null,
        "owner": "SANDY SPRINGS ASSOCIATES INC",
        "tree_dbh": "22",
        "tree_location": "left side of house",
        "reason_removal": "Other",
        "tree_description": "22\" Poplar, left side of house, Declining, 60% canopy lossReason for Removal:OtherComments:22\" Poplar, left side of house, Declining, 60% canopy loss\n\t\t\n\t\n\t\n                                \n                            \n                        \n                    \n                        \n                            \n                                \n                                    \n                                        \n                                         Parcel Information\n                                \n                            \n                            \n                                \n                                    \n\t\tParcel Number:14 0204  LL030 *Block:--Lot:--Subdivision:--",
        "tree_number": "1",
        "species": "Poplar"
      },
      "geometry": {
        "type": "Point",
        "coordinates": [
          -84.473801086403,
          33.745674420739
        ]
      }
    },
    {
      "type": "Feature",
      "properties": {
        "record": "BA-202604577",
        "address": "3708 CASTLEGATE DR NW, ATLANTA GA 30327",
        "status": "ACA Pending",
        "date": "09/10/2026",
        "description": null,
        "owner": "HARWOOD NORMA E",
        "tree_dbh": "8",
        "tree_location": "front left",
        "reason_removal": "Dying tree",
        "tree_description": "Tree is declining, canopy is very thin and lacks vigor. Leans Reason for Removal:Dying tree\n\t\t\n\t\n\t\n                                \n                            \n                        \n                    \n                        \n                            \n                                \n                                    \n                                        \n                                         Parcel Information\n                                \n                            \n                            \n                                \n                                    \n\t\tParcel Number:17 01590002002 *Block:--Lot:--Subdivision:--",
        "tree_number": "1",
        "species": "Deodora Cedar"
      },
      "geometry": {
        "type": "Point",
        "coordinates": [
          -84.413781782227,
          33.855936318927
        ]
      }
    },
    {
      "type": "Feature",
      "properties": {
        "record": "BA-202604583",
        "address": "4363 JETT RD NW, ATLANTA GA 30327",
        "status": "ACA Pending",
        "date": "09/10/2026",
        "description": null,
        "owner": "Ryan Cain",
        "tree_dbh": "100",
        "tree_location": "backyard",
        "reason_removal": "Dying tree",
        "tree_description": null,
        "tree_number": "123",
        "species": "Pine"
      },
      "geometry": {
        "type": "Point",
        "coordinates": [
          -84.400477954309,
          33.874614630529
        ]
      }
    },
    {
      "type": "Feature",
      "properties": {
        "record": "BA-202604560",
        "address": "95 VALLEY RD NW, ATLANTA GA 30305",
        "status": "ACA Pending",
        "date": "09/10/2026",
        "description": null,
        "owner": "ROLLINS GARY W",
        "tree_dbh": "30",
        "tree_location": "back right",
        "reason_removal": "Dead tree",
        "tree_description": null,
        "tree_number": "1",
        "species": "White Oak"
      },
      "geometry": {
        "type": "Point",
        "coordinates": [
          -84.390708090298,
          33.851438581247
        ]
      }
    },
    {
      "type": "Feature",
      "properties": {
        "record": "BA-202604581",
        "address": "966 WEST PACES FERRY RD NW, ATLANTA GA 30327",
        "status": "ACA Pending",
        "date": "09/10/2026",
        "description": null,
        "owner": "PACE ACADEMY INC",
        "tree_dbh": "12",
        "tree_location": "Left side of lower school entrance",
        "reason_removal": "Dead tree",
        "tree_description": "Picture of treeReason for Removal:Dead tree\n\t\t\n\t\n\t\n                                \n                            \n                        \n                    \n                        \n                            \n                                \n                                    \n                                        \n                                         Parcel Information\n                                \n                            \n                            \n                                \n                                    \n\t\tParcel Number:17 0158  LL009 *Block:--Lot:--Subdivision:--",
        "tree_number": "1",
        "species": "Maple"
      },
      "geometry": {
        "type": "Point",
        "coordinates": [
          -84.417444939666,
          33.850373342306
        ]
      }
    },
    {
      "type": "Feature",
      "properties": {
        "record": "BA-202604555",
        "address": "490 BROWNLEE RD SW, ATLANTA GA 30311",
        "status": "Issued",
        "date": "09/10/2026",
        "description": "DDH",
        "owner": null,
        "tree_dbh": null,
        "tree_location": null,
        "reason_removal": null,
        "tree_description": null,
        "tree_number": null,
        "species": null
      },
      "geometry": {
        "type": "Point",
        "coordinates": [
          -84.496662276341,
          33.743008587807
        ]
      }
    }
  ]
}