{
  "type": "FeatureCollection",
  "features": [
    {
      "type": "Feature",
      "properties": {
        "record": "BA-202604507",
        "address": "2751 CARMON ON WESLEY RD NW, ATLANTA GA 30327",
        "status": "ACA Pending",
        "date": "09/08/2026",
        "description": null,
        "owner": "HAGOOD C JEFFERSON",
        "tree_dbh": "12",
        "tree_location": "Right Rear",
        "reason_removal": "Dying tree",
        "tree_description": "40% Crown LossReason for Removal:Dying tree\n\t\t\n\t\n\t\n                                \n                            \n                        \n                    \n                        \n                            \n                                \n                                    \n                                        \n                                         Parcel Information\n                                \n                            \n                            \n                                \n                                    \n\t\tParcel Number:17 01560009002 *Block:--Lot:--Subdivision:--",
        "tree_number": "1",
        "species": "Tulip Poplar"
      },
      "geometry": {
        "type": "Point",
        "coordinates": [
          -84.41238481294,
          33.829459345709
        ]
      }
    },
    {
      "type": "Feature",
      "properties": {
        "record": "26TMP-059173",
        "address": "87 MONTGOMERY FERRY DR NE, ATLANTA GA 30309",
        "status": "",
        "date": "09/08/2026",
        "description": null,
        "owner": null,
        "tree_dbh": null,
        "tree_location": null,
        "reason_removal": null,
        "tree_description": null,
        "tree_number": null,
        "species": null
      },
      "geometry": {
        "type": "Point",
        "coordinates": [
          -84.377522329009,
          33.798149692423
        ]
      }
    },
    {
      "type": "Feature",
      "properties": {
        "record": "BA-202604490",
        "address": "3345 VALLEY RD NW, ATLANTA GA 30305",
        "status": "Accepted",
        "date": "09/08/2026",
        "description": null,
        "owner": null,
        "tree_dbh": "30",
        "tree_location": "Second tree away from driveway close to the street",
        "reason_removal": "Dying tree",
        "tree_description": "Large pineReason for Removal:OtherComments:Destroying the driveway. \n\t\t\n\t\t\n\t\t\tTree number:2Species:pineTree Size (DBH):30Tree location:Second tree away from driveway close to the streetDescription of Tree:Pine tree hit by lighting and drops limbs almost his a couple walking recently. Reason for Removal:Dying tree\n\t\t\n\t\n\t\n                                \n                            \n                        \n                    \n                        \n                            \n                                \n                                    \n                                        \n                                         Parcel Information\n                                \n                            \n                            \n                                \n                                    \n\t\tParcel Number:17 00980004029 *Block:--Lot:--Subdivision:--",
        "tree_number": "1",
        "species": "Pine"
      },
      "geometry": {
        "type": "Point",
        "coordinates": [
          -84.384542404195,
          33.845762362984
        ]
      }
    },
    {
      "type": "Feature",
      "properties": {
        "record": "BA-202604497",
        "address": "3 OLD PACES PL NW, ATLANTA GA 30327",
        "status": "Accepted",
        "date": "09/08/2026",
        "description": null,
        "owner": null,
        "tree_dbh": null,
        "tree_location": null,
        "reason_removal": null,
        "tree_description": null,
        "tree_number": null,
        "species": null
      },
      "geometry": {
        "type": "Point",
        "coordinates": [
          -84.432356539274,
          33.848267824581
        ]
      }
    },
    {
      "type": "Feature",
      "properties": {
        "record": "BA-202604506",
        "address": "281 BROADLAND RD NW, ATLANTA GA 30342",
        "status": "ACA Pending",
        "date": "09/08/2026",
        "description": null,
        "owner": null,
        "tree_dbh": null,
        "tree_location": null,
        "reason_removal": null,
        "tree_description": null,
        "tree_number": null,
        "species": null
      },
      "geometry": {
        "type": "Point",
        "coordinates": [
          -84.396643450121,
          33.868328836176
        ]
      }
    },
    {
      "type": "Feature",
      "properties": {
        "record": "BA-202604509",
        "address": "87 GLENN ST SE, ATLANTA GA 30312",
        "status": "ACA Pending",
        "date": "09/08/2026",
        "description": null,
        "owner": "MOSELY BARBARA C",
        "tree_dbh": "22",
        "tree_location": "back right corner of lot",
        "reason_removal": "Dying tree",
        "tree_description": "3 of 5 trunks are in decline or deadReason for Removal:Dying tree\n\t\t\n\t\t\n\t\t\tTree number:1Species:cottonwoodTree Size (DBH):22Tree location:back right corner of lotDescription of Tree:3 of 5 trunks are in decline or deadReason for Removal:Dying tree\n\t\t\n\t\n\t\n                                \n                            \n                        \n                    \n                        \n                            \n                                \n                                    \n                                        \n                                         Parcel Information\n                                \n                            \n                            \n                                \n                                    \n\t\tParcel Number:14 00540001048 *Block:--Lot:--Subdivision:--",
        "tree_number": "1",
        "species": "cottonwood"
      },
      "geometry": {
        "type": "Point",
        "coordinates": [
          -84.384920772292,
          33.737850179856
        ]
      }
    },
    {
      "type": "Feature",
      "properties": {
        "record": "BA-202604510",
        "address": "3587 INDIAN ROCK RD SW, ATLANTA GA 30331",
        "status": "ACA Pending",
        "date": "09/08/2026",
        "description": null,
        "owner": "HIGHTOWER MICHELLE Y",
        "tree_dbh": "12",
        "tree_location": "front left corner",
        "reason_removal": "Dying tree",
        "tree_description": null,
        "tree_number": "1",
        "species": "oak"
      },
      "geometry": {
        "type": "Point",
        "coordinates": [
          -84.505880799224,
          33.679606563993
        ]
      }
    },
    {
      "type": "Feature",
      "properties": {
        "record": "BA-202604491",
        "address": "651 EAST PACES FERRY RD NE, ATLANTA GA 30305",
        "status": "Accepted",
        "date": "09/08/2026",
        "description": null,
        "owner": null,
        "tree_dbh": "25",
        "tree_location": "front of the house",
        "reason_removal": "Dead tree",
        "tree_description": "Tree removalReason for Removal:Dead tree\n\t\t\n\t\n\t\n                                \n                            \n                        \n                    \n                        \n                            \n                                \n                                    \n                                        \n                                         Parcel Information\n                                \n                            \n                            \n                                \n                                    \n\t\tParcel Number:17 00460007002 *Block:--Lot:--Subdivision:--",
        "tree_number": "1",
        "species": "Pine Tree"
      },
      "geometry": {
        "type": "Point",
        "coordinates": [
          -84.366342917912,
          33.840303363322
        ]
      }
    },
    {
      "type": "Feature",
      "properties": {
        "record": "BA-202604496",
        "address": "481 COLLIER RD NW, ATLANTA GA 30318",
        "status": "Accepted",
        "date": "09/08/2026",
        "description": null,
        "owner": "GRAY JULIA JACKSON",
        "tree_dbh": "23",
        "tree_location": "Located on the left side of the house, next to the fence line between the subject property and the neighboring residence.",
        "reason_removal": "Other",
        "tree_description": "picture of treeReason for Removal:OtherComments:Uncorrectable defect. Bifurcated leader, recent 8\" Limb failure with similar branches present. 25% Lean.",
        "tree_number": "1",
        "species": "Hickory"
      },
      "geometry": {
        "type": "Point",
        "coordinates": [
          -84.401945695068,
          33.809853917103
        ]
      }
    },
    {
      "type": "Feature",
      "properties": {
        "record": "BA-202604498",
        "address": "1122 BOULEVARD DR NE, ATLANTA GA 30317",
        "status": "Accepted",
        "date": "09/08/2026",
        "description": null,
        "owner": null,
        "tree_dbh": "43",
        "tree_location": "Back Left",
        "reason_removal": "Diseased",
        "tree_description": "Large sweet gum tree that has developed soft/spongy bark at the root plate.Reason for Removal:DiseasedComments:Root plate space is limited to 50% due to existing home on west side and retaining wall/driveway on east side. Size of decay has increased 80% in past 45 days.\n\t\t\n\t\n\t\n                                \n                            \n                        \n                    \n                        \n                            \n                                \n                                    \n                                        \n                                         Parcel Information\n                                \n                            \n                            \n                                \n                                    \n\t\tParcel Number:14 00140014034 *Block:--Lot:--Subdivision:--",
        "tree_number": "1",
        "species": "Sweet Gum"
      },
      "geometry": {
        "type": "Point",
        "coordinates": [
          -84.350693292209,
          33.753627806867
        ]
      }
    },
    {
      "type": "Feature",
      "properties": {
        "record": "BA-202604492",
        "address": "930 CUSTER AVE SE, ATLANTA GA 30316",
        "status": "Accepted",
        "date": "09/08/2026",
        "description": null,
        "owner": null,
        "tree_dbh": "26",
        "tree_location": "right rear of the church",
        "reason_removal": "Invasive/undesirable tree",
        "tree_description": "Tree removalReason for Removal:Invasive/undesirable tree\n\t\t\n\t\t\n\t\t\tTree number:1Species:PoplarTree Size (DBH):24.5Tree location:right rear of the churchDescription of Tree:Tree removalReason for Removal:Invasive/undesirable tree\n\t\t\n\t\t\n\t\t\tTree number:1Species:PineTree Size (DBH):16Tree location:right rear of the churchDescription of Tree:Tree removalReason for Removal:Invasive/undesirable tree\n\t\t\n\t\t\n\t\t\tTree number:1Species:oakTree Size (DBH):27Tree location:right rear of the churchDescription of Tree:Tree removalReason for Removal:Invasive/undesirable tree\n\t\t\n\t\t\n\t\t\tTree number:1Species:pineTree Size (DBH):17Tree location:right rear of the churchDescription of Tree:Tree removalReason for Removal:Invasive/undesirable tree\n\t\t\n\t\t\n\t\t\tTree number:1Species:oakTree Size (DBH):18Tree location:right rear of the churchDescription of Tree:Tree removalReason for Removal:Invasive/undesirable tree\n\t\t\n\t\t\n\t\t\tTree number:1Species:pineTree Size (DBH):18Tree location:right rear of the churchDescription of Tree:Tree removalReason for Removal:Invasive/undesirable tree\n\t\t\n\t\t\n\t\t\tTree number:1Species:pineTree Size (DBH):23Tree location:right rear of the churchDescription of Tree:Tree removalReason for Removal:Invasive/undesirable tree\n\t\t\n\t\t\n\t\t\tTree number:1Species:oakTree Size (DBH):23Tree location:right rear of the churchDescription of Tree:Tree removalReason for Removal:Invasive/undesirable tree\n\t\t\n\t\t\n\t\t\tTree number:1Species:PineTree Size (DBH):26Tree location:right rear of the churchDescription of Tree:Tree removalReason for Removal:Invasive/undesirable tree\n\t\t\n\t\n\t\n                                \n                            \n                        \n                    \n                        \n                            \n                                \n                                    \n                                        \n                                         Parcel Information\n                                \n                            \n                            \n                                \n                                    \n\t\tParcel Number:14 00090004037 *Block:--Lot:--Subdivision:--",
        "tree_number": "1",
        "species": "Poplar"
      },
      "geometry": {
        "type": "Point",
        "coordinates": [
          -84.358486584752,
          33.717097968175
        ]
      }
    },
    {
      "type": "Feature",
      "properties": {
        "record": "BA-202604500",
        "address": "880 NISKEY LAKE CIR SW, ATLANTA GA 30331",
        "status": "Accepted",
        "date": "09/08/2026",
        "description": null,
        "owner": null,
        "tree_dbh": "20",
        "tree_location": "Front yard",
        "reason_removal": "Dead tree",
        "tree_description": "Sweet GunReason for Removal:Dead treeComments:This tree is dead and may fall on my house at any moment. It needs to be removed ASAP.\n\t\t\n\t\n\t\n                                \n                            \n                        \n                    \n                        \n                            \n                                \n                                    \n                                        \n                                         Parcel Information\n                                \n                            \n                            \n                                \n                                    \n\t\tParcel Number:14F00470001028 *Block:--Lot:--Subdivision:--",
        "tree_number": "1",
        "species": "Sweet Gum"
      },
      "geometry": {
        "type": "Point",
        "coordinates": [
          -84.533866795907,
          33.729259909869
        ]
      }
    },
    {
      "type": "Feature",
      "properties": {
        "record": "BA-202604502",
        "address": "2242 MT PARAN RD NW, ATLANTA GA 30327",
        "status": "Accepted",
        "date": "09/08/2026",
        "description": null,
        "owner": null,
        "tree_dbh": "25",
        "tree_location": "right hand side of the driveway",
        "reason_removal": "Dead tree",
        "tree_description": "Dead white oak on right side of driveway-Reason for Removal:Dead tree\n\t\t\n\t\n\t\n                                \n                            \n                        \n                    \n                        \n                            \n                                \n                                    \n                                        \n                                         Parcel Information\n                                \n                            \n                            \n                                \n                                    \n\t\tParcel Number:17 0216  LL088 *Block:--Lot:--Subdivision:--",
        "tree_number": "1",
        "species": "white oak"
      },
      "geometry": {
        "type": "Point",
        "coordinates": [
          -84.438786389882,
          33.857849013848
        ]
      }
    },
    {
      "type": "Feature",
      "properties": {
        "record": "BA-202604499",
        "address": "2426 HOSEA L WILLIAMS DR NE, ATLANTA GA 30317",
        "status": "Accepted",
        "date": "09/08/2026",
        "description": null,
        "owner": "MAJOR WALTER C",
        "tree_dbh": "15",
        "tree_location": "right fence",
        "reason_removal": "Invasive/undesirable tree",
        "tree_description": "Tree removalReason for Removal:Invasive/undesirable tree\n\t\t\n\t\t\n\t\t\tTree number:1Species:sweetgumTree Size (DBH):102.2Tree location:rear fence lineDescription of Tree:tree removalReason for Removal:Invasive/undesirable tree\n\t\t\n\t\t\n\t\t\tTree number:1Species:SweetgumTree Size (DBH):10.87Tree location:rear fence lineDescription of Tree:tree removalReason for Removal:Invasive/undesirable tree\n\t\t\n\t\t\n\t\t\tTree number:1Species:SweetgumTree Size (DBH):16.14Tree location:rear fence lineDescription of Tree:Tree removalReason for Removal:Invasive/undesirable tree\n\t\t\n\t\n\t\n                                \n                            \n                        \n                    \n                        \n                            \n                                \n                                    \n                                        \n                                         Parcel Information\n                                \n                            \n                            \n                                \n                                    \n\t\tParcel Number:15 204 06 018 *Block:--Lot:--Subdivision:--",
        "tree_number": "1",
        "species": "Oak"
      },
      "geometry": {
        "type": "Point",
        "coordinates": [
          -84.307502102397,
          33.751122434599
        ]
      }
    },
    {
      "type": "Feature",
      "properties": {
        "record": "26TMP-059118",
        "address": "73 WARREN ST SE, ATLANTA GA 30317",
        "status": "",
        "date": "09/08/2026",
        "description": null,
        "owner": null,
        "tree_dbh": null,
        "tree_location": null,
        "reason_removal": null,
        "tree_description": null,
        "tree_number": null,
        "species": null
      },
      "geometry": {
        "type": "Point",
        "coordinates": [
          -84.326311725923,
          33.751289678141
        ]
      }
    },
    {
      "type": "Feature",
      "properties": {
        "record": "BA-202604511",
        "address": "3788 HADDON HALL RD NW, ATLANTA GA 30327",
        "status": "ACA Pending",
        "date": "09/08/2026",
        "description": null,
        "owner": null,
        "tree_dbh": "27",
        "tree_location": "front left",
        "reason_removal": "Significant cavity/area of decay",
        "tree_description": "taggedReason for Removal:Significant cavity/area of decayComments:see report\nmultiple potential cavity readings in main stem\n\t\t\n\t\t\n\t\t\tTree number:2Species:magnoliaTree Size (DBH):23Tree location:Front rightDescription of Tree:taggedReason for Removal:Significant cavity/area of decayComments:see report\nmultiple potential cavity readings in main stem\n\t\t\n\t\n\t\n                                \n                            \n                        \n                    \n                        \n                            \n                                \n                                    \n                                        \n                                         Parcel Information\n                                \n                            \n                            \n                                \n                                    \n\t\tParcel Number:17 01590002035 *Block:--Lot:--Subdivision:--",
        "tree_number": "1",
        "species": "magnolia"
      },
      "geometry": {
        "type": "Point",
        "coordinates": [
          -84.414459610661,
          33.857059216792
        ]
      }
    },
    {
      "type": "Feature",
      "properties": {
        "record": "BA-202604495",
        "address": "288 LOGAN ST SE, ATLANTA GA 30312",
        "status": "Accepted",
        "date": "09/08/2026",
        "description": null,
        "owner": null,
        "tree_dbh": null,
        "tree_location": null,
        "reason_removal": null,
        "tree_description": null,
        "tree_number": null,
        "species": null
      },
      "geometry": {
        "type": "Point",
        "coordinates": [
          -84.378161566493,
          33.744536830109
        ]
      }
    },
    {
      "type": "Feature",
      "properties": {
        "record": "BA-202604505",
        "address": "289 PRAIRIE VIEW PL SW, ATLANTA GA 30311",
        "status": "Issued",
        "date": "09/08/2026",
        "description": null,
        "owner": "LEWIS MINNIE JEFFRIES SHAKEESHA",
        "tree_dbh": "54",
        "tree_location": "Back-left portion of property Distance from residence: Approximately 10 feet Observations The second tree is an approximately 11-inch diameter hardwood located approximately 10 feet from the residence",
        "reason_removal": "Dead tree",
        "tree_description": "The water oak is a mature tree located within close proximity to the residence and driveway.",
        "tree_number": "1",
        "species": "Hardwood"
      },
      "geometry": {
        "type": "Point",
        "coordinates": [
          -84.468023335551,
          33.74742557146
        ]
      }
    },
    {
      "type": "Feature",
      "properties": {
        "record": "BA-202604512",
        "address": "8 EAST DR NE, ATLANTA GA 30305",
        "status": "ACA Pending",
        "date": "09/08/2026",
        "description": null,
        "owner": null,
        "tree_dbh": "6675",
        "tree_location": "8 East, Front yard at street, East boundary",
        "reason_removal": "Uncorrectable defect",
        "tree_description": "Large old Oak shedding branches for several yearsReason for Removal:Uncorrectable defectComments:During storm of Sept 5, 2026, it dropped large branches onto street and parking space. Top of main trunk broke off.\n\t\t\n\t\n\t\n                                \n                            \n                        \n                    \n                        \n                            \n                                \n                                    \n                                        \n                                         Parcel Information\n                                \n                            \n                            \n                                \n                                    \n\t\tParcel Number:17 01010015010 *Block:--Lot:--Subdivision:--",
        "tree_number": "1",
        "species": "Oak"
      },
      "geometry": {
        "type": "Point",
        "coordinates": [
          -84.384010653284,
          33.8215738828
        ]
      }
    },
    {
      "type": "Feature",
      "properties": {
        "record": "BA-202604493",
        "address": "698 EAST AVE NE, ATLANTA GA 30312",
        "status": "Accepted",
        "date": "09/08/2026",
        "description": null,
        "owner": "KATES ALEXANDRA M",
        "tree_dbh": "13",
        "tree_location": "back",
        "reason_removal": "Dying tree",
        "tree_description": "dead treeReason for Removal:Dead tree\n\t\t\n\t\t\n\t\t\tTree number:2Species:chinese elmTree Size (DBH):15Tree location:back rightDescription of Tree:Invasive, within 5' of homeReason for Removal:Dying tree\n\t\t\n\t\n\t\n                                \n                            \n                        \n                    \n                        \n                            \n                                \n                                    \n                                        \n                                         Parcel Information\n                                \n                            \n                            \n                                \n                                    \n\t\tParcel Number:14 00180011032 *Block:--Lot:--Subdivision:--",
        "tree_number": "1",
        "species": "Dogwood"
      },
      "geometry": {
        "type": "Point",
        "coordinates": [
          -84.365156008574,
          33.763222848067
        ]
      }
    },
    {
      "type": "Feature",
      "properties": {
        "record": "BA-202604501",
        "address": "1609 LINDA WAY SW, ATLANTA GA 30310",
        "status": "Accepted",
        "date": "09/08/2026",
        "description": null,
        "owner": "SCANDRICK MARY L",
        "tree_dbh": "4",
        "tree_location": "on the left side facing prooerty top yard",
        "reason_removal": "Dying tree",
        "tree_description": "2 hard wood trees there together dead leaning Reason for Removal:Dead tree\n\t\t\n\t\t\n\t\t\tTree number:4Species:hard woodTree Size (DBH):6Tree location:on the left side facing prooerty top yard Description of Tree:the tree is a hard wood tree that is dying Reason for Removal:Dying tree\n\t\t\n\t\n\t\n                                \n                            \n                        \n                    \n                        \n                            \n                                \n                                    \n                                        \n                                         Parcel Information\n                                \n                            \n                            \n                                \n                                    \n\t\tParcel Number:14 01500009076 *Block:--Lot:--Subdivision:--",
        "tree_number": "6",
        "species": "hard wood"
      },
      "geometry": {
        "type": "Point",
        "coordinates": [
          -84.439544064211,
          33.734509395774
        ]
      }
    },
    {
      "type": "Feature",
      "properties": {
        "record": "26TMP-059296",
        "address": "806 BRIDGEWATER ST SW, ATLANTA GA 30310",
        "status": "",
        "date": "09/08/2026",
        "description": null,
        "owner": null,
        "tree_dbh": null,
        "tree_location": null,
        "reason_removal": null,
        "tree_description": null,
        "tree_number": null,
        "species": null
      },
      "geometry": {
        "type": "Point",
        "coordinates": [
          -84.415060018715,
          33.702803909198
        ]
      }
    },
    {
      "type": "Feature",
      "properties": {
        "record": "BA-202604508",
        "address": "2727 PHARR RD NE, ATLANTA GA 30317",
        "status": "ACA Pending",
        "date": "09/08/2026",
        "description": null,
        "owner": "Daniel Marin",
        "tree_dbh": "22",
        "tree_location": "Front center",
        "reason_removal": "Uncorrectable defect",
        "tree_description": "Decay pocket located at the codom union. Black ooze present.Reason for Removal:Significant cavity/area of decay\n\t\t\n\t\t\n\t\t\tTree number:2Species:Southern MagnoliaTree Size (DBH):22Tree location:Front centerDescription of Tree:Scaffold limbs have several issues. E.g. cracking, splitting and cavities.Reason for Removal:Uncorrectable defect\n\t\t\n\t\n\t\n                                \n                            \n                        \n                    \n                        \n                            \n                                \n                                    \n                                        \n                                         Parcel Information\n                                \n                            \n                            \n                                \n                                    \n\t\tParcel Number:15 203 05 077 *Block:--Lot:--Subdivision:--",
        "tree_number": "1",
        "species": "Wild Cherry"
      },
      "geometry": {
        "type": "Point",
        "coordinates": [
          -84.297587887386,
          33.754293952564
        ]
      }
    }
  ]
}