{
  "type": "FeatureCollection",
  "features": [
    {
      "type": "Feature",
      "properties": {
        "record": "BA-202604666",
        "address": "699 CHARLOTTE PL NW, ATLANTA GA 30318",
        "status": "ACA Pending",
        "date": "09/15/2026",
        "description": null,
        "owner": "FRANKLIN CATHERINE A",
        "tree_dbh": "12",
        "tree_location": "back right",
        "reason_removal": "Dying tree",
        "tree_description": "Tree presents weak stems and branches with weak aungles of attachment and pronounce bends making the branches prone to failure. A small pocket of decay is a the base of the trunk. Several roots are showing decaying due to mowing. Reason for Removal:Dying tree\n\t\t\n\t\t\n\t\t\tTree number:2Species:elmTree Size (DBH):8Tree location:back leftDescription of Tree:This tree is causing significant damage to the stone retaining wall, making the soil and wall unstable. Tree doesn't have enough space to continue to grow posing a risk to the house. Reason for Removal:Dying tree\n\t\t\n\t\t\n\t\t\tTree number:3Species:box elderTree Size (DBH):20Tree location:back leftDescription of Tree:This tree is causing significant damage to the stone retaining wall, making the soil and wall unstable. Tree doesn't have enough space to continue to grow posing a risk to the house. Reason for Removal:Dying tree\n\t\t\n\t\t\n\t\t\tTree number:4Species:silver maple Tree Size (DBH):26Tree location:back leftDescription of Tree:this tree is causing significant damage to the stone retaining wall, making the soil and wall unstable. Tree doesn't have enough space to continue to grow posing a risk to the house. Reason for Removal:Dying tree\n\t\t\n\t\n\t\n                                \n                            \n                        \n                    \n                        \n                            \n                                \n                                    \n                                        \n                                         Parcel Information\n                                \n                            \n                            \n                                \n                                    \n\t\tParcel Number:14 01760014036 *Block:--Lot:--Subdivision:--",
        "tree_number": "1",
        "species": "elm"
      },
      "geometry": {
        "type": "Point",
        "coordinates": [
          -84.450834751651,
          33.773944557541
        ]
      }
    },
    {
      "type": "Feature",
      "properties": {
        "record": "BA-202604672",
        "address": "2285 BELVEDERE AVE SW, ATLANTA GA 30311",
        "status": "ACA Pending",
        "date": "09/15/2026",
        "description": null,
        "owner": "TONEY PHYLLIS M",
        "tree_dbh": "100",
        "tree_location": "on property 2279 Belvedere Ave SW",
        "reason_removal": "Invasive/undesirable tree",
        "tree_description": "three large OakReason for Removal:Invasive/undesirable treeComments:desire is to trim/cut limbs hanging over property(2285 Belvedere Ave. SW)The trees are located on property at 2279 Belvedere Ave. SW..Also evaluate trees for permit to cut down as dead/dying or hazard...\n\t\t\n\t\n\t\n                                \n                            \n                        \n                    \n                        \n                            \n                                \n                                    \n                                        \n                                         Parcel Information\n                                \n                            \n                            \n                                \n                                    \n\t\tParcel Number:14 01840016024 *Block:--Lot:--Subdivision:--",
        "tree_number": "123",
        "species": "unknown"
      },
      "geometry": {
        "type": "Point",
        "coordinates": [
          -84.462757007167,
          33.721182610246
        ]
      }
    },
    {
      "type": "Feature",
      "properties": {
        "record": "BA-202604668",
        "address": "4015 MCCLATCHEY CIR NE, ATLANTA GA 30342",
        "status": "ACA Pending",
        "date": "09/15/2026",
        "description": null,
        "owner": "MC INTOSH JOHN W",
        "tree_dbh": "30",
        "tree_location": "front hill",
        "reason_removal": "Invasive/undesirable tree",
        "tree_description": "invasive tree Reason for Removal:Invasive/undesirable tree\n\t\t\n\t\t\n\t\t\tTree number:2Species:hardwood Tree Size (DBH):90Tree location:front hillDescription of Tree:sick & leaning on hill towards house, roots exposedReason for Removal:Diseased\n\t\t\n\t\t\n\t\t\tTree number:3Species:invasive tree Tree Size (DBH):45Tree location:top of drivewayDescription of Tree:bending towards power lines Reason for Removal:Invasive/undesirable tree\n\t\t\n\t\t\n\t\t\tTree number:4Species:hardwood Tree Size (DBH):70Tree location:near house Description of Tree:unhealthy, close to house with  a lean Reason for Removal:Other\n\t\t\n\t\t\n\t\t\tTree number:5Species:invasive Tree Size (DBH):12Tree location:along drivewayDescription of Tree:invasive Reason for Removal:Invasive/undesirable tree\n\t\t\n\t\t\n\t\t\tTree number:6Species:invasive Tree Size (DBH):15Tree location:drivewayDescription of Tree:invasive treeReason for Removal:Invasive/undesirable tree\n\t\t\n\t\n\t\n                                \n                            \n                        \n                    \n                        \n                            \n                                \n                                    \n                                        \n                                         Parcel Information\n                                \n                            \n                            \n                                \n                                    \n\t\tParcel Number:17 00420003005 *Block:--Lot:--Subdivision:--",
        "tree_number": "1",
        "species": "invasive"
      },
      "geometry": {
        "type": "Point",
        "coordinates": [
          -84.366893911964,
          33.873516831287
        ]
      }
    },
    {
      "type": "Feature",
      "properties": {
        "record": "26TMP-060937",
        "address": "457 LYNN VALLEY RD SW, ATLANTA GA 30311",
        "status": "",
        "date": "09/15/2026",
        "description": null,
        "owner": null,
        "tree_dbh": null,
        "tree_location": null,
        "reason_removal": null,
        "tree_description": null,
        "tree_number": null,
        "species": null
      },
      "geometry": {
        "type": "Point",
        "coordinates": [
          -84.484641706951,
          33.738292545937
        ]
      }
    },
    {
      "type": "Feature",
      "properties": {
        "record": "BA-202604678",
        "address": "4382 JETT RD NW, ATLANTA GA 30327",
        "status": "ACA Pending",
        "date": "09/15/2026",
        "description": null,
        "owner": null,
        "tree_dbh": null,
        "tree_location": null,
        "reason_removal": null,
        "tree_description": null,
        "tree_number": null,
        "species": null
      },
      "geometry": {
        "type": "Point",
        "coordinates": [
          -84.401539548427,
          33.874585749838
        ]
      }
    },
    {
      "type": "Feature",
      "properties": {
        "record": "BA-202604663",
        "address": "237 SOUTH AVE SE, ATLANTA GA 30315",
        "status": "ACA Pending",
        "date": "09/15/2026",
        "description": null,
        "owner": null,
        "tree_dbh": null,
        "tree_location": null,
        "reason_removal": null,
        "tree_description": null,
        "tree_number": null,
        "species": null
      },
      "geometry": {
        "type": "Point",
        "coordinates": [
          -84.38010170529,
          33.73228889361
        ]
      }
    },
    {
      "type": "Feature",
      "properties": {
        "record": "BA-202604671",
        "address": "2081 LANES LN NE, ATLANTA GA 30317",
        "status": "ACA Pending",
        "date": "09/15/2026",
        "description": null,
        "owner": null,
        "tree_dbh": null,
        "tree_location": null,
        "reason_removal": null,
        "tree_description": null,
        "tree_number": null,
        "species": null
      },
      "geometry": {
        "type": "Point",
        "coordinates": [
          -84.319859216506,
          33.758486969626
        ]
      }
    },
    {
      "type": "Feature",
      "properties": {
        "record": "BA-202604655",
        "address": "357 ORMOND ST SE, ATLANTA GA 30315",
        "status": "ACA Pending",
        "date": "09/15/2026",
        "description": null,
        "owner": null,
        "tree_dbh": null,
        "tree_location": null,
        "reason_removal": null,
        "tree_description": null,
        "tree_number": null,
        "species": null
      },
      "geometry": {
        "type": "Point",
        "coordinates": [
          -84.375743167162,
          33.73138441065
        ]
      }
    },
    {
      "type": "Feature",
      "properties": {
        "record": "BA-202604667",
        "address": "3905 TUXEDO RD NW, ATLANTA GA 30342",
        "status": "ACA Pending",
        "date": "09/15/2026",
        "description": null,
        "owner": null,
        "tree_dbh": null,
        "tree_location": null,
        "reason_removal": null,
        "tree_description": null,
        "tree_number": null,
        "species": null
      },
      "geometry": {
        "type": "Point",
        "coordinates": [
          -84.394617796928,
          33.861724180376
        ]
      }
    },
    {
      "type": "Feature",
      "properties": {
        "record": "BA-202604662",
        "address": "1150 MORNINGSIDE PL NE, ATLANTA GA 30306",
        "status": "ACA Pending",
        "date": "09/15/2026",
        "description": null,
        "owner": null,
        "tree_dbh": null,
        "tree_location": null,
        "reason_removal": null,
        "tree_description": null,
        "tree_number": null,
        "species": null
      },
      "geometry": {
        "type": "Point",
        "coordinates": [
          -84.353527935446,
          33.806539880398
        ]
      }
    },
    {
      "type": "Feature",
      "properties": {
        "record": "BA-202604653",
        "address": "482 KENDRICK AVE SE, ATLANTA GA 30315",
        "status": "ACA Pending",
        "date": "09/15/2026",
        "description": null,
        "owner": null,
        "tree_dbh": null,
        "tree_location": null,
        "reason_removal": null,
        "tree_description": null,
        "tree_number": null,
        "species": null
      },
      "geometry": {
        "type": "Point",
        "coordinates": [
          -84.372668713083,
          33.729366698505
        ]
      }
    },
    {
      "type": "Feature",
      "properties": {
        "record": "26TMP-060463",
        "address": "3574 INGLEDALE DR SW, ATLANTA GA 30331",
        "status": "",
        "date": "09/15/2026",
        "description": null,
        "owner": null,
        "tree_dbh": null,
        "tree_location": null,
        "reason_removal": null,
        "tree_description": null,
        "tree_number": null,
        "species": null
      },
      "geometry": {
        "type": "Point",
        "coordinates": [
          -84.503271061755,
          33.705081749928
        ]
      }
    },
    {
      "type": "Feature",
      "properties": {
        "record": "BA-202604656",
        "address": "703 COURTENAY DR NE, ATLANTA GA 30306",
        "status": "ACA Pending",
        "date": "09/15/2026",
        "description": null,
        "owner": "Brian Huefner",
        "tree_dbh": "18",
        "tree_location": "Left side of front yard",
        "reason_removal": "Dead tree",
        "tree_description": "Dead, Ambrosia beetle damageReason for Removal:Dead tree\n\t\t\n\t\n\t\n                                \n                            \n                        \n                    \n                        \n                            \n                                \n                                    \n                                        \n                                         Parcel Information\n                                \n                            \n                            \n                                \n                                    \n\t\tParcel Number:17 00520007002 *Block:--Lot:--Subdivision:--",
        "tree_number": "1",
        "species": "Sweetgum"
      },
      "geometry": {
        "type": "Point",
        "coordinates": [
          -84.36403659162,
          33.789406193466
        ]
      }
    },
    {
      "type": "Feature",
      "properties": {
        "record": "BA-202604654",
        "address": "1348 WESTMONT RD SW, ATLANTA GA 30311",
        "status": "ACA Pending",
        "date": "09/15/2026",
        "description": null,
        "owner": "Colt Stout",
        "tree_dbh": "22",
        "tree_location": "rear of the property",
        "reason_removal": "Other",
        "tree_description": "Tree removalReason for Removal:Other\n\t\t\n\t\t\n\t\t\tTree number:1Species:Pine TreeTree Size (DBH):25Tree location:rear of the propertyDescription of Tree:Tree removalReason for Removal:Other\n\t\t\n\t\n\t\n                                \n                            \n                        \n                    \n                        \n                            \n                                \n                                    \n                                        \n                                         Parcel Information\n                                \n                            \n                            \n                                \n                                    \n\t\tParcel Number:14 01370001034 *Block:--Lot:--Subdivision:--",
        "tree_number": "1",
        "species": "Pine Tree"
      },
      "geometry": {
        "type": "Point",
        "coordinates": [
          -84.437584375115,
          33.718541431443
        ]
      }
    },
    {
      "type": "Feature",
      "properties": {
        "record": "BA-202604673",
        "address": "354 ADELLE ST SE, ATLANTA GA 30315",
        "status": "ACA Pending",
        "date": "09/15/2026",
        "description": null,
        "owner": "Rashonda Jackman",
        "tree_dbh": "35",
        "tree_location": "center of the backyard",
        "reason_removal": "Dying tree",
        "tree_description": "Rotting coreReason for Removal:Dying tree\n\t\t\n\t\t\n\t\t\tTree number:1Species:ElmTree Size (DBH):18Tree location:center of the backyardDescription of Tree:Codominant Dying treeReason for Removal:Dying tree\n\t\t\n\t\n\t\n                                \n                            \n                        \n                    \n                        \n                            \n                                \n                                    \n                                        \n                                         Parcel Information\n                                \n                            \n                            \n                                \n                                    \n\t\tParcel Number:14 00390007060 *Block:--Lot:--Subdivision:--",
        "tree_number": "1",
        "species": "oak"
      },
      "geometry": {
        "type": "Point",
        "coordinates": [
          -84.37707766276,
          33.700715597099
        ]
      }
    },
    {
      "type": "Feature",
      "properties": {
        "record": "BA-202604677",
        "address": "2459 ELIZABETH ANN LN NE, ATLANTA GA 30324",
        "status": "ACA Pending",
        "date": "09/15/2026",
        "description": null,
        "owner": null,
        "tree_dbh": null,
        "tree_location": null,
        "reason_removal": null,
        "tree_description": null,
        "tree_number": null,
        "species": null
      },
      "geometry": {
        "type": "Point",
        "coordinates": [
          -84.349061157876,
          33.821436736741
        ]
      }
    },
    {
      "type": "Feature",
      "properties": {
        "record": "BA-202604651",
        "address": "1624 SANDTOWN RD SW, ATLANTA GA 30311",
        "status": "ACA Pending",
        "date": "09/15/2026",
        "description": null,
        "owner": "Louis Johnson",
        "tree_dbh": "30",
        "tree_location": "leaning oak tree on the left corner behind the house",
        "reason_removal": "Uncorrectable defect",
        "tree_description": "Tree removalReason for Removal:Uncorrectable defect\n\t\t\n\t\t\n\t\t\tTree number:1Species:OakTree Size (DBH):38Tree location:leaning oak tree on the left corner behind the houseDescription of Tree:Tree removalReason for Removal:Uncorrectable defect\n\t\t\n\t\n\t\n                                \n                            \n                        \n                    \n                        \n                            \n                                \n                                    \n                                        \n                                         Parcel Information\n                                \n                            \n                            \n                                \n                                    \n\t\tParcel Number:14 01520011028 *Block:--Lot:--Subdivision:--",
        "tree_number": "1",
        "species": "Oak"
      },
      "geometry": {
        "type": "Point",
        "coordinates": [
          -84.441804668228,
          33.715475435905
        ]
      }
    },
    {
      "type": "Feature",
      "properties": {
        "record": "BA-202604657",
        "address": "22 HABERSHAM WAY NW, ATLANTA GA 30305",
        "status": "ACA Pending",
        "date": "09/15/2026",
        "description": null,
        "owner": "Michael Kuczynski",
        "tree_dbh": "15",
        "tree_location": "front yard",
        "reason_removal": "Dead tree",
        "tree_description": "red maple that is dead with multiple large branches falling, including the main one on the middle.Reason for Removal:Dead tree\n\t\t\n\t\n\t\n                                \n                            \n                        \n                    \n                        \n                            \n                                \n                                    \n                                        \n                                         Parcel Information\n                                \n                            \n                            \n                                \n                                    \n\t\tParcel Number:17 01130004003 *Block:--Lot:--Subdivision:--",
        "tree_number": "1",
        "species": "red maple"
      },
      "geometry": {
        "type": "Point",
        "coordinates": [
          -84.392835276984,
          33.836235526984
        ]
      }
    },
    {
      "type": "Feature",
      "properties": {
        "record": "BA-202604675",
        "address": "1760 MARLBROOK DR NE, ATLANTA GA 30307",
        "status": "ACA Pending",
        "date": "09/15/2026",
        "description": null,
        "owner": "GODIERS RENE J",
        "tree_dbh": "25",
        "tree_location": "Back yard by deck.",
        "reason_removal": "Significant cavity/area of decay",
        "tree_description": "A 25in White Oak with a 3in cavity located at 16ft on the main stem pointing downward. The cavity appears small however, when conducting a climbing inspection, the cavity was probed with a wire and a hollow void space was estimated to be at least 15 inches. In addition, a 4ft cross-section in this area along the mainstem appears to have substantial decay as evidenced by the black fungal infection.",
        "tree_number": "1",
        "species": "White Oak"
      },
      "geometry": {
        "type": "Point",
        "coordinates": [
          -84.329698950274,
          33.767500290277
        ]
      }
    },
    {
      "type": "Feature",
      "properties": {
        "record": "BA-202604661",
        "address": "827 WELLESLEY DR NW, ATLANTA GA 30305",
        "status": "ACA Pending",
        "date": "09/15/2026",
        "description": null,
        "owner": "KNOX JOHN HARDMAN",
        "tree_dbh": "20",
        "tree_location": "next to driveway",
        "reason_removal": "Uncorrectable defect",
        "tree_description": "dead topReason for Removal:Dying treeComments:Sweet gum has a dead top\n\t\t\n\t\t\n\t\t\tTree number:2Species:Tulip poplarTree Size (DBH):15Tree location:next to drivewayDescription of Tree:leaning tree next to drivewayReason for Removal:Uncorrectable defectComments:severe lean towards the garage\n\t\t\n\t\n\t\n                                \n                            \n                        \n                    \n                        \n                            \n                                \n                                    \n                                        \n                                         Parcel Information\n                                \n                            \n                            \n                                \n                                    \n\t\tParcel Number:17 01540008013 *Block:--Lot:--Subdivision:--",
        "tree_number": "1",
        "species": "Tulip poplar"
      },
      "geometry": {
        "type": "Point",
        "coordinates": [
          -84.414887604041,
          33.819865204147
        ]
      }
    },
    {
      "type": "Feature",
      "properties": {
        "record": "BA-202604650",
        "address": "607 PEACHTREE ST NE, ATLANTA GA 30308",
        "status": "ACA Pending",
        "date": "09/15/2026",
        "description": null,
        "owner": "NORTH AVENUE PRESBYTERIAN CH",
        "tree_dbh": "15",
        "tree_location": "front right of entrance",
        "reason_removal": "Other",
        "tree_description": "Tree removal RequestReason for Removal:Other\n\t\t\n\t\t\n\t\t\tTree number:1Species:HardwoodTree Size (DBH):13Tree location:Back of parking lotDescription of Tree:Tree removal RequestReason for Removal:Other\n\t\t\n\t\t\n\t\t\tTree number:1Species:HardwoodTree Size (DBH):8Tree location:Back of parking lotDescription of Tree:Tree removal RequestReason for Removal:Other\n\t\t\n\t\t\n\t\t\tTree number:1Species:HardwoodTree Size (DBH):9Tree location:Back of parking lotDescription of Tree:Tree removal RequestReason for Removal:Other\n\t\t\n\t\t\n\t\t\tTree number:1Species:HardwoodTree Size (DBH):12Tree location:Back of parking lotDescription of Tree:Tree removal RequestReason for Removal:Other\n\t\t\n\t\n\t\n                                \n                            \n                        \n                    \n                        \n                            \n                                \n                                    \n                                        \n                                         Parcel Information\n                                \n                            \n                            \n                                \n                                    \n\t\tParcel Number:14 00500001020 *Block:--Lot:--Subdivision:--",
        "tree_number": "1",
        "species": "Hardwood"
      },
      "geometry": {
        "type": "Point",
        "coordinates": [
          -84.384931669072,
          33.771225821107
        ]
      }
    },
    {
      "type": "Feature",
      "properties": {
        "record": "BA-202604670",
        "address": "444 MCWILLIAMS AVE SE, ATLANTA GA 30316",
        "status": "ACA Pending",
        "date": "09/15/2026",
        "description": null,
        "owner": "KAPLAN ELENA",
        "tree_dbh": "44",
        "tree_location": "front center",
        "reason_removal": "Dying tree",
        "tree_description": "Recent large limb on main leader into high voltage line. Crown is in decline.Reason for Removal:Dying tree\n\t\t\n\t\n\t\n                                \n                            \n                        \n                    \n                        \n                            \n                                \n                                    \n                                        \n                                         Parcel Information\n                                \n                            \n                            \n                                \n                                    \n\t\tParcel Number:15 178 03 007 *Block:--Lot:--Subdivision:--",
        "tree_number": "1",
        "species": "water oak"
      },
      "geometry": {
        "type": "Point",
        "coordinates": [
          -84.33601513028,
          33.741731497535
        ]
      }
    },
    {
      "type": "Feature",
      "properties": {
        "record": "BA-202604665",
        "address": "1327 LORENZO DR SW, ATLANTA GA 30310",
        "status": "ACA Pending",
        "date": "09/15/2026",
        "description": null,
        "owner": "RUMLEY ROSIE K",
        "tree_dbh": "20",
        "tree_location": "Left side of front yard closer to street",
        "reason_removal": "Uncorrectable defect",
        "tree_description": "Strong lean with unbalanced canopyReason for Removal:Uncorrectable defect\n\t\t\n\t\t\n\t\t\tTree number:2Species:PecanTree Size (DBH):18Tree location:Left side of front yard closer to streetDescription of Tree:Strong lean towards house with unbalanced crown Reason for Removal:Uncorrectable defect\n\t\t\n\t\n\t\n                                \n                            \n                        \n                    \n                        \n                            \n                                \n                                    \n                                        \n                                         Parcel Information\n                                \n                            \n                            \n                                \n                                    \n\t\tParcel Number:14 01370002030 *Block:--Lot:--Subdivision:--",
        "tree_number": "1",
        "species": "Pecan"
      },
      "geometry": {
        "type": "Point",
        "coordinates": [
          -84.432617303498,
          33.71929627634
        ]
      }
    },
    {
      "type": "Feature",
      "properties": {
        "record": "BA-202604659",
        "address": "4165 RICKENBACKER DR NE, ATLANTA GA 30342",
        "status": "ACA Pending",
        "date": "09/15/2026",
        "description": null,
        "owner": "ROBERTS WILLIAM DOUGLAS",
        "tree_dbh": "18",
        "tree_location": "center of front yard",
        "reason_removal": "Dying tree",
        "tree_description": null,
        "tree_number": "1",
        "species": "Oak"
      },
      "geometry": {
        "type": "Point",
        "coordinates": [
          -84.378528270029,
          33.868653423094
        ]
      }
    },
    {
      "type": "Feature",
      "properties": {
        "record": "BA-202604669",
        "address": "766 CHANNING PL NW, ATLANTA GA 30318",
        "status": "ACA Pending",
        "date": "09/15/2026",
        "description": null,
        "owner": "BAKER EMILY C",
        "tree_dbh": "12",
        "tree_location": "back center",
        "reason_removal": "Dying tree",
        "tree_description": "The tree has basal decayReason for Removal:Dying tree\n\t\t\n\t\t\n\t\t\tTree number:2Species:cherry laurelTree Size (DBH):15Tree location:back leftDescription of Tree:Tree has over 30% tip Dieback in upper canopyReason for Removal:Dying tree\n\t\t\n\t\n\t\n                                \n                            \n                        \n                    \n                        \n                            \n                                \n                                    \n                                        \n                                         Parcel Information\n                                \n                            \n                            \n                                \n                                    \n\t\tParcel Number:17 01530014050 *Block:--Lot:--Subdivision:--",
        "tree_number": "1",
        "species": "cherry laurel"
      },
      "geometry": {
        "type": "Point",
        "coordinates": [
          -84.411429051774,
          33.807613431789
        ]
      }
    },
    {
      "type": "Feature",
      "properties": {
        "record": "BA-202604664",
        "address": "1423 MCLENDON AVE NE, ATLANTA GA 30307",
        "status": "ACA Pending",
        "date": "09/15/2026",
        "description": null,
        "owner": "CHENG JOHN I",
        "tree_dbh": "26",
        "tree_location": "Rear yard",
        "reason_removal": "Dying tree",
        "tree_description": "Large mature pecan tree with two recent major limb failures. Both failures occurred at large branch attachments and have left substantial areas of exposed and damaged wood on the tree.Reason for Removal:Dying treeComments:This tree has experienced two separate major limb failures within approximately seven weeks. The first occurred on July 27, 2026, when a large limb failed at its attachment to the tree and tore a long section of wood and bark from the stem. A second large limb fell last week. The broken end of the second limb has a large dark/open area within the wood. We are not arborists and cannot determine the underlying cause, but two major limb failures from the same tree in such a short period are very concerning. Both fallen limbs were large enough to cause serious injury or significant property damage. Given the size of the remaining tree and its proximity to our property and neighboring properties, we are concerned about additional limb or tree failure and are requesting approval for removal\n\t\t\n\t\n\t\n                                \n                            \n                        \n                    \n                        \n                            \n                                \n                                    \n                                        \n                                         Parcel Information\n                                \n                            \n                            \n                                \n                                    \n\t\tParcel Number:15 209 01 058 *Block:--Lot:--Subdivision:--",
        "tree_number": "1",
        "species": "Pecan"
      },
      "geometry": {
        "type": "Point",
        "coordinates": [
          -84.340620513484,
          33.764810828921
        ]
      }
    },
    {
      "type": "Feature",
      "properties": {
        "record": "BA-202604676",
        "address": "2416 SUMMIT AVE NW, ATLANTA GA 30318",
        "status": "ACA Pending",
        "date": "09/15/2026",
        "description": null,
        "owner": null,
        "tree_dbh": "30",
        "tree_location": "front right",
        "reason_removal": "Other",
        "tree_description": "change in environment with a lean Reason for Removal:Other\n\t\t\n\t\n\t\n                                \n                            \n                        \n                    \n                        \n                            \n                                \n                                    \n                                        \n                                         Parcel Information\n                                \n                            \n                            \n                                \n                                    \n\t\tParcel Number:T17 02490010004 03 *Block:--Lot:--Subdivision:REP-24-065 / 174 RIDGE AVE NE",
        "tree_number": "81",
        "species": "tulip tree"
      },
      "geometry": {
        "type": "Point",
        "coordinates": [
          -84.466216757199,
          33.78377561515
        ]
      }
    },
    {
      "type": "Feature",
      "properties": {
        "record": "BA-202604652",
        "address": "800 COURTENAY DR NE, ATLANTA GA 30306",
        "status": "ACA Pending",
        "date": "09/15/2026",
        "description": null,
        "owner": null,
        "tree_dbh": null,
        "tree_location": null,
        "reason_removal": null,
        "tree_description": null,
        "tree_number": null,
        "species": null
      },
      "geometry": {
        "type": "Point",
        "coordinates": [
          -84.361113773442,
          33.7904992815
        ]
      }
    },
    {
      "type": "Feature",
      "properties": {
        "record": "BA-202604658",
        "address": "466 PAGE AVE NE, ATLANTA GA 30307",
        "status": "ACA Pending",
        "date": "09/15/2026",
        "description": null,
        "owner": "THOMPSON ANGELA",
        "tree_dbh": "10",
        "tree_location": "Right side back deck",
        "reason_removal": "Invasive/undesirable tree",
        "tree_description": "undesirable speciesReason for Removal:Invasive/undesirable treeComments:Ribbon\n\t\t\n\t\n\t\n                                \n                            \n                        \n                    \n                        \n                            \n                                \n                                    \n                                        \n                                         Parcel Information\n                                \n                            \n                            \n                                \n                                    \n\t\tParcel Number:15 239 02 019 *Block:--Lot:--Subdivision:--",
        "tree_number": "1",
        "species": "Wax Ligustrum"
      },
      "geometry": {
        "type": "Point",
        "coordinates": [
          -84.334217513951,
          33.766817680862
        ]
      }
    },
    {
      "type": "Feature",
      "properties": {
        "record": "BA-202604680",
        "address": "230 BRIGHTON RD NE, ATLANTA GA 30309",
        "status": "ACA Pending",
        "date": "09/15/2026",
        "description": null,
        "owner": null,
        "tree_dbh": null,
        "tree_location": null,
        "reason_removal": null,
        "tree_description": null,
        "tree_number": null,
        "species": null
      },
      "geometry": {
        "type": "Point",
        "coordinates": [
          -84.386237683898,
          33.810985240635
        ]
      }
    },
    {
      "type": "Feature",
      "properties": {
        "record": "BA-202604681",
        "address": "277 WEST WESLEY RD NW, ATLANTA GA 30305",
        "status": "ACA Pending",
        "date": "09/15/2026",
        "description": null,
        "owner": "SIMMONS JUDSON H",
        "tree_dbh": "48",
        "tree_location": "front right",
        "reason_removal": "Other",
        "tree_description": "Hazard/close proximity to residence. pronounced lean towards structure.multiple large-diameter scaffold limbs and primary leaders exhibiting signs of progressive structural deterioration. Canopy displays tip dieback consistent with chronic root system damageReason for Removal:Other\n\t\t\n\t\t\n\t\t\tTree number:3Species:oakTree Size (DBH):48Tree location:right frontDescription of Tree:significant lean close proximity to structure;tree experienced root damage over extended period, contributing to the observed canopy decline & overall reduction in tree vigor; continued root impairment may further reduce the tree's capacity to compartmentalize decay & maintain adequate structural supportReason for Removal:Other\n\t\t\n\t\t\n\t\t\tTree number:4Species:oakTree Size (DBH):48Tree location:front rightDescription of Tree:pictured limbs that have droppedReason for Removal:OtherComments:Particular concern to resident; a 28 yr old male resides w/cerebral palsy. family expressed a specific concern regarding emeergency response time & the possibility tha he may not be able to evacuate rapidly enough in case of major -lead failure\n\t\t\n\t\n\t\n                                \n                            \n                        \n                    \n                        \n                            \n                                \n                                    \n                                        \n                                         Parcel Information\n                                \n                            \n                            \n                                \n                                    \n\t\tParcel Number:17 01130005021 *Block:--Lot:--Subdivision:--",
        "tree_number": "2",
        "species": "Oak"
      },
      "geometry": {
        "type": "Point",
        "coordinates": [
          -84.398403637289,
          33.828749583718
        ]
      }
    },
    {
      "type": "Feature",
      "properties": {
        "record": "BA-202604649",
        "address": "2022 WEST PACES FERRY RD NW, ATLANTA GA 30327",
        "status": "ACA Pending",
        "date": "09/15/2026",
        "description": null,
        "owner": "PACES END LLC",
        "tree_dbh": "30",
        "tree_location": "left of driveway",
        "reason_removal": "Invasive/undesirable tree",
        "tree_description": null,
        "tree_number": "1",
        "species": "Oak"
      },
      "geometry": {
        "type": "Point",
        "coordinates": [
          -84.45426324721,
          33.847981785106
        ]
      }
    },
    {
      "type": "Feature",
      "properties": {
        "record": "BA-202604660",
        "address": "1518 MARBUT AVE SE, ATLANTA GA 30316",
        "status": "Accepted",
        "date": "09/15/2026",
        "description": "DDH",
        "owner": null,
        "tree_dbh": null,
        "tree_location": null,
        "reason_removal": null,
        "tree_description": null,
        "tree_number": null,
        "species": null
      },
      "geometry": {
        "type": "Point",
        "coordinates": [
          -84.337880937156,
          33.743345695853
        ]
      }
    }
  ]
}