{
  "type": "FeatureCollection",
  "features": [
    {
      "type": "Feature",
      "properties": {
        "record": "BA-202603550",
        "address": "1455 HARBIN RD SW, ATLANTA GA 30311",
        "status": "Issued",
        "date": "07/28/2026",
        "description": null,
        "owner": null,
        "tree_dbh": "17",
        "tree_location": "back center",
        "reason_removal": "Other",
        "tree_description": "17\" Pine, back center, LeaningReason for Removal:OtherComments:17\" Pine, back center, Leaning\n\t\t\n\t\t\n\t\t\tTree number:2Species:PineTree Size (DBH):25Tree location:back centerDescription of Tree:25\" Pine, back center, LeaningReason for Removal:OtherComments:25\" Pine, back center, Leaning\n\t\t\n\t\n\t\n                                \n                            \n                        \n                    \n                        \n                            \n                                \n                                    \n                                        \n                                         Parcel Information\n                                \n                            \n                            \n                                \n                                    \n\t\tParcel Number:14 0216  LL061 *Block:--Lot:--Subdivision:--",
        "tree_number": "1",
        "species": "Pine"
      },
      "geometry": {
        "type": "Point",
        "coordinates": [
          -84.484167670965,
          33.715997262147
        ]
      }
    },
    {
      "type": "Feature",
      "properties": {
        "record": "BA-202603559",
        "address": "3017 HABERSHAM WAY NW, ATLANTA GA 30305",
        "status": "ACA Pending",
        "date": "07/28/2026",
        "description": null,
        "owner": "ROGERS RONALD W",
        "tree_dbh": "32",
        "tree_location": "front right corner of house at drive and wall",
        "reason_removal": "Other",
        "tree_description": "Picture of treeReason for Removal:Significant cavity/area of decayComments: abnormal main stem growth with heavy lean toward home - large Burl at base - decay at main stem near large\n\t\t\n\t\t\n\t\t\tTree number:2Species:MapleTree Size (DBH):20Tree location: front right corner of house at drive and wallDescription of Tree:Picture of treeReason for Removal:OtherComments:top in major decline, extreme limited root zone \n\t\t\n\t\n\t\n                                \n                            \n                        \n                    \n                        \n                            \n                                \n                                    \n                                        \n                                         Parcel Information\n                                \n                            \n                            \n                                \n                                    \n\t\tParcel Number:17 01130002019 *Block:--Lot:--Subdivision:--",
        "tree_number": "1",
        "species": "pine"
      },
      "geometry": {
        "type": "Point",
        "coordinates": [
          -84.392386600999,
          33.835980006785
        ]
      }
    },
    {
      "type": "Feature",
      "properties": {
        "record": "BA-202603566",
        "address": "246 BOLLING RD NE, ATLANTA GA 30305",
        "status": "ACA Pending",
        "date": "07/28/2026",
        "description": null,
        "owner": "Joseph Mullican",
        "tree_dbh": "10",
        "tree_location": "4th tree from the front along the left fence",
        "reason_removal": "Invasive/undesirable tree",
        "tree_description": "1st Thin weak Cherry Laurel, inside the gate in the back.\n1st on the left side of the fence.Reason for Removal:Invasive/undesirable tree\n\t\t\n\t\t\n\t\t\tTree number:2Species:Cherry LaurelTree Size (DBH):18Tree location:2nd Tree Along Left Fence Inside the gate.Description of Tree:2nd Tree Inside the back gate on the left side .Reason for Removal:Invasive/undesirable tree\n\t\t\n\t\t\n\t\t\tTree number:3Species:Cherry LaurelTree Size (DBH):14.5Tree location:3rd Tree Inside Left Gate in Back YardDescription of Tree:Weak Cherry Laurel, 3rd by the fence along the left side of the back yard.Reason for Removal:Invasive/undesirable treeComments:Large Japanese Maple will not be touched.\n\t\t\n\t\t\n\t\t\tTree number:4Species:Japanese PrivetTree Size (DBH):6Tree location:4th tree from the front along the left fenceDescription of Tree:Tree form Ligustrum, 4rd by the fence along the left side of the back yard.Reason for Removal:Invasive/undesirable tree\n\t\t\n\t\t\n\t\t\tTree number:5Species:Japanese PrivetTree Size (DBH):8Tree location:5th Tree along the back yard left fenceDescription of Tree:Weak Ligustrum, 5th by the fence along the left side of the back yard.Reason for Removal:Invasive/undesirable tree\n\t\t\n\t\t\n\t\t\tTree number:6Species:Cherry LaurelTree Size (DBH):28Tree location:6th tree along the left middle in the back yardDescription of Tree:Weak Cherry Laurel 6th in a row by the fence along the left side of the back yard.Reason for Removal:Invasive/undesirable tree\n\t\t\n\t\t\n\t\t\tTree number:7Species:Deodar CedarTree Size (DBH):36Tree location:7th Tree along the Left Side, next to the larger Cherry LaurelDescription of Tree:Weak Deodar Cedar, 7th by the fence along the left side of the back yard.Reason for Removal:Uncorrectable defect\n\t\t\n\t\t\n\t\t\tTree number:8Species:Japanese PrivetTree Size (DBH):18Tree location:8th tree along the left side in the back yardDescription of Tree:Weak Ligustrum, 8th by the Deodar Cedar along the left side of the back yard.Reason for Removal:Invasive/undesirable tree\n\t\t\n\t\t\n\t\t\tTree number:9Species:Cherry LaurelTree Size (DBH):23Tree location:9th Tree along the left side of the back yard.Description of Tree:Weak Cherry Laurel, 3rd by the fence along the left side of the back yard.Reason for Removal:Invasive/undesirable tree\n\t\t\n\t\t\n\t\t\tTree number:10Species:Cherry LaurelTree Size (DBH):19Tree location:Along Back Fence, left of the large HollyDescription of Tree:Weak Cherry Laurel, 10th by the fence along the back fence, left of the large Holly tree.Reason for Removal:Invasive/undesirable tree\n\t\t\n\t\n\t\n                                \n                            \n                        \n                    \n                        \n                            \n                                \n                                    \n                                        \n                                         Parcel Information\n                                \n                            \n                            \n                                \n                                    \n\t\tParcel Number:17 01000003065 *Block:--Lot:--Subdivision:--",
        "tree_number": "1",
        "species": "Cherry Laurel"
      },
      "geometry": {
        "type": "Point",
        "coordinates": [
          -84.379297720599,
          33.829586080417
        ]
      }
    },
    {
      "type": "Feature",
      "properties": {
        "record": "BA-202603564",
        "address": "256 HAAS AVE SE, ATLANTA GA 30316",
        "status": "ACA Pending",
        "date": "07/28/2026",
        "description": null,
        "owner": "Donna Thomas",
        "tree_dbh": "37",
        "tree_location": "Rear left of house",
        "reason_removal": "Dead tree",
        "tree_description": "Dead sweetgum treeReason for Removal:Dead treeComments:Marked in red tape. Pictures attached for dead sweetgum located in the rear left of house.\n\t\t\n\t\n\t\n                                \n                            \n                        \n                    \n                        \n                            \n                                \n                                    \n                                        \n                                         Parcel Information\n                                \n                            \n                            \n                                \n                                    \n\t\tParcel Number:15 177 01 048 *Block:--Lot:--Subdivision:--",
        "tree_number": "1",
        "species": "Sweetgum"
      },
      "geometry": {
        "type": "Point",
        "coordinates": [
          -84.34431340379,
          33.746365632858
        ]
      }
    },
    {
      "type": "Feature",
      "properties": {
        "record": "BA-202603552",
        "address": "1821 AVON AVE SW, ATLANTA GA 30311",
        "status": "Issued",
        "date": "07/28/2026",
        "description": null,
        "owner": "scales stephanie",
        "tree_dbh": "30",
        "tree_location": "Front yard",
        "reason_removal": "Dead tree",
        "tree_description": "Tree is dead and shedding limbs and bark very afraid of it falling on my homeReason for Removal:Dead tree\n\t\t\n\t\n\t\n                                \n                            \n                        \n                    \n                        \n                            \n                                \n                                    \n                                        \n                                         Parcel Information\n                                \n                            \n                            \n                                \n                                    \n\t\tParcel Number:14 01700002034 *Block:--Lot:--Subdivision:--",
        "tree_number": "1",
        "species": "unknown"
      },
      "geometry": {
        "type": "Point",
        "coordinates": [
          -84.447055157735,
          33.722593514389
        ]
      }
    },
    {
      "type": "Feature",
      "properties": {
        "record": "BA-202603563",
        "address": "1848 BAYBERRY DR SW, ATLANTA GA 30311",
        "status": "ACA Pending",
        "date": "07/28/2026",
        "description": null,
        "owner": "Brandi Richardson",
        "tree_dbh": "26",
        "tree_location": "Backyard",
        "reason_removal": "Uncorrectable defect",
        "tree_description": "Covered in ivy, undesirable speciesReason for Removal:Invasive/undesirable treeComments:Marked in red tape in the back\n\t\t\n\t\t\n\t\t\tTree number:2Species:PineTree Size (DBH):31Tree location:BackyardDescription of Tree:Covered in ivy, uncorrectable lean on upper canopyReason for Removal:Uncorrectable defectComments:Marked with red tape\n\t\t\n\t\n\t\n                                \n                            \n                        \n                    \n                        \n                            \n                                \n                                    \n                                        \n                                         Parcel Information\n                                \n                            \n                            \n                                \n                                    \n\t\tParcel Number:14 01690008041 *Block:--Lot:--Subdivision:--",
        "tree_number": "1",
        "species": "Pine"
      },
      "geometry": {
        "type": "Point",
        "coordinates": [
          -84.448169195005,
          33.715894076825
        ]
      }
    },
    {
      "type": "Feature",
      "properties": {
        "record": "BA-202603556",
        "address": "694 CHANNING DR NW, ATLANTA GA 30318",
        "status": "Accepted",
        "date": "07/28/2026",
        "description": null,
        "owner": null,
        "tree_dbh": "34",
        "tree_location": "front",
        "reason_removal": "Other",
        "tree_description": "Picture of treeReason for Removal:OtherComments: close proximity to home with vertical crack running length of trunk \n\t\t\n\t\t\n\t\t\tTree number:2Species:PineTree Size (DBH):32Tree location:FrontDescription of Tree:Picture of treeReason for Removal:OtherComments:heavy lean towards road with heavy unbalanced canopy",
        "tree_number": "1",
        "species": "Pine"
      },
      "geometry": {
        "type": "Point",
        "coordinates": [
          -84.409692415462,
          33.806813183907
        ]
      }
    },
    {
      "type": "Feature",
      "properties": {
        "record": "BA-202603558",
        "address": "3058 HABERSHAM RD NW, ATLANTA GA 30305",
        "status": "ACA Pending",
        "date": "07/28/2026",
        "description": null,
        "owner": "ALSTON GAYLE S",
        "tree_dbh": "16",
        "tree_location": "back property line",
        "reason_removal": "Diseased",
        "tree_description": "severe trunk diseaseReason for Removal:Diseased\n\t\t\n\t\t\n\t\t\tTree number:2Species:Hybrid MapleTree Size (DBH):18Tree location:back property lineDescription of Tree:severe trunk diseaseReason for Removal:Diseased\n\t\t\n\t\n\t\n                                \n                            \n                        \n                    \n                        \n                            \n                                \n                                    \n                                        \n                                         Parcel Information\n                                \n                            \n                            \n                                \n                                    \n\t\tParcel Number:17 01420001030 *Block:--Lot:--Subdivision:--",
        "tree_number": "1",
        "species": "Hybrid Maple"
      },
      "geometry": {
        "type": "Point",
        "coordinates": [
          -84.397082353809,
          33.83834709705
        ]
      }
    },
    {
      "type": "Feature",
      "properties": {
        "record": "BA-202603569",
        "address": "291 VALLEY RD NW, ATLANTA GA 30305",
        "status": "ACA Pending",
        "date": "07/28/2026",
        "description": null,
        "owner": "HARRISON RICHARD W  ET AL",
        "tree_dbh": "35",
        "tree_location": "front island",
        "reason_removal": "Other",
        "tree_description": "35\" Poplar, front island, struck by lightening, damaged, broken branches, crack in trunkReason for Removal:OtherComments:35\" Poplar, front island, struck by lightening, damaged, broken branches, crack in trunk\n\t\t\n\t\n\t\n                                \n                            \n                        \n                    \n                        \n                            \n                                \n                                    \n                                        \n                                         Parcel Information\n                                \n                            \n                            \n                                \n                                    \n\t\tParcel Number:17 0116  LL063 *Block:--Lot:--Subdivision:--",
        "tree_number": "1",
        "species": "Poplar"
      },
      "geometry": {
        "type": "Point",
        "coordinates": [
          -84.39692579577,
          33.856648857537
        ]
      }
    },
    {
      "type": "Feature",
      "properties": {
        "record": "BA-202603547",
        "address": "2677 RIVERS RD NW, ATLANTA GA 30305",
        "status": "Accepted",
        "date": "07/28/2026",
        "description": null,
        "owner": null,
        "tree_dbh": "10",
        "tree_location": "right side of drive near river",
        "reason_removal": "Dead tree",
        "tree_description": "10\" Poplar, right side of drive, near river, DeadReason for Removal:Dead treeComments:10\" Poplar, right side of drive, near river, Dead\n\t\t\n\t\n\t\n                                \n                            \n                        \n                    \n                        \n                            \n                                \n                                    \n                                        \n                                         Parcel Information\n                                \n                            \n                            \n                                \n                                    \n\t\tParcel Number:17 01120002043 *Block:--Lot:--Subdivision:--",
        "tree_number": "1",
        "species": "Poplar"
      },
      "geometry": {
        "type": "Point",
        "coordinates": [
          -84.390007517405,
          33.826932083096
        ]
      }
    },
    {
      "type": "Feature",
      "properties": {
        "record": "BA-202603545",
        "address": "165 VALLEY RD NW, ATLANTA GA 30305",
        "status": "Accepted",
        "date": "07/28/2026",
        "description": null,
        "owner": null,
        "tree_dbh": "18",
        "tree_location": "back left of home",
        "reason_removal": "Dead tree",
        "tree_description": null,
        "tree_number": "1",
        "species": "Tulip Poplar"
      },
      "geometry": {
        "type": "Point",
        "coordinates": [
          -84.392880448465,
          33.853972177275
        ]
      }
    },
    {
      "type": "Feature",
      "properties": {
        "record": "BA-202603549",
        "address": "391 EAST WESLEY RD NE, ATLANTA GA 30305",
        "status": "Accepted",
        "date": "07/28/2026",
        "description": null,
        "owner": null,
        "tree_dbh": "38",
        "tree_location": "front yard",
        "reason_removal": "Other",
        "tree_description": "On drivewayReason for Removal:Other\n\t\t\n\t\n\t\n                                \n                            \n                        \n                    \n                        \n                            \n                                \n                                    \n                                        \n                                         Parcel Information\n                                \n                            \n                            \n                                \n                                    \n\t\tParcel Number:17 00590001007 *Block:--Lot:--Subdivision:--",
        "tree_number": "1",
        "species": "Oak"
      },
      "geometry": {
        "type": "Point",
        "coordinates": [
          -84.374641154335,
          33.828568611071
        ]
      }
    },
    {
      "type": "Feature",
      "properties": {
        "record": "26TMP-049152",
        "address": "2909 JONESBORO RD SE, ATLANTA GA 30354",
        "status": "",
        "date": "07/28/2026",
        "description": null,
        "owner": null,
        "tree_dbh": null,
        "tree_location": null,
        "reason_removal": null,
        "tree_description": null,
        "tree_number": null,
        "species": null
      },
      "geometry": {
        "type": "Point",
        "coordinates": [
          -84.370244348717,
          33.67613334763
        ]
      }
    },
    {
      "type": "Feature",
      "properties": {
        "record": "BA-202603568",
        "address": "1971 WESTSIDE BLVD NW, ATLANTA GA 30318",
        "status": "ACA Pending",
        "date": "07/28/2026",
        "description": null,
        "owner": "Allison Corbally",
        "tree_dbh": "13",
        "tree_location": "back near fence line",
        "reason_removal": "Other",
        "tree_description": "13\" Pine, near fence line with lean toward home, they were backfilled improperly by construction company leading to declineReason for Removal:OtherComments:13\" Pine, near fence line with lean toward home, they were backfilled improperly by construction company leading to decline\n\t\t\n\t\t\n\t\t\tTree number:2Species:PineTree Size (DBH):15Tree location:back near fencelineDescription of Tree:15\" Pine, near fence line with lean toward home, they were backfilled improperly by construction company leading to declineReason for Removal:OtherComments:15\" Pine, near fence line with lean toward home, they were backfilled improperly by construction company leading to decline\n\t\t\n\t\n\t\n                                \n                            \n                        \n                    \n                        \n                            \n                                \n                                    \n                                        \n                                         Parcel Information\n                                \n                            \n                            \n                                \n                                    \n\t\tParcel Number:T17 02440006043 96 *Block:--Lot:96Subdivision:WESTSIDE STATION / PDSD-16-001",
        "tree_number": "1",
        "species": "Pine"
      },
      "geometry": {
        "type": "Point",
        "coordinates": [
          -84.452326731996,
          33.81330536214
        ]
      }
    },
    {
      "type": "Feature",
      "properties": {
        "record": "BA-202603565",
        "address": "230 PEACHTREE CIR NE, ATLANTA GA 30309",
        "status": "ACA Pending",
        "date": "07/28/2026",
        "description": null,
        "owner": "FELTON ALICE D",
        "tree_dbh": "20",
        "tree_location": "Front Yard",
        "reason_removal": "Significant cavity/area of decay",
        "tree_description": "Decay in the Trunk Reason for Removal:Significant cavity/area of decay\n\t\t\n\t\n\t\n                                \n                            \n                        \n                    \n                        \n                            \n                                \n                                    \n                                        \n                                         Parcel Information\n                                \n                            \n                            \n                                \n                                    \n\t\tParcel Number:17 01050003007 *Block:--Lot:--Subdivision:--",
        "tree_number": "1",
        "species": "Maple"
      },
      "geometry": {
        "type": "Point",
        "coordinates": [
          -84.385594059617,
          33.795418287621
        ]
      }
    },
    {
      "type": "Feature",
      "properties": {
        "record": "BA-202603571",
        "address": "250 LAKEVIEW AVE NE, ATLANTA GA 30305",
        "status": "ACA Pending",
        "date": "07/28/2026",
        "description": null,
        "owner": "George Vellanikaran",
        "tree_dbh": "36",
        "tree_location": "Front Yard",
        "reason_removal": "Other",
        "tree_description": "Tree leaning over electric wires over to the street and neighbors houseReason for Removal:OtherComments:tree marked with orange tape\n\t\t\n\t\t\n\t\t\tTree number:2Species:Oak?Tree Size (DBH):34Tree location:Front YardDescription of Tree:Tall tree too close to the houseReason for Removal:OtherComments:Marked with blue tape\n\t\t\n\t\n\t\n                                \n                            \n                        \n                    \n                        \n                            \n                                \n                                    \n                                        \n                                         Parcel Information\n                                \n                            \n                            \n                                \n                                    \n\t\tParcel Number:17 01010008061 *Block:--Lot:--Subdivision:--",
        "tree_number": "1",
        "species": "Oak"
      },
      "geometry": {
        "type": "Point",
        "coordinates": [
          -84.379657064946,
          33.824625903679
        ]
      }
    },
    {
      "type": "Feature",
      "properties": {
        "record": "BA-202603548",
        "address": "800 SIDNEY MARCUS BLVD NE, ATLANTA GA 30324",
        "status": "Accepted",
        "date": "07/28/2026",
        "description": null,
        "owner": "GEORGIA HOTEL GROUP L L C",
        "tree_dbh": "13",
        "tree_location": "front right entrance",
        "reason_removal": "Dead tree",
        "tree_description": "13\" Maple. at front right entrance, DeadReason for Removal:Dead treeComments:13\" Maple. at front right entrance, Dead\n\t\t\n\t\n\t\n                                \n                            \n                        \n                    \n                        \n                            \n                                \n                                    \n                                        \n                                         Parcel Information\n                                \n                            \n                            \n                                \n                                    \n\t\tParcel Number:17 0048  LL052 *Block:--Lot:--Subdivision:--",
        "tree_number": "1",
        "species": "Maple"
      },
      "geometry": {
        "type": "Point",
        "coordinates": [
          -84.363926900301,
          33.825960043236
        ]
      }
    },
    {
      "type": "Feature",
      "properties": {
        "record": "BA-202603551",
        "address": "1909 SUNBURY PL NW, ATLANTA GA 30318",
        "status": "Accepted",
        "date": "07/28/2026",
        "description": null,
        "owner": "WETZEL JORDY T",
        "tree_dbh": "12",
        "tree_location": "back right side of property",
        "reason_removal": "Dead tree",
        "tree_description": "12\" Hardwood, back right side of property, DeadReason for Removal:Dead treeComments:12\" Hardwood, back right side of property, Dead\n\t\t\n\t\n\t\n                                \n                            \n                        \n                    \n                        \n                            \n                                \n                                    \n                                        \n                                         Parcel Information\n                                \n                            \n                            \n                                \n                                    \n\t\tParcel Number:17 01530014092 *Block:--Lot:--Subdivision:--",
        "tree_number": "1",
        "species": "Hardwood"
      },
      "geometry": {
        "type": "Point",
        "coordinates": [
          -84.408780332893,
          33.807446223316
        ]
      }
    },
    {
      "type": "Feature",
      "properties": {
        "record": "BA-202603570",
        "address": "3900 RANDALL RIDGE RD NW, ATLANTA GA 30327",
        "status": "ACA Pending",
        "date": "07/28/2026",
        "description": null,
        "owner": "Paul and Edie Weintraub",
        "tree_dbh": "18",
        "tree_location": "Between side and backyard",
        "reason_removal": "Dead tree",
        "tree_description": "Tree fell in one of the last storms and looks to have been termite infested. It snapped at near the base and fell onto our yard. Reason for Removal:Dead treeComments:As mentioned, it fell in the last storm and looks to be complete termite infested and rotten.\n\t\t\n\t\n\t\n                                \n                            \n                        \n                    \n                        \n                            \n                                \n                                    \n                                        \n                                         Parcel Information\n                                \n                            \n                            \n                                \n                                    \n\t\tParcel Number:17 0200  LL113 *Block:--Lot:--Subdivision:--",
        "tree_number": "1",
        "species": "Live oak"
      },
      "geometry": {
        "type": "Point",
        "coordinates": [
          -84.428181396327,
          33.861281175583
        ]
      }
    },
    {
      "type": "Feature",
      "properties": {
        "record": "BA-202603555",
        "address": "108 VINE ST SW, ATLANTA GA 30314",
        "status": "ACA Pending",
        "date": "07/28/2026",
        "description": null,
        "owner": "DIX EDDIE JAMES",
        "tree_dbh": "49",
        "tree_location": "Left rear",
        "reason_removal": "Other",
        "tree_description": "None Reason for Removal:OtherComments:The root flare, lower trunk, and structural root plate have incorporated sections of chain-link fencing\nand are girdled by embedded fence material, with an adjacent metal fence post also embedded\nwithin the expanding trunk. Field inspection confirmed the chain-link fence had been incorporated\ninto the tree. These long-term embedded objects have resulted in chronic girdling of the trunk, root\nflare, and structural root plate.",
        "tree_number": "1",
        "species": "Water Oak"
      },
      "geometry": {
        "type": "Point",
        "coordinates": [
          -84.407831532785,
          33.75138007476
        ]
      }
    },
    {
      "type": "Feature",
      "properties": {
        "record": "BA-202603567",
        "address": "2261 CARVER DR NW, ATLANTA GA 30314",
        "status": "ACA Pending",
        "date": "07/28/2026",
        "description": null,
        "owner": "ARNOLD LUDIE",
        "tree_dbh": "25",
        "tree_location": "back left corner",
        "reason_removal": "Other",
        "tree_description": "25\" Ash, back left corner of home, rotted trunk, within 2 ft of structureReason for Removal:Significant cavity/area of decayComments:25\" Ash, back left corner of home, rotted trunk, within 2 ft of structure\n\t\t\n\t\t\n\t\t\tTree number:2Species:MimosaTree Size (DBH):12Tree location:between drivewaysDescription of Tree:12\" Mimosa, between driveways, DeadReason for Removal:Dead treeComments:12\" Mimosa, between driveways, Dead\n\t\t\n\t\t\n\t\t\tTree number:3Species:Water OakTree Size (DBH):25Tree location:back center close to rampDescription of Tree:25\" Water Oak, back center, close to ramp, leaning toward homeReason for Removal:OtherComments:25\" Water Oak, back center, close to ramp, leaning toward home\n\t\t\n\t\t\n\t\t\tTree number:4Species:PineTree Size (DBH):21Tree location:at end of drivewayDescription of Tree:21\" Pine, at end of driveway, leaning 25%Reason for Removal:OtherComments:21\" Pine, at end of driveway, leaning 25%\n\t\t\n\t\t\n\t\t\tTree number:5Species:PoplarTree Size (DBH):26Tree location:back centerDescription of Tree:26\" Polar, back center, covered in ivy, leaning toward homeReason for Removal:OtherComments:26\" Polar, back center, covered in ivy, leaning toward home\n\t\t\n\t\n\t\n                                \n                            \n                        \n                    \n                        \n                            \n                                \n                                    \n                                        \n                                         Parcel Information\n                                \n                            \n                            \n                                \n                                    \n\t\tParcel Number:14 01790004067 *Block:--Lot:--Subdivision:--",
        "tree_number": "1",
        "species": "Ash"
      },
      "geometry": {
        "type": "Point",
        "coordinates": [
          -84.461662976268,
          33.760000101919
        ]
      }
    },
    {
      "type": "Feature",
      "properties": {
        "record": "BA-202603553",
        "address": "1150 LYNHURST DR SW, ATLANTA GA 30311",
        "status": "Issued",
        "date": "07/28/2026",
        "description": "DDH application.",
        "owner": null,
        "tree_dbh": null,
        "tree_location": null,
        "reason_removal": null,
        "tree_description": null,
        "tree_number": null,
        "species": null
      },
      "geometry": {
        "type": "Point",
        "coordinates": [
          -84.487701381459,
          33.724095729361
        ]
      }
    }
  ]
}