{
  "type": "FeatureCollection",
  "features": [
    {
      "type": "Feature",
      "properties": {
        "record": "BA-202604242",
        "address": "3135 RIDGEWOOD RD NW, ATLANTA GA 30327",
        "status": "ACA Pending",
        "date": "08/26/2026",
        "description": null,
        "owner": "Courtney Amos",
        "tree_dbh": "36",
        "tree_location": "Left side of garage, down lower driveway on left side of house",
        "reason_removal": "Dying tree",
        "tree_description": "Greater than 30% Canopy Die-BackReason for Removal:Dying treeComments:Previously approved on BA-202505921\n\t\t\n\t\n\t\n                                \n                            \n                        \n                    \n                        \n                            \n                                \n                                    \n                                        \n                                         Parcel Information\n                                \n                            \n                            \n                                \n                                    \n\t\tParcel Number:17 02180001001 *Block:--Lot:--Subdivision:--",
        "tree_number": "1",
        "species": "White Oak"
      },
      "geometry": {
        "type": "Point",
        "coordinates": [
          -84.446523334686,
          33.840283251653
        ]
      }
    },
    {
      "type": "Feature",
      "properties": {
        "record": "BA-202604231",
        "address": "163 BLACKLAND DR NW, ATLANTA GA 30342",
        "status": "ACA Pending",
        "date": "08/26/2026",
        "description": null,
        "owner": null,
        "tree_dbh": null,
        "tree_location": null,
        "reason_removal": null,
        "tree_description": null,
        "tree_number": null,
        "species": null
      },
      "geometry": {
        "type": "Point",
        "coordinates": [
          -84.389562121163,
          33.854911830183
        ]
      }
    },
    {
      "type": "Feature",
      "properties": {
        "record": "BA-202604232",
        "address": "180 17TH ST NE, ATLANTA GA 30309",
        "status": "ACA Pending",
        "date": "08/26/2026",
        "description": null,
        "owner": null,
        "tree_dbh": null,
        "tree_location": null,
        "reason_removal": null,
        "tree_description": null,
        "tree_number": null,
        "species": null
      },
      "geometry": {
        "type": "Point",
        "coordinates": [
          -84.379812265697,
          33.793225899963
        ]
      }
    },
    {
      "type": "Feature",
      "properties": {
        "record": "BA-202604230",
        "address": "2016 RIVERMEADE WAY NW, ATLANTA GA 30327",
        "status": "ACA Pending",
        "date": "08/26/2026",
        "description": null,
        "owner": null,
        "tree_dbh": null,
        "tree_location": null,
        "reason_removal": null,
        "tree_description": null,
        "tree_number": null,
        "species": null
      },
      "geometry": {
        "type": "Point",
        "coordinates": [
          -84.451761654036,
          33.836144822627
        ]
      }
    },
    {
      "type": "Feature",
      "properties": {
        "record": "BA-202604246",
        "address": "1127 MOORES MILL RD NW, ATLANTA GA 30327",
        "status": "ACA Pending",
        "date": "08/26/2026",
        "description": null,
        "owner": null,
        "tree_dbh": null,
        "tree_location": null,
        "reason_removal": null,
        "tree_description": null,
        "tree_number": null,
        "species": null
      },
      "geometry": {
        "type": "Point",
        "coordinates": [
          -84.424431390069,
          33.834184098093
        ]
      }
    },
    {
      "type": "Feature",
      "properties": {
        "record": "BA-202604229",
        "address": "920 MEMORIAL DR SE, UNIT 13, ATLANTA GA 30316",
        "status": "ACA Pending",
        "date": "08/26/2026",
        "description": null,
        "owner": null,
        "tree_dbh": null,
        "tree_location": null,
        "reason_removal": null,
        "tree_description": null,
        "tree_number": null,
        "species": null
      },
      "geometry": {
        "type": "Point",
        "coordinates": [
          -84.357599270911,
          33.746641478479
        ]
      }
    },
    {
      "type": "Feature",
      "properties": {
        "record": "BA-202604238",
        "address": "1315 BATTLE VIEW DR NW, ATLANTA GA 30327",
        "status": "ACA Pending",
        "date": "08/26/2026",
        "description": null,
        "owner": null,
        "tree_dbh": null,
        "tree_location": null,
        "reason_removal": null,
        "tree_description": null,
        "tree_number": null,
        "species": null
      },
      "geometry": {
        "type": "Point",
        "coordinates": [
          -84.430518031361,
          33.82459413891
        ]
      }
    },
    {
      "type": "Feature",
      "properties": {
        "record": "26TMP-056360",
        "address": "1343 PEACHTREE BATTLE AVE NW, ATLANTA GA 30327",
        "status": "",
        "date": "08/26/2026",
        "description": null,
        "owner": null,
        "tree_dbh": null,
        "tree_location": null,
        "reason_removal": null,
        "tree_description": null,
        "tree_number": null,
        "species": null
      },
      "geometry": {
        "type": "Point",
        "coordinates": [
          -84.431873215645,
          33.825875091269
        ]
      }
    },
    {
      "type": "Feature",
      "properties": {
        "record": "BA-202604243",
        "address": "685 WILSON RD NW, ATLANTA GA 30318",
        "status": "ACA Pending",
        "date": "08/26/2026",
        "description": null,
        "owner": "Rachel Manning",
        "tree_dbh": "1",
        "tree_location": "front yard",
        "reason_removal": "Dying tree",
        "tree_description": "large Reason for Removal:Dying tree\n\t\t\n\t\n\t\n                                \n                            \n                        \n                    \n                        \n                            \n                                \n                                    \n                                        \n                                         Parcel Information\n                                \n                            \n                            \n                                \n                                    \n\t\tParcel Number:17 01540003006 *Block:--Lot:--Subdivision:--",
        "tree_number": "1",
        "species": "oak?"
      },
      "geometry": {
        "type": "Point",
        "coordinates": [
          -84.410647053397,
          33.815677317709
        ]
      }
    },
    {
      "type": "Feature",
      "properties": {
        "record": "BA-202604250",
        "address": "199 LOCUST ST NE, ATLANTA GA 30317",
        "status": "ACA Pending",
        "date": "08/26/2026",
        "description": null,
        "owner": null,
        "tree_dbh": null,
        "tree_location": null,
        "reason_removal": null,
        "tree_description": null,
        "tree_number": null,
        "species": null
      },
      "geometry": {
        "type": "Point",
        "coordinates": [
          -84.324653170335,
          33.758147679983
        ]
      }
    },
    {
      "type": "Feature",
      "properties": {
        "record": "BA-202604244",
        "address": "771 CENTRAL AVE SW, ATLANTA GA 30315",
        "status": "ACA Pending",
        "date": "08/26/2026",
        "description": null,
        "owner": null,
        "tree_dbh": null,
        "tree_location": null,
        "reason_removal": null,
        "tree_description": null,
        "tree_number": null,
        "species": null
      },
      "geometry": {
        "type": "Point",
        "coordinates": [
          -84.39359269026,
          33.734001517856
        ]
      }
    },
    {
      "type": "Feature",
      "properties": {
        "record": "BA-202604247",
        "address": "364 OLD IVY RD NE, BLDG2, ATLANTA GA 30342",
        "status": "ACA Pending",
        "date": "08/26/2026",
        "description": null,
        "owner": null,
        "tree_dbh": null,
        "tree_location": null,
        "reason_removal": null,
        "tree_description": null,
        "tree_number": null,
        "species": null
      },
      "geometry": {
        "type": "Point",
        "coordinates": [
          -84.375577480148,
          33.857463200546
        ]
      }
    },
    {
      "type": "Feature",
      "properties": {
        "record": "BA-202604228",
        "address": "2500 WOODWARD WAY NW, ATLANTA GA 30305",
        "status": "ACA Pending",
        "date": "08/26/2026",
        "description": null,
        "owner": null,
        "tree_dbh": null,
        "tree_location": null,
        "reason_removal": null,
        "tree_description": null,
        "tree_number": null,
        "species": null
      },
      "geometry": {
        "type": "Point",
        "coordinates": [
          -84.396202772327,
          33.822103513398
        ]
      }
    },
    {
      "type": "Feature",
      "properties": {
        "record": "BA-202604239",
        "address": "3500 RIDGEWOOD RD NW, ATLANTA GA 30327",
        "status": "ACA Pending",
        "date": "08/26/2026",
        "description": null,
        "owner": null,
        "tree_dbh": null,
        "tree_location": null,
        "reason_removal": null,
        "tree_description": null,
        "tree_number": null,
        "species": null
      },
      "geometry": {
        "type": "Point",
        "coordinates": [
          -84.444053452921,
          33.850685572449
        ]
      }
    },
    {
      "type": "Feature",
      "properties": {
        "record": "BA-202604227",
        "address": "82 KARLAND DR NW, ATLANTA GA 30305",
        "status": "ACA Pending",
        "date": "08/26/2026",
        "description": null,
        "owner": null,
        "tree_dbh": null,
        "tree_location": null,
        "reason_removal": null,
        "tree_description": null,
        "tree_number": null,
        "species": null
      },
      "geometry": {
        "type": "Point",
        "coordinates": [
          -84.384527337277,
          33.849809248283
        ]
      }
    },
    {
      "type": "Feature",
      "properties": {
        "record": "BA-202604241",
        "address": "47 28TH ST NW, ATLANTA GA 30309",
        "status": "ACA Pending",
        "date": "08/26/2026",
        "description": null,
        "owner": null,
        "tree_dbh": null,
        "tree_location": null,
        "reason_removal": null,
        "tree_description": null,
        "tree_number": null,
        "species": null
      },
      "geometry": {
        "type": "Point",
        "coordinates": [
          -84.397027948789,
          33.805192898631
        ]
      }
    },
    {
      "type": "Feature",
      "properties": {
        "record": "BA-202604248",
        "address": "27 MADDOX DR NE, ATLANTA GA 30309",
        "status": "ACA Pending",
        "date": "08/26/2026",
        "description": null,
        "owner": "MOORE L L A JR",
        "tree_dbh": "32",
        "tree_location": "Left side of the house",
        "reason_removal": "Significant cavity/area of decay",
        "tree_description": "Tree in poor condition. High riskReason for Removal:Significant cavity/area of decay\n\t\t\n\t\n\t\n                                \n                            \n                        \n                    \n                        \n                            \n                                \n                                    \n                                        \n                                         Parcel Information\n                                \n                            \n                            \n                                \n                                    \n\t\tParcel Number:17 01050005029 *Block:--Lot:--Subdivision:--",
        "tree_number": "1",
        "species": "Pecan"
      },
      "geometry": {
        "type": "Point",
        "coordinates": [
          -84.378091467731,
          33.795159986145
        ]
      }
    },
    {
      "type": "Feature",
      "properties": {
        "record": "BA-202604245",
        "address": "93 INTERLOCHEN DR NE, ATLANTA GA 30342",
        "status": "Accepted",
        "date": "08/26/2026",
        "description": null,
        "owner": null,
        "tree_dbh": null,
        "tree_location": null,
        "reason_removal": null,
        "tree_description": null,
        "tree_number": null,
        "species": null
      },
      "geometry": {
        "type": "Point",
        "coordinates": [
          -84.384528326305,
          33.868743110589
        ]
      }
    },
    {
      "type": "Feature",
      "properties": {
        "record": "BA-202604234",
        "address": "676 DARLINGTON RD NE, ATLANTA GA 30305",
        "status": "ACA Pending",
        "date": "08/26/2026",
        "description": null,
        "owner": "John Mitchell",
        "tree_dbh": "34",
        "tree_location": "Backyard, right corner of property",
        "reason_removal": "Dead tree",
        "tree_description": "Dead oakReason for Removal:Dead treeComments:Dead oak is located in the back right of the property leaning towards neighbors shed.\n\t\t\n\t\n\t\n                                \n                            \n                        \n                    \n                        \n                            \n                                \n                                    \n                                        \n                                         Parcel Information\n                                \n                            \n                            \n                                \n                                    \n\t\tParcel Number:17 00470002015 *Block:--Lot:--Subdivision:--",
        "tree_number": "1",
        "species": "oak"
      },
      "geometry": {
        "type": "Point",
        "coordinates": [
          -84.365778216794,
          33.83333216485
        ]
      }
    },
    {
      "type": "Feature",
      "properties": {
        "record": "BA-202604235",
        "address": "1860 MONROE DR NE, ATLANTA GA 30324",
        "status": "ACA Pending",
        "date": "08/26/2026",
        "description": null,
        "owner": "Celine de Verteuil",
        "tree_dbh": "22",
        "tree_location": "Back yard 1860 Monroe Drive",
        "reason_removal": "Dying tree",
        "tree_description": "split bark\nmedium sizeReason for Removal:Dying treeComments:pine located in the back corner of back yard near trampoline and magnolia tree. struck by lightening. bark stripping and tree sapping\n\t\t\n\t\n\t\n                                \n                            \n                        \n                    \n                        \n                            \n                                \n                                    \n                                        \n                                         Parcel Information\n                                \n                            \n                            \n                                \n                                    \n\t\tParcel Number:17 00560002002 *Block:--Lot:--Subdivision:--",
        "tree_number": "1",
        "species": "pine"
      },
      "geometry": {
        "type": "Point",
        "coordinates": [
          -84.374683760818,
          33.805456753644
        ]
      }
    },
    {
      "type": "Feature",
      "properties": {
        "record": "BA-202604249",
        "address": "1579 MONROE DR NE, ATLANTA GA 30324",
        "status": "ACA Pending",
        "date": "08/26/2026",
        "description": null,
        "owner": "ANSLEY II LTD",
        "tree_dbh": "42",
        "tree_location": "RH Corner of Ansley II shopping complex.",
        "reason_removal": "Significant cavity/area of decay",
        "tree_description": "42\" DBH WO with greater then 20 degree lean over structure and 22 inch cavity at base. Reason for Removal:Significant cavity/area of decay\n\t\t\n\t\n\t\n                                \n                            \n                        \n                    \n                        \n                            \n                                \n                                    \n                                        \n                                         Parcel Information\n                                \n                            \n                            \n                                \n                                    \n\t\tParcel Number:17 00560012041 *Block:--Lot:--Subdivision:--",
        "tree_number": "1",
        "species": "WO"
      },
      "geometry": {
        "type": "Point",
        "coordinates": [
          -84.370004766664,
          33.798473358649
        ]
      }
    },
    {
      "type": "Feature",
      "properties": {
        "record": "BA-202604233",
        "address": "1901 CAMBRIA AVE NW, ATLANTA GA 30318",
        "status": "ACA Pending",
        "date": "08/26/2026",
        "description": null,
        "owner": null,
        "tree_dbh": "15",
        "tree_location": "Right side of front yard",
        "reason_removal": "Dead tree",
        "tree_description": "Dead Reason for Removal:Dead tree\n\t\t\n\t\t\n\t\t\tTree number:2Species:PoplarTree Size (DBH):20Tree location:Right side of front yardDescription of Tree:Dead Reason for Removal:Dead tree\n\t\t\n\t\n\t\n                                \n                            \n                        \n                    \n                        \n                            \n                                \n                                    \n                                        \n                                         Parcel Information\n                                \n                            \n                            \n                                \n                                    \n\t\tParcel Number:17 01860003105 *Block:--Lot:--Subdivision:--",
        "tree_number": "1",
        "species": "Poplar"
      },
      "geometry": {
        "type": "Point",
        "coordinates": [
          -84.419457369135,
          33.806540079054
        ]
      }
    },
    {
      "type": "Feature",
      "properties": {
        "record": "BA-202604225",
        "address": "1685 LENOX RD NE, ATLANTA GA 30306",
        "status": "Accepted",
        "date": "08/26/2026",
        "description": "DDH",
        "owner": null,
        "tree_dbh": null,
        "tree_location": null,
        "reason_removal": null,
        "tree_description": null,
        "tree_number": null,
        "species": null
      },
      "geometry": {
        "type": "Point",
        "coordinates": [
          -84.351485944655,
          33.800595939717
        ]
      }
    }
  ]
}