{
  "type": "FeatureCollection",
  "features": [
    {
      "type": "Feature",
      "properties": {
        "record": "BA-202604529",
        "address": "387 ATWOOD ST SW, ATLANTA GA 30310",
        "status": "ACA Pending",
        "date": "09/09/2026",
        "description": null,
        "owner": null,
        "tree_dbh": "30",
        "tree_location": "Back-right of property near fence (NW corner)",
        "reason_removal": "Dead tree",
        "tree_description": "Existing mature tree located near rear fence at NW corner of property. Tree exhibits a noticeable lean.Reason for Removal:Dead treeComments:Tree #1 corresponds to the tree identified on the submitted Atwood_Site_Plan_TreeMarkup. Tree has a noticeable lean and is being submitted for evaluation to determine whether removal is warranted.\n\t\t\n\t\n\t\n                                \n                            \n                        \n                    \n                        \n                            \n                                \n                                    \n                                        \n                                         Parcel Information\n                                \n                            \n                            \n                                \n                                    \n\t\tParcel Number:14 01400003078 *Block:--Lot:--Subdivision:--",
        "tree_number": "1",
        "species": "Willow Oak"
      },
      "geometry": {
        "type": "Point",
        "coordinates": [
          -84.428842745521,
          33.74441182535
        ]
      }
    },
    {
      "type": "Feature",
      "properties": {
        "record": "BA-202604515",
        "address": "1014 SEABOARD AVE NW, ATLANTA GA 30318",
        "status": "ACA Pending",
        "date": "09/09/2026",
        "description": null,
        "owner": "CHILDERS DAVID F",
        "tree_dbh": "9",
        "tree_location": "Front of House, Right Side",
        "reason_removal": "Significant cavity/area of decay",
        "tree_description": "Oak Tree located in Front of House on the Right Side with visible mushroom growth at the base of tree. Also, there is decay in different sections of the root flare presentReason for Removal:Significant cavity/area of decay\n\t\t\n\t\n\t\n                                \n                            \n                        \n                    \n                        \n                            \n                                \n                                    \n                                        \n                                         Parcel Information\n                                \n                            \n                            \n                                \n                                    \n\t\tParcel Number:17 01860003208 *Block:--Lot:--Subdivision:--",
        "tree_number": "1",
        "species": "Oak"
      },
      "geometry": {
        "type": "Point",
        "coordinates": [
          -84.420964740741,
          33.808742258415
        ]
      }
    },
    {
      "type": "Feature",
      "properties": {
        "record": "BA-202604541",
        "address": "3299 BROWNS MILL RD SW, FUTURE PHA, ATLANTA GA 30354",
        "status": "ACA Pending",
        "date": "09/09/2026",
        "description": null,
        "owner": null,
        "tree_dbh": "15",
        "tree_location": "front of 553",
        "reason_removal": "Dead tree",
        "tree_description": "trunk decâyReason for Removal:Dying tree\n\t\t\n\t\t\n\t\t\tTree number:2Species:pineTree Size (DBH):4Tree location:back of 539Description of Tree:partially uprootedReason for Removal:Dying tree\n\t\t\n\t\t\n\t\t\tTree number:3Species:mapleTree Size (DBH):10Tree location:front of 464Description of Tree:trunk decayReason for Removal:Dying tree\n\t\t\n\t\t\n\t\t\tTree number:4Species:mapleTree Size (DBH):10Tree location:front of 468Description of Tree:dead treeReason for Removal:Dead tree\n\t\t\n\t\t\n\t\t\tTree number:5Species:pineTree Size (DBH):18Tree location:back of 549Description of Tree:dead treeReason for Removal:Dead tree\n\t\t\n\t\t\n\t\t\tTree number:6Species:mapleTree Size (DBH):15Tree location:front of 527Description of Tree:trunk decay Reason for Removal:Dying tree\n\t\t\n\t\t\n\t\t\tTree number:7Species:pineTree Size (DBH):20Tree location:back left of 524Description of Tree:dead treeReason for Removal:Dead tree\n\t\t\n\t\t\n\t\t\tTree number:8Species:pineTree Size (DBH):12Tree location:Left of 423 on top of Retaining WallDescription of Tree:dead tree Reason for Removal:Dead tree\n\t\t\n\t\t\n\t\t\tTree number:9Species:pineTree Size (DBH):10Tree location:Left of 423 on top of Retaining WallDescription of Tree:dead treeReason for Removal:Dead tree\n\t\t\n\t\t\n\t\t\tTree number:10Species:mapleTree Size (DBH):11Tree location:Left of 423 on top of Retaining WallDescription of Tree:dead treeReason for Removal:Dead tree\n\t\t\n\t\t\n\t\t\tTree number:11Species:mapleTree Size (DBH):12Tree location:Front of 555Description of Tree:dead treeReason for Removal:Dead tree\n\t\t\n\t\n\t\n                                \n                            \n                        \n                    \n                        \n                            \n                                \n                                    \n                                        \n                                         Parcel Information\n                                \n                            \n                            \n                                \n                                    \n\t\tParcel Number:T14 0062  LL032 02 *Block:--Lot:--Subdivision:--",
        "tree_number": "1",
        "species": "maple"
      },
      "geometry": {
        "type": "Point",
        "coordinates": [
          -84.380268146336,
          33.667474883116
        ]
      }
    },
    {
      "type": "Feature",
      "properties": {
        "record": "BA-202604550",
        "address": "4380 GLENGARY DR NE, ATLANTA GA 30342",
        "status": "ACA Pending",
        "date": "09/09/2026",
        "description": null,
        "owner": null,
        "tree_dbh": null,
        "tree_location": null,
        "reason_removal": null,
        "tree_description": null,
        "tree_number": null,
        "species": null
      },
      "geometry": {
        "type": "Point",
        "coordinates": [
          -84.363366007783,
          33.873995918686
        ]
      }
    },
    {
      "type": "Feature",
      "properties": {
        "record": "BA-202604524",
        "address": "2341 MARIETTA BLVD NW, ATLANTA GA 30318",
        "status": "ACA Pending",
        "date": "09/09/2026",
        "description": null,
        "owner": "Susan Montgomery",
        "tree_dbh": "12",
        "tree_location": "Right side",
        "reason_removal": "Dead tree",
        "tree_description": "Dead and leaning over restaurantReason for Removal:Dead treeComments:Tagged\n\t\t\n\t\n\t\n                                \n                            \n                        \n                    \n                        \n                            \n                                \n                                    \n                                        \n                                         Parcel Information\n                                \n                            \n                            \n                                \n                                    \n\t\tParcel Number:17 0230  LL135 *Block:--Lot:--Subdivision:--",
        "tree_number": "1",
        "species": "Red Oak"
      },
      "geometry": {
        "type": "Point",
        "coordinates": [
          -84.453419390119,
          33.820567187935
        ]
      }
    },
    {
      "type": "Feature",
      "properties": {
        "record": "BA-202604542",
        "address": "4238 WIEUCA OVERLOOK NE, ATLANTA GA 30342",
        "status": "ACA Pending",
        "date": "09/09/2026",
        "description": null,
        "owner": "Berkeley Walker",
        "tree_dbh": "10",
        "tree_location": "Left front of house",
        "reason_removal": "Uncorrectable defect",
        "tree_description": "Too close to foundation and utility lines/meters.Reason for Removal:Uncorrectable defectComments:Pink tape\n\t\t\n\t\n\t\n                                \n                            \n                        \n                    \n                        \n                            \n                                \n                                    \n                                        \n                                         Parcel Information\n                                \n                            \n                            \n                                \n                                    \n\t\tParcel Number:17 00650012008 *Block:--Lot:--Subdivision:--",
        "tree_number": "1",
        "species": "Holly"
      },
      "geometry": {
        "type": "Point",
        "coordinates": [
          -84.372675199077,
          33.871154255908
        ]
      }
    },
    {
      "type": "Feature",
      "properties": {
        "record": "BA-202604519",
        "address": "588 JOHN WESLEY DOBBS AVE NE, ATLANTA GA 30312",
        "status": "Issued",
        "date": "09/09/2026",
        "description": null,
        "owner": null,
        "tree_dbh": null,
        "tree_location": null,
        "reason_removal": null,
        "tree_description": null,
        "tree_number": null,
        "species": null
      },
      "geometry": {
        "type": "Point",
        "coordinates": [
          -84.368029231304,
          33.759340840684
        ]
      }
    },
    {
      "type": "Feature",
      "properties": {
        "record": "BA-202604513",
        "address": "1995 WELLBOURNE DR NE, ATLANTA GA 30324",
        "status": "ACA Pending",
        "date": "09/09/2026",
        "description": null,
        "owner": "MILLETT LORRI",
        "tree_dbh": "23",
        "tree_location": "Front, along street",
        "reason_removal": "Significant cavity/area of decay",
        "tree_description": "Severe structural defect - limb tear outReason for Removal:Uncorrectable defectComments:Hazardous, severe trunk defect\n\t\t\n\t\t\n\t\t\tTree number:2Species:Black CherryTree Size (DBH):42Tree location:Front, along the street Description of Tree:Codominant stems showing split at union with significant lean toward the street. Reason for Removal:Significant cavity/area of decayComments:Hazardous, actively splitting at the union\n\t\t\n\t\n\t\n                                \n                            \n                        \n                    \n                        \n                            \n                                \n                                    \n                                        \n                                         Parcel Information\n                                \n                            \n                            \n                                \n                                    \n\t\tParcel Number:17 00500006017 *Block:--Lot:--Subdivision:--",
        "tree_number": "1",
        "species": "Bradford Pear"
      },
      "geometry": {
        "type": "Point",
        "coordinates": [
          -84.360059722952,
          33.808660710418
        ]
      }
    },
    {
      "type": "Feature",
      "properties": {
        "record": "BA-202604523",
        "address": "622 GRANT ST, ATLANTA GA 30312",
        "status": "ACA Pending",
        "date": "09/09/2026",
        "description": null,
        "owner": "Matt and Erin Miller",
        "tree_dbh": "57",
        "tree_location": "Right side of home",
        "reason_removal": "Uncorrectable defect",
        "tree_description": "recent significant canopy failures leaving unbalanced tree canopy listing toward homeReason for Removal:Uncorrectable defectComments:Ribbon\n\t\t\n\t\n\t\n                                \n                            \n                        \n                    \n                        \n                            \n                                \n                                    \n                                        \n                                         Parcel Information\n                                \n                            \n                            \n                                \n                                    \n\t\tParcel Number:14 00430002107 *Block:--Lot:--Subdivision:--",
        "tree_number": "1",
        "species": "Water Oak"
      },
      "geometry": {
        "type": "Point",
        "coordinates": [
          -84.376379087288,
          33.737710277969
        ]
      }
    },
    {
      "type": "Feature",
      "properties": {
        "record": "BA-202604518",
        "address": "749 ORMEWOOD AVE SE, ATLANTA GA 30312",
        "status": "Issued",
        "date": "09/09/2026",
        "description": null,
        "owner": "ARMSTRONG LINDA S",
        "tree_dbh": "16",
        "tree_location": "Rear right",
        "reason_removal": "Uncorrectable defect",
        "tree_description": "Top has split and currently hanging over neighbors patioReason for Removal:Uncorrectable defectComments:Request removal ASAP\n\t\t\n\t\n\t\n                                \n                            \n                        \n                    \n                        \n                            \n                                \n                                    \n                                        \n                                         Parcel Information\n                                \n                            \n                            \n                                \n                                    \n\t\tParcel Number:14 00220008014 *Block:--Lot:--Subdivision:--",
        "tree_number": "1",
        "species": "Sweetgum"
      },
      "geometry": {
        "type": "Point",
        "coordinates": [
          -84.362817409415,
          33.73361927233
        ]
      }
    },
    {
      "type": "Feature",
      "properties": {
        "record": "BA-202604546",
        "address": "3977 CLUB DR NE, ATLANTA GA 30319",
        "status": "ACA Pending",
        "date": "09/09/2026",
        "description": null,
        "owner": "WALSH MARY MARTIN",
        "tree_dbh": "18",
        "tree_location": "Front Left side of the property",
        "reason_removal": "Dying tree",
        "tree_description": "18\" Poplar, Canopy declineReason for Removal:Dying tree\n\t\t\n\t\n\t\n                                \n                            \n                        \n                    \n                        \n                            \n                                \n                                    \n                                        \n                                         Parcel Information\n                                \n                            \n                            \n                                \n                                    \n\t\tParcel Number:17 00110004031 *Block:--Lot:--Subdivision:--",
        "tree_number": "1",
        "species": "Poplar"
      },
      "geometry": {
        "type": "Point",
        "coordinates": [
          -84.35365612709,
          33.86421121466
        ]
      }
    },
    {
      "type": "Feature",
      "properties": {
        "record": "26TMP-059548",
        "address": "690 UTOY CIR SW, ATLANTA GA 30331",
        "status": "",
        "date": "09/09/2026",
        "description": null,
        "owner": null,
        "tree_dbh": null,
        "tree_location": null,
        "reason_removal": null,
        "tree_description": null,
        "tree_number": null,
        "species": null
      },
      "geometry": {
        "type": "Point",
        "coordinates": [
          -84.524368814095,
          33.74317484795
        ]
      }
    },
    {
      "type": "Feature",
      "properties": {
        "record": "BA-202604525",
        "address": "3371 HABERSHAM RD NW, ATLANTA GA 30305",
        "status": "ACA Pending",
        "date": "09/09/2026",
        "description": null,
        "owner": "Mary Norwood",
        "tree_dbh": "35",
        "tree_location": "Center backyard",
        "reason_removal": "Dead tree",
        "tree_description": "dead, wood boring beetlesReason for Removal:Dead treeComments:ribbon\n\t\t\n\t\t\n\t\t\tTree number:2Species:Loblolly PineTree Size (DBH):33Tree location:Center backyardDescription of Tree:dead, wood boring beetlesReason for Removal:Dead treeComments:ribbon\n\t\t\n\t\n\t\n                                \n                            \n                        \n                    \n                        \n                            \n                                \n                                    \n                                        \n                                         Parcel Information\n                                \n                            \n                            \n                                \n                                    \n\t\tParcel Number:17 01140001012 *Block:--Lot:--Subdivision:--",
        "tree_number": "1",
        "species": "Loblolly Pine"
      },
      "geometry": {
        "type": "Point",
        "coordinates": [
          -84.393470961936,
          33.847002881667
        ]
      }
    },
    {
      "type": "Feature",
      "properties": {
        "record": "26TMP-059418",
        "address": "3550 INDIAN ROCK RD SW, ATLANTA GA 30331",
        "status": "",
        "date": "09/09/2026",
        "description": null,
        "owner": null,
        "tree_dbh": null,
        "tree_location": null,
        "reason_removal": null,
        "tree_description": null,
        "tree_number": null,
        "species": null
      },
      "geometry": {
        "type": "Point",
        "coordinates": [
          -84.504719602578,
          33.679510006366
        ]
      }
    },
    {
      "type": "Feature",
      "properties": {
        "record": "BA-202604537",
        "address": "2921 SEQUOYAH DR NW, ATLANTA GA 30327",
        "status": "ACA Pending",
        "date": "09/09/2026",
        "description": null,
        "owner": "Tony Cameron",
        "tree_dbh": "31",
        "tree_location": "Back right",
        "reason_removal": "Significant cavity/area of decay",
        "tree_description": "Lightning struck, top is deadReason for Removal:Dead treeComments:Pink ribbon\n\t\t\n\t\t\n\t\t\tTree number:2Species:HickoryTree Size (DBH):15Tree location:Front left Description of Tree:Decay at baseReason for Removal:Significant cavity/area of decayComments:Pink ribbon\n\t\t\n\t\n\t\n                                \n                            \n                        \n                    \n                        \n                            \n                                \n                                    \n                                        \n                                         Parcel Information\n                                \n                            \n                            \n                                \n                                    \n\t\tParcel Number:17 02190001010 *Block:--Lot:--Subdivision:--",
        "tree_number": "1",
        "species": "Loblolly Pine"
      },
      "geometry": {
        "type": "Point",
        "coordinates": [
          -84.437213776727,
          33.835486191787
        ]
      }
    },
    {
      "type": "Feature",
      "properties": {
        "record": "BA-202604532",
        "address": "3921 BEECHWOOD DR NW, ATLANTA GA 30327",
        "status": "ACA Pending",
        "date": "09/09/2026",
        "description": null,
        "owner": "CARSON MARTHA V",
        "tree_dbh": "32",
        "tree_location": "Right side of front yard",
        "reason_removal": "Dead tree",
        "tree_description": "Lighting strike front and back.Reason for Removal:Uncorrectable defectComments:Pink tape\n\t\t\n\t\t\n\t\t\tTree number:2Species:OakTree Size (DBH):15Tree location:Right side of front yardDescription of Tree:DeadReason for Removal:Dead treeComments:Pink tape\n\t\t\n\t\n\t\n                                \n                            \n                        \n                    \n                        \n                            \n                                \n                                    \n                                        \n                                         Parcel Information\n                                \n                            \n                            \n                                \n                                    \n\t\tParcel Number:17 0200  LL057 *Block:--Lot:--Subdivision:--",
        "tree_number": "1",
        "species": "Oak"
      },
      "geometry": {
        "type": "Point",
        "coordinates": [
          -84.4328988444,
          33.861955699061
        ]
      }
    },
    {
      "type": "Feature",
      "properties": {
        "record": "BA-202604534",
        "address": "73 WARREN ST SE, ATLANTA GA 30317",
        "status": "ACA Pending",
        "date": "09/09/2026",
        "description": null,
        "owner": "THOMAS ANTHONY J SR",
        "tree_dbh": "12",
        "tree_location": "front right of property",
        "reason_removal": "Dying tree",
        "tree_description": "deeply lobed roudned leaves, furrowed plated bark, large mature trunkReason for Removal:Dying tree\n\t\t\n\t\t\n\t\t\tTree number:3Species:sweetgumTree Size (DBH):10Tree location:front of ruins Description of Tree:multiple dead branches, debris at base, wisteria infestationReason for Removal:Dying tree\n\t\t\n\t\t\n\t\t\tTree number:4Species:HackberryTree Size (DBH):9Tree location:front of propertyDescription of Tree:significant structural lean, heavy wisteria vine infestation, debris at base, bark damageReason for Removal:Dying tree\n\t\t\n\t\t\n\t\t\tTree number:5Species:sweetgumTree Size (DBH):8Tree location:front of propertyDescription of Tree:100% ivy coverage, dead bare upper branches visible, papery seed podsReason for Removal:Dying tree\n\t\t\n\t\t\n\t\t\tTree number:7Species:tulip poplarTree Size (DBH):8Tree location:front of propertyDescription of Tree:ivy scarring on trunk, heavy mid-canopy ivy infestation, bark damageReason for Removal:Dying tree\n\t\t\n\t\t\n\t\t\tTree number:6Species:oakTree Size (DBH):8Tree location:front of propertyDescription of Tree:near-total english ivy canopy coverage, crown suppression, multiple vine speciesReason for Removal:Dying tree\n\t\t\n\t\n\t\n                                \n                            \n                        \n                    \n                        \n                            \n                                \n                                    \n                                        \n                                         Parcel Information\n                                \n                            \n                            \n                                \n                                    \n\t\tParcel Number:15 206 03 023 *Block:--Lot:--Subdivision:--",
        "tree_number": "1",
        "species": "oak"
      },
      "geometry": {
        "type": "Point",
        "coordinates": [
          -84.326311725923,
          33.751289678141
        ]
      }
    },
    {
      "type": "Feature",
      "properties": {
        "record": "BA-202604551",
        "address": "1191 AVONDALE AVE SE, ATLANTA GA 30312",
        "status": "ACA Pending",
        "date": "09/09/2026",
        "description": null,
        "owner": "Timothy Wright",
        "tree_dbh": "24",
        "tree_location": "Front",
        "reason_removal": "Unpermitted destruction",
        "tree_description": "\"Tree D\" on the site plan Reason for Removal:Unpermitted destructionComments:Was fined by city arborist for destroying the tree. Officially requesting a DDH permit to remove the tree. \n\t\t\n\t\t\n\t\t\tTree number:2Species:PineTree Size (DBH):21Tree location:Front Description of Tree:\"Tree F\" on the site planReason for Removal:Unpermitted destructionComments:Was fined by city arborist for destroying the tree. Officially requesting a DDH permit to remove the tree. \n\t\t\n\t\n\t\n                                \n                            \n                        \n                    \n                        \n                            \n                                \n                                    \n                                        \n                                         Parcel Information\n                                \n                            \n                            \n                                \n                                    \n\t\tParcel Number:14 00230012025 *Block:--Lot:--Subdivision:--",
        "tree_number": "1",
        "species": "Pine"
      },
      "geometry": {
        "type": "Point",
        "coordinates": [
          -84.363577934128,
          33.722104509338
        ]
      }
    },
    {
      "type": "Feature",
      "properties": {
        "record": "BA-202604549",
        "address": "818 SPRINGDALE RD NE, ATLANTA GA 30306",
        "status": "ACA Pending",
        "date": "09/09/2026",
        "description": null,
        "owner": "Alexander Timothy Johnston",
        "tree_dbh": "30",
        "tree_location": "Front yard, right corner of house",
        "reason_removal": "Other",
        "tree_description": "Dangerous due to proximity to house.Reason for Removal:OtherComments:Previous owners submitted removal request, was approved and marked  for removal (see pics) but they did not remove it.\n\t\t\n\t\n\t\n                                \n                            \n                        \n                    \n                        \n                            \n                                \n                                    \n                                        \n                                         Parcel Information\n                                \n                            \n                            \n                                \n                                    \n\t\tParcel Number:15 241 01 026 *Block:--Lot:--Subdivision:--",
        "tree_number": "1",
        "species": "Magnolia"
      },
      "geometry": {
        "type": "Point",
        "coordinates": [
          -84.343548997294,
          33.777371523151
        ]
      }
    },
    {
      "type": "Feature",
      "properties": {
        "record": "BA-202604517",
        "address": "1136 WOODLAND AVE SE, ATLANTA GA 30316",
        "status": "ACA Pending",
        "date": "09/09/2026",
        "description": null,
        "owner": "Mia Harris",
        "tree_dbh": "35",
        "tree_location": "front of the house",
        "reason_removal": "Uncorrectable defect",
        "tree_description": "Leaning treeReason for Removal:Unpermitted destruction\n\t\t\n\t\t\n\t\t\tTree number:1Species:oakTree Size (DBH):34Tree location:front of the houseDescription of Tree:Leaning treeReason for Removal:Uncorrectable defect\n\t\t\n\t\t\n\t\t\tTree number:1Species:PineTree Size (DBH):16.5Tree location:front of the houseDescription of Tree:Leaning treeReason for Removal:Uncorrectable defect\n\t\t\n\t\n\t\n                                \n                            \n                        \n                    \n                        \n                            \n                                \n                                    \n                                        \n                                         Parcel Information\n                                \n                            \n                            \n                                \n                                    \n\t\tParcel Number:14 00100009059 *Block:--Lot:--Subdivision:--",
        "tree_number": "1",
        "species": "Oak"
      },
      "geometry": {
        "type": "Point",
        "coordinates": [
          -84.353731083105,
          33.723348315868
        ]
      }
    },
    {
      "type": "Feature",
      "properties": {
        "record": "BA-202604552",
        "address": "2965 NANCY CREEK RD NW, ATLANTA GA 30327",
        "status": "ACA Pending",
        "date": "09/09/2026",
        "description": null,
        "owner": null,
        "tree_dbh": "30",
        "tree_location": "right side of drive near creek",
        "reason_removal": "Dying tree",
        "tree_description": "30\" Sweetgum, right side of front yard, Declining, canopy dieback",
        "tree_number": "1",
        "species": "Sweetgum"
      },
      "geometry": {
        "type": "Point",
        "coordinates": [
          -84.450092601244,
          33.83670791498
        ]
      }
    },
    {
      "type": "Feature",
      "properties": {
        "record": "BA-202604545",
        "address": "2288 PEACHTREE RD NW, ATLANTA GA 30309",
        "status": "ACA Pending",
        "date": "09/09/2026",
        "description": null,
        "owner": "DELONGA SANDRA L",
        "tree_dbh": "10",
        "tree_location": "in the garden",
        "reason_removal": "Dead tree",
        "tree_description": "removal of DDH Active Failure 10” DBH Catulpa located in the garden.\n-This tree has started to uproot and or fracture at the base.Reason for Removal:Other\n\t\t\n\t\t\n\t\t\tTree number:2Species:riverbirchTree Size (DBH):41Tree location:in gardenDescription of Tree:removal of DDH Failed 41” DBH River Birch located in the garden.\n-This tree has suffered a catastrophic failure.Reason for Removal:Significant cavity/area of decay\n\t\t\n\t\t\n\t\t\tTree number:3Species:box elderTree Size (DBH):10Tree location:in gardenDescription of Tree:removal of DDH storm damaged 10” DBH Box Elder located in the garden.\n-This tree has heavily damaged during the failure of the above River BirchReason for Removal:Uncorrectable defect\n\t\t\n\t\t\n\t\t\tTree number:4Species:ashTree Size (DBH):30Tree location:in the gardenDescription of Tree:Removal of DDH Dead 30” DBH Ash located in the garden.\n-This tree is dead.",
        "tree_number": "1",
        "species": "riverbirch"
      },
      "geometry": {
        "type": "Point",
        "coordinates": [
          -84.390312627108,
          33.816441399133
        ]
      }
    },
    {
      "type": "Feature",
      "properties": {
        "record": "BA-202604540",
        "address": "188 ELIZABETH ST NE, ATLANTA GA 30307",
        "status": "ACA Pending",
        "date": "09/09/2026",
        "description": null,
        "owner": "GRIST WILLIAM J",
        "tree_dbh": "20",
        "tree_location": "Front yard Driveway",
        "reason_removal": "Dying tree",
        "tree_description": "large tree with broken limbs and dying canopyReason for Removal:Dying tree\n\t\t\n\t\n\t\n                                \n                            \n                        \n                    \n                        \n                            \n                                \n                                    \n                                        \n                                         Parcel Information\n                                \n                            \n                            \n                                \n                                    \n\t\tParcel Number:14 00140006001 *Block:--Lot:--Subdivision:--",
        "tree_number": "1",
        "species": "water oak"
      },
      "geometry": {
        "type": "Point",
        "coordinates": [
          -84.357522944091,
          33.759429496385
        ]
      }
    },
    {
      "type": "Feature",
      "properties": {
        "record": "BA-202604528",
        "address": "925 TUCKAWANNA DR SW, ATLANTA GA 30311",
        "status": "ACA Pending",
        "date": "09/09/2026",
        "description": null,
        "owner": "KING HARVEY JR",
        "tree_dbh": "36",
        "tree_location": "Front left of property",
        "reason_removal": "Dead tree",
        "tree_description": "Dead, covered with ivyReason for Removal:Dead treeComments:Orange paint\n\t\t\n\t\n\t\n                                \n                            \n                        \n                    \n                        \n                            \n                                \n                                    \n                                        \n                                         Parcel Information\n                                \n                            \n                            \n                                \n                                    \n\t\tParcel Number:14 02340002029 *Block:--Lot:--Subdivision:--",
        "tree_number": "1",
        "species": "Oak"
      },
      "geometry": {
        "type": "Point",
        "coordinates": [
          -84.485664611147,
          33.729614831781
        ]
      }
    },
    {
      "type": "Feature",
      "properties": {
        "record": "BA-202604520",
        "address": "201 MARTHA AVE NE, ATLANTA GA 30317",
        "status": "ACA Pending",
        "date": "09/09/2026",
        "description": null,
        "owner": "KEVIN AND MARGARET CASPER",
        "tree_dbh": "28",
        "tree_location": "Front yard",
        "reason_removal": "Other",
        "tree_description": null,
        "tree_number": "1",
        "species": "Loblolly Pine"
      },
      "geometry": {
        "type": "Point",
        "coordinates": [
          -84.313723653064,
          33.758279354648
        ]
      }
    },
    {
      "type": "Feature",
      "properties": {
        "record": "BA-202604521",
        "address": "566 CLIFTON RD NE, ATLANTA GA 30307",
        "status": "ACA Pending",
        "date": "09/09/2026",
        "description": null,
        "owner": "Liam Homes",
        "tree_dbh": "30",
        "tree_location": "Back Center",
        "reason_removal": "Significant cavity/area of decay",
        "tree_description": "Fungal decay & cavity at base of tree. Tip dieback in 1/3 of canopyReason for Removal:Significant cavity/area of decayComments:Orange paint\n\t\t\n\t\n\t\n                                \n                            \n                        \n                    \n                        \n                            \n                                \n                                    \n                                        \n                                         Parcel Information\n                                \n                            \n                            \n                                \n                                    \n\t\tParcel Number:15 239 01 165 *Block:--Lot:--Subdivision:--",
        "tree_number": "1",
        "species": "White Oak"
      },
      "geometry": {
        "type": "Point",
        "coordinates": [
          -84.333094044642,
          33.769613894153
        ]
      }
    },
    {
      "type": "Feature",
      "properties": {
        "record": "BA-202604536",
        "address": "1920 DELANO DR NE, ATLANTA GA 30317",
        "status": "ACA Pending",
        "date": "09/09/2026",
        "description": null,
        "owner": "JACOBS BERT OR JACOBS ELIZABETH",
        "tree_dbh": "22",
        "tree_location": "front of the house",
        "reason_removal": "Other",
        "tree_description": "Dangerous tree in front of the houseReason for Removal:OtherComments:The tree is located too close to the front of the house and poses a potential hazard if impacted by severe weather.\n\t\t\n\t\n\t\n                                \n                            \n                        \n                    \n                        \n                            \n                                \n                                    \n                                        \n                                         Parcel Information\n                                \n                            \n                            \n                                \n                                    \n\t\tParcel Number:15 211 02 082 *Block:--Lot:--Subdivision:--",
        "tree_number": "1",
        "species": "sweetgum"
      },
      "geometry": {
        "type": "Point",
        "coordinates": [
          -84.325040454443,
          33.755396857664
        ]
      }
    },
    {
      "type": "Feature",
      "properties": {
        "record": "BA-202604531",
        "address": "806 BRIDGEWATER ST SW, ATLANTA GA 30310",
        "status": "ACA Pending",
        "date": "09/09/2026",
        "description": null,
        "owner": "JEFFERSON JAYNE C",
        "tree_dbh": "70",
        "tree_location": "back yard",
        "reason_removal": "Other",
        "tree_description": "tree in 4 piecesReason for Removal:OtherComments:1 tree in 4 pieces due to lightning strike, 1 section in creek\n\t\t\n\t\n\t\n                                \n                            \n                        \n                    \n                        \n                            \n                                \n                                    \n                                        \n                                         Parcel Information\n                                \n                            \n                            \n                                \n                                    \n\t\tParcel Number:14 01030001147 *Block:--Lot:--Subdivision:--",
        "tree_number": "1",
        "species": "oak tree"
      },
      "geometry": {
        "type": "Point",
        "coordinates": [
          -84.415060018715,
          33.702803909198
        ]
      }
    },
    {
      "type": "Feature",
      "properties": {
        "record": "BA-202604535",
        "address": "2488 DELLWOOD DR NW, ATLANTA GA 30305",
        "status": "ACA Pending",
        "date": "09/09/2026",
        "description": null,
        "owner": "Matthew Bean",
        "tree_dbh": "11",
        "tree_location": "Right side of front yard, atop retaining wall",
        "reason_removal": "Uncorrectable defect",
        "tree_description": "Canopy decline, deadwood approaching 30%, 23 degree lean towards house, Large cavity at base of tree creating a weak spot.Reason for Removal:Uncorrectable defectComments:Pink tape\n\t\t\n\t\n\t\n                                \n                            \n                        \n                    \n                        \n                            \n                                \n                                    \n                                        \n                                         Parcel Information\n                                \n                            \n                            \n                                \n                                    \n\t\tParcel Number:17 01440005034 *Block:--Lot:--Subdivision:--",
        "tree_number": "1",
        "species": "Cherry"
      },
      "geometry": {
        "type": "Point",
        "coordinates": [
          -84.398306780434,
          33.823167605534
        ]
      }
    },
    {
      "type": "Feature",
      "properties": {
        "record": "26TMP-059533",
        "address": "732 LYNN CIR SW, ATLANTA GA 00000",
        "status": "",
        "date": "09/09/2026",
        "description": null,
        "owner": null,
        "tree_dbh": null,
        "tree_location": null,
        "reason_removal": null,
        "tree_description": null,
        "tree_number": null,
        "species": null
      },
      "geometry": {
        "type": "Point",
        "coordinates": [
          -84.486298751167,
          33.735880178051
        ]
      }
    },
    {
      "type": "Feature",
      "properties": {
        "record": "BA-202604530",
        "address": "20 ROSE GATE DR NE, ATLANTA GA 30342",
        "status": "Issued",
        "date": "09/09/2026",
        "description": null,
        "owner": null,
        "tree_dbh": "20",
        "tree_location": "backyard",
        "reason_removal": "Other",
        "tree_description": "20\" Riverbirch, backyard, Homeowner appealed and Tree Commission is granting permission to removeReason for Removal:OtherComments:20\" Riverbirch, backyard, Homeowner appealed and Tree Commission is granting permission to remove\n\t\t\n\t\n\t\n                                \n                            \n                        \n                    \n                        \n                            \n                                \n                                    \n                                        \n                                         Parcel Information\n                                \n                            \n                            \n                                \n                                    \n\t\tParcel Number:17 00960013006 *Block:--Lot:--Subdivision:--",
        "tree_number": "1",
        "species": "Riverbirch"
      },
      "geometry": {
        "type": "Point",
        "coordinates": [
          -84.386181591696,
          33.865585112746
        ]
      }
    },
    {
      "type": "Feature",
      "properties": {
        "record": "BA-202604526",
        "address": "275 WEST PACES FERRY RD NW, ATLANTA GA 30305",
        "status": "ACA Pending",
        "date": "09/09/2026",
        "description": null,
        "owner": "MORRELL MARCEIL F",
        "tree_dbh": "35",
        "tree_location": "Far backyard in wooded area near rear neighbor's fence.",
        "reason_removal": "Uncorrectable defect",
        "tree_description": "Tree has an uncorrected lean exceeding 20 degrees at the top. The target is the rear neighbor's house, backyard, and pool.Reason for Removal:Uncorrectable defectComments:Pink tape\n\t\t\n\t\n\t\n                                \n                            \n                        \n                    \n                        \n                            \n                                \n                                    \n                                        \n                                         Parcel Information\n                                \n                            \n                            \n                                \n                                    \n\t\tParcel Number:17 01140001026 *Block:--Lot:--Subdivision:--",
        "tree_number": "1",
        "species": "Oak"
      },
      "geometry": {
        "type": "Point",
        "coordinates": [
          -84.394935784518,
          33.844118527894
        ]
      }
    },
    {
      "type": "Feature",
      "properties": {
        "record": "BA-202604544",
        "address": "1373 RIETVELD ROW NW, ATLANTA GA 30318",
        "status": "ACA Pending",
        "date": "09/09/2026",
        "description": null,
        "owner": null,
        "tree_dbh": "18",
        "tree_location": "behind home",
        "reason_removal": "Uncorrectable defect",
        "tree_description": "Removal of the 18” DBH maple located behind the home.",
        "tree_number": "1",
        "species": "maple"
      },
      "geometry": {
        "type": "Point",
        "coordinates": [
          -84.427739079848,
          33.793060613315
        ]
      }
    },
    {
      "type": "Feature",
      "properties": {
        "record": "BA-202604538",
        "address": "738 CLIFTON RD SE, ATLANTA GA 30316",
        "status": "Issued",
        "date": "09/09/2026",
        "description": null,
        "owner": "Corey Frantz",
        "tree_dbh": "43",
        "tree_location": "Front left of propery",
        "reason_removal": "Uncorrectable defect",
        "tree_description": "Canopy FailureReason for Removal:Uncorrectable defect\n\t\t\n\t\n\t\n                                \n                            \n                        \n                    \n                        \n                            \n                                \n                                    \n                                        \n                                         Parcel Information\n                                \n                            \n                            \n                                \n                                    \n\t\tParcel Number:15 175 02 007 *Block:--Lot:--Subdivision:--",
        "tree_number": "1",
        "species": "Red Oak"
      },
      "geometry": {
        "type": "Point",
        "coordinates": [
          -84.329889143744,
          33.7345999256
        ]
      }
    },
    {
      "type": "Feature",
      "properties": {
        "record": "BA-202604548",
        "address": "606 WEST WESLEY RD NW, ATLANTA GA 30327",
        "status": "ACA Pending",
        "date": "09/09/2026",
        "description": null,
        "owner": null,
        "tree_dbh": "23",
        "tree_location": "Near northern property line close to existing curb cut",
        "reason_removal": "Uncorrectable defect",
        "tree_description": null,
        "tree_number": "193",
        "species": "Yellow Poplar"
      },
      "geometry": {
        "type": "Point",
        "coordinates": [
          -84.40769022536,
          33.828650253666
        ]
      }
    },
    {
      "type": "Feature",
      "properties": {
        "record": "BA-202604543",
        "address": "3786 COLLIER DR NW, ATLANTA GA 30331",
        "status": "ACA Pending",
        "date": "09/09/2026",
        "description": null,
        "owner": "WALKER MARGIE B",
        "tree_dbh": "30",
        "tree_location": "Front yard",
        "reason_removal": "Uncorrectable defect",
        "tree_description": "Tree near driveway and roadway with limited soil/rooting space. Visible girdling root at the base. Canopy is unbalanced. These factors are contributing to stress and increased failure potential. The tree has significant targets within striking distance, including the driveway, roadway, and residence. Reason for Removal:Uncorrectable defect\n\t\t\n\t\n\t\n                                \n                            \n                        \n                    \n                        \n                            \n                                \n                                    \n                                        \n                                         Parcel Information\n                                \n                            \n                            \n                                \n                                    \n\t\tParcel Number:14F00150001022 *Block:--Lot:--Subdivision:--",
        "tree_number": "1",
        "species": "Water oak"
      },
      "geometry": {
        "type": "Point",
        "coordinates": [
          -84.510954478671,
          33.769880227196
        ]
      }
    },
    {
      "type": "Feature",
      "properties": {
        "record": "BA-202604547",
        "address": "634 LONGLEAF DR NE, ATLANTA GA 30342",
        "status": "ACA Pending",
        "date": "09/09/2026",
        "description": null,
        "owner": "ECONOMY ALICE B",
        "tree_dbh": "16",
        "tree_location": "Back right at the end of the driveway",
        "reason_removal": "Dying tree",
        "tree_description": "Declining Leyland CypressReason for Removal:Dying tree\n\t\t\n\t\n\t\n                                \n                            \n                        \n                    \n                        \n                            \n                                \n                                    \n                                        \n                                         Parcel Information\n                                \n                            \n                            \n                                \n                                    \n\t\tParcel Number:17 00440003024 *Block:--Lot:--Subdivision:--",
        "tree_number": "1",
        "species": "Leyland Cypress"
      },
      "geometry": {
        "type": "Point",
        "coordinates": [
          -84.367138226251,
          33.856188600664
        ]
      }
    },
    {
      "type": "Feature",
      "properties": {
        "record": "BA-202604539",
        "address": "650 CEDAR AVE NW, ATLANTA GA 30318",
        "status": "ACA Pending",
        "date": "09/09/2026",
        "description": null,
        "owner": null,
        "tree_dbh": null,
        "tree_location": null,
        "reason_removal": null,
        "tree_description": null,
        "tree_number": null,
        "species": null
      },
      "geometry": {
        "type": "Point",
        "coordinates": [
          -84.465634025626,
          33.772791569351
        ]
      }
    }
  ]
}