{
  "type": "FeatureCollection",
  "features": [
    {
      "type": "Feature",
      "properties": {
        "record": "BA-202603507",
        "address": "1611 MILL ACRES DR SW, ATLANTA GA 30311",
        "status": "ACA Pending",
        "date": "07/24/2026",
        "description": null,
        "owner": "ATLANTA INVESTING INC",
        "tree_dbh": "21",
        "tree_location": "Right Rear",
        "reason_removal": "Uncorrectable defect",
        "tree_description": "21 DBH Poplar on the right side of the property broken top and previously fallen limbsReason for Removal:Dying treeComments:Hazardous\n\t\t\n\t\t\n\t\t\tTree number:2Species:Sweet GumTree Size (DBH):19Tree location:Right RearDescription of Tree:19 DBH sweet gum on the right rear leaning over the Client’s houseReason for Removal:Uncorrectable defect\n\t\t\n\t\n\t\n                                \n                            \n                        \n                    \n                        \n                            \n                                \n                                    \n                                        \n                                         Parcel Information\n                                \n                            \n                            \n                                \n                                    \n\t\tParcel Number:14 02000002011 *Block:--Lot:--Subdivision:--",
        "tree_number": "1",
        "species": "Poplar"
      },
      "geometry": {
        "type": "Point",
        "coordinates": [
          -84.470092901529,
          33.712371235568
        ]
      }
    },
    {
      "type": "Feature",
      "properties": {
        "record": "BA-202603493",
        "address": "3590 PACES VALLEY RD NW, ATLANTA GA 30327",
        "status": "ACA Pending",
        "date": "07/24/2026",
        "description": null,
        "owner": null,
        "tree_dbh": null,
        "tree_location": null,
        "reason_removal": null,
        "tree_description": null,
        "tree_number": null,
        "species": null
      },
      "geometry": {
        "type": "Point",
        "coordinates": [
          -84.410188473363,
          33.8526598347
        ]
      }
    },
    {
      "type": "Feature",
      "properties": {
        "record": "26TMP-048229",
        "address": "233 LAMON AVE SE, ATLANTA GA 30316",
        "status": "",
        "date": "07/24/2026",
        "description": null,
        "owner": null,
        "tree_dbh": null,
        "tree_location": null,
        "reason_removal": null,
        "tree_description": null,
        "tree_number": null,
        "species": null
      },
      "geometry": {
        "type": "Point",
        "coordinates": [
          -84.338669761804,
          33.746720623634
        ]
      }
    },
    {
      "type": "Feature",
      "properties": {
        "record": "26TMP-048392",
        "address": "1344 OAKCREST DR SW, ATLANTA GA 30311",
        "status": "",
        "date": "07/24/2026",
        "description": null,
        "owner": null,
        "tree_dbh": null,
        "tree_location": null,
        "reason_removal": null,
        "tree_description": null,
        "tree_number": null,
        "species": null
      },
      "geometry": {
        "type": "Point",
        "coordinates": [
          -84.495208114071,
          33.723460235596
        ]
      }
    },
    {
      "type": "Feature",
      "properties": {
        "record": "BA-202603503",
        "address": "1891 ARDMORE RD NW, ATLANTA GA 30309",
        "status": "ACA Pending",
        "date": "07/24/2026",
        "description": null,
        "owner": "JOHNSTON STEVE C",
        "tree_dbh": "18",
        "tree_location": "Back yard",
        "reason_removal": "Dead tree",
        "tree_description": "Might have been struck by lightning Reason for Removal:Dead tree\n\t\t\n\t\n\t\n                                \n                            \n                        \n                    \n                        \n                            \n                                \n                                    \n                                        \n                                         Parcel Information\n                                \n                            \n                            \n                                \n                                    \n\t\tParcel Number:17 01100002010 *Block:--Lot:--Subdivision:--",
        "tree_number": "1",
        "species": "White oak"
      },
      "geometry": {
        "type": "Point",
        "coordinates": [
          -84.398864730352,
          33.80662533125
        ]
      }
    },
    {
      "type": "Feature",
      "properties": {
        "record": "BA-202603510",
        "address": "772 JEFFERSON AVE SW, ATLANTA GA 30315",
        "status": "ACA Pending",
        "date": "07/24/2026",
        "description": null,
        "owner": "RM EQUITY PARTNERS LLC",
        "tree_dbh": "25",
        "tree_location": "Rear left corner of home",
        "reason_removal": "Uncorrectable defect",
        "tree_description": "Vine covered, sparse crown with dead limbsReason for Removal:Dying treeComments:Low LCR\n\t\t\n\t\t\n\t\t\tTree number:3Species:Loblolly PineTree Size (DBH):24Tree location:rear leftDescription of Tree:Trunk wound, vines and low LCRReason for Removal:Dying treeComments:Poor condition\n\t\t\n\t\t\n\t\t\tTree number:4Species:Loblolly pineTree Size (DBH):25Tree location:rear leftDescription of Tree:Trumpet creeper vines, dead limbs and sparse crown with low LCRReason for Removal:Dying treeComments:Being outcompeted\n\t\t\n\t\t\n\t\t\tTree number:5Species:Loblolly PineTree Size (DBH):30Tree location:rear rightDescription of Tree:Low LCR and bifurcated upper trunk with weight to one-side, metal rod in tree and Tree 6Reason for Removal:Uncorrectable defectComments:Weak form\n\t\t\n\t\t\n\t\t\tTree number:6Species:Loblolly PineTree Size (DBH):28Tree location:rear rightDescription of Tree:Low LCR and upper bend, metal rod in tree with Tree 5Reason for Removal:Uncorrectable defectComments:weak form\n\t\t\n\t\n\t\n                                \n                            \n                        \n                    \n                        \n                            \n                                \n                                    \n                                        \n                                         Parcel Information\n                                \n                            \n                            \n                                \n                                    \n\t\tParcel Number:14 01010008016 *Block:--Lot:--Subdivision:--",
        "tree_number": "2",
        "species": "Loblolly Pine"
      },
      "geometry": {
        "type": "Point",
        "coordinates": [
          -84.415312995238,
          33.685429651906
        ]
      }
    },
    {
      "type": "Feature",
      "properties": {
        "record": "26TMP-048322",
        "address": "1948 BROWNS MILL RD SE, ATLANTA GA 30315",
        "status": "",
        "date": "07/24/2026",
        "description": null,
        "owner": null,
        "tree_dbh": null,
        "tree_location": null,
        "reason_removal": null,
        "tree_description": null,
        "tree_number": null,
        "species": null
      },
      "geometry": {
        "type": "Point",
        "coordinates": [
          -84.375878728754,
          33.700906352878
        ]
      }
    },
    {
      "type": "Feature",
      "properties": {
        "record": "BA-202603511",
        "address": "1307 BATTLE VIEW DR NW, ATLANTA GA 30327",
        "status": "ACA Pending",
        "date": "07/24/2026",
        "description": null,
        "owner": "Nicholas Jefferies",
        "tree_dbh": "36",
        "tree_location": "Rear left corner of home",
        "reason_removal": "Uncorrectable defect",
        "tree_description": "Within 5' of foundation, roots growing over sidewalk, decay conk present indicating root decayReason for Removal:Uncorrectable defectComments:Root decay is untreatable,and the roots are compromised and creating a trip hazard.\n\t\t\n\t\n\t\n                                \n                            \n                        \n                    \n                        \n                            \n                                \n                                    \n                                        \n                                         Parcel Information\n                                \n                            \n                            \n                                \n                                    \n\t\tParcel Number:17 01950004021 *Block:--Lot:--Subdivision:--",
        "tree_number": "1",
        "species": "Water Oak"
      },
      "geometry": {
        "type": "Point",
        "coordinates": [
          -84.430436942118,
          33.824599636483
        ]
      }
    },
    {
      "type": "Feature",
      "properties": {
        "record": "BA-202603508",
        "address": "4465 NORTHSIDE DR NW, ATLANTA GA 30327",
        "status": "ACA Pending",
        "date": "07/24/2026",
        "description": null,
        "owner": "HALLINAN PAUL J ARCHBISHOP",
        "tree_dbh": "26",
        "tree_location": "At upper exit to Mt Paran Rd",
        "reason_removal": "Dead tree",
        "tree_description": "DeadReason for Removal:Dead treeComments:Close to power lines and street\n\t\t\n\t\n\t\n                                \n                            \n                        \n                    \n                        \n                            \n                                \n                                    \n                                        \n                                         Parcel Information\n                                \n                            \n                            \n                                \n                                    \n\t\tParcel Number:17 0161  LL077 *Block:--Lot:--Subdivision:--",
        "tree_number": "1",
        "species": "Yellow-poplar"
      },
      "geometry": {
        "type": "Point",
        "coordinates": [
          -84.411784109875,
          33.876695446886
        ]
      }
    },
    {
      "type": "Feature",
      "properties": {
        "record": "BA-202603497",
        "address": "2341 HURST DR NE, ATLANTA GA 30305",
        "status": "ACA Pending",
        "date": "07/24/2026",
        "description": null,
        "owner": null,
        "tree_dbh": "33",
        "tree_location": "Behind garage near fence.",
        "reason_removal": "Dying tree",
        "tree_description": "Picture of treeReason for Removal:Dying treeComments:Dying from beetle attack and recently lost its wind buffer from neighbors removed trees.\n\t\t\n\t\n\t\n                                \n                            \n                        \n                    \n                        \n                            \n                                \n                                    \n                                        \n                                         Parcel Information\n                                \n                            \n                            \n                                \n                                    \n\t\tParcel Number:17 01020003034 *Block:--Lot:--Subdivision:--",
        "tree_number": "1",
        "species": "Loblolly Pine"
      },
      "geometry": {
        "type": "Point",
        "coordinates": [
          -84.379162281618,
          33.819461942659
        ]
      }
    },
    {
      "type": "Feature",
      "properties": {
        "record": "BA-202603491",
        "address": "1827 ROCK SPRINGS RD NE, ATLANTA GA 30324",
        "status": "ACA Pending",
        "date": "07/24/2026",
        "description": null,
        "owner": "Jeremy McCullough",
        "tree_dbh": "6",
        "tree_location": "Front left corner",
        "reason_removal": "Uncorrectable defect",
        "tree_description": "Suppressed canopy, tree leans more than 15 degrees towards street and drivewayReason for Removal:Uncorrectable defectComments:Pink ribbon\n\t\t\n\t\n\t\n                                \n                            \n                        \n                    \n                        \n                            \n                                \n                                    \n                                        \n                                         Parcel Information\n                                \n                            \n                            \n                                \n                                    \n\t\tParcel Number:17 00500005026 *Block:--Lot:--Subdivision:--",
        "tree_number": "1",
        "species": "Black Cherry"
      },
      "geometry": {
        "type": "Point",
        "coordinates": [
          -84.365660569245,
          33.804130245721
        ]
      }
    },
    {
      "type": "Feature",
      "properties": {
        "record": "26TMP-048421",
        "address": "1140 ROXBORO POINTE NE, ATLANTA GA 30324",
        "status": "",
        "date": "07/24/2026",
        "description": null,
        "owner": null,
        "tree_dbh": null,
        "tree_location": null,
        "reason_removal": null,
        "tree_description": null,
        "tree_number": null,
        "species": null
      },
      "geometry": {
        "type": "Point",
        "coordinates": [
          -84.349960978945,
          33.836803275543
        ]
      }
    },
    {
      "type": "Feature",
      "properties": {
        "record": "BA-202603506",
        "address": "963 VICTORY DR SW, ATLANTA GA 30310",
        "status": "ACA Pending",
        "date": "07/24/2026",
        "description": null,
        "owner": null,
        "tree_dbh": "44",
        "tree_location": "front yard",
        "reason_removal": "Significant cavity/area of decay",
        "tree_description": "dying oak tree with basal cavityReason for Removal:Significant cavity/area of decay\n\t\t\n\t\n\t\n                                \n                            \n                        \n                    \n                        \n                            \n                                \n                                    \n                                        \n                                         Parcel Information\n                                \n                            \n                            \n                                \n                                    \n\t\tParcel Number:14 01210006104 *Block:--Lot:--Subdivision:--",
        "tree_number": "1",
        "species": "oak"
      },
      "geometry": {
        "type": "Point",
        "coordinates": [
          -84.419732001347,
          33.707790840982
        ]
      }
    },
    {
      "type": "Feature",
      "properties": {
        "record": "BA-202603495",
        "address": "209 HALE ST NE, ATLANTA GA 30307",
        "status": "ACA Pending",
        "date": "07/24/2026",
        "description": null,
        "owner": "Big Blue Sky Landscaping",
        "tree_dbh": "6",
        "tree_location": "Front yard",
        "reason_removal": "Uncorrectable defect",
        "tree_description": "Poor Form/Tree has been Topped multiple times/Extensive trunk sproutsReason for Removal:Uncorrectable defect\n\t\t\n\t\n\t\n                                \n                            \n                        \n                    \n                        \n                            \n                                \n                                    \n                                        \n                                         Parcel Information\n                                \n                            \n                            \n                                \n                                    \n\t\tParcel Number:14 00140004024 *Block:--Lot:--Subdivision:--",
        "tree_number": "1",
        "species": "Multi-stem Chinese Elm"
      },
      "geometry": {
        "type": "Point",
        "coordinates": [
          -84.359256123483,
          33.759476515085
        ]
      }
    },
    {
      "type": "Feature",
      "properties": {
        "record": "BA-202603498",
        "address": "473 WATERFORD RD NW, ATLANTA GA 30318",
        "status": "ACA Pending",
        "date": "07/24/2026",
        "description": null,
        "owner": "NEWMAN EVELYNN L",
        "tree_dbh": "20",
        "tree_location": "Rear center",
        "reason_removal": "Diseased",
        "tree_description": "Poplar with a large decay cavity at the root flare, extremely unbalanced crown favoring the home side,Reason for Removal:Significant cavity/area of decay\n\t\t\n\t\t\n\t\t\tTree number:2Species:PineTree Size (DBH):27Tree location:Rear Center Description of Tree:Pine with fusiform rust, slight leant towards the neighboring home, covered in wisteria and ivy.Reason for Removal:Diseased\n\t\t\n\t\n\t\n                                \n                            \n                        \n                    \n                        \n                            \n                                \n                                    \n                                        \n                                         Parcel Information\n                                \n                            \n                            \n                                \n                                    \n\t\tParcel Number:14 02100005013 *Block:--Lot:--Subdivision:--",
        "tree_number": "1",
        "species": "Pine"
      },
      "geometry": {
        "type": "Point",
        "coordinates": [
          -84.483842873169,
          33.768408800881
        ]
      }
    },
    {
      "type": "Feature",
      "properties": {
        "record": "BA-202603504",
        "address": "514 MORELAND AVE NE, ATLANTA GA 30307",
        "status": "ACA Pending",
        "date": "07/24/2026",
        "description": null,
        "owner": "LAIRD RICHARD S",
        "tree_dbh": "21",
        "tree_location": "backyard",
        "reason_removal": "Dead tree",
        "tree_description": "dead treeReason for Removal:Dead tree\n\t\t\n\t\n\t\n                                \n                            \n                        \n                    \n                        \n                            \n                                \n                                    \n                                        \n                                         Parcel Information\n                                \n                            \n                            \n                                \n                                    \n\t\tParcel Number:14 00150003103 *Block:--Lot:--Subdivision:--",
        "tree_number": "1",
        "species": "Pecan"
      },
      "geometry": {
        "type": "Point",
        "coordinates": [
          -84.349069425689,
          33.768233440685
        ]
      }
    },
    {
      "type": "Feature",
      "properties": {
        "record": "BA-202603501",
        "address": "500 MCDANIEL ST SW, ATLANTA GA 30312",
        "status": "ACA Pending",
        "date": "07/24/2026",
        "description": null,
        "owner": "ATLANTA HOUSING AUTHORITY MC DANIEL GLENN HOMES",
        "tree_dbh": "6",
        "tree_location": "Interior parking",
        "reason_removal": "Other",
        "tree_description": "Magnolia inappropriate location Reason for Removal:OtherComments:1= Tree pic A\n\t\t\n\t\t\n\t\t\tTree number:2Species:PrunusTree Size (DBH):13Tree location:Interior parkingDescription of Tree:Flowering cherry end of lifeReason for Removal:DiseasedComments:2=Tree B picture\n\t\t\n\t\t\n\t\t\tTree number:3Species:Magnolia /CedarTree Size (DBH):6Tree location:McDaniel facadeDescription of Tree:5/6 Magnolia & 9\" cedar shown in same pictureReason for Removal:OtherComments:Tree 3 = Pic C \nto close proximity to facade, inappropriate location\n\t\t\n\t\t\n\t\t\tTree number:4Species:Magnolia g./ CedarTree Size (DBH):6Tree location:McDaniel FacadeDescription of Tree:6\" Magnolia / 6/4 Cedar",
        "tree_number": "1",
        "species": "Magnolia g."
      },
      "geometry": {
        "type": "Point",
        "coordinates": [
          -84.402824689906,
          33.7414715068
        ]
      }
    },
    {
      "type": "Feature",
      "properties": {
        "record": "BA-202603492",
        "address": "2952 HOWELL MILL RD NW, ATLANTA GA 30327",
        "status": "ACA Pending",
        "date": "07/24/2026",
        "description": null,
        "owner": "LHAP Howell Mill LLC",
        "tree_dbh": "28",
        "tree_location": "Left of driveway, inside gate",
        "reason_removal": "Dead tree",
        "tree_description": "DeadReason for Removal:Dead treeComments:Pink tape\n\t\t\n\t\n\t\n                                \n                            \n                        \n                    \n                        \n                            \n                                \n                                    \n                                        \n                                         Parcel Information\n                                \n                            \n                            \n                                \n                                    \n\t\tParcel Number:17 0183  LL018 *Block:--Lot:--Subdivision:--",
        "tree_number": "1",
        "species": "Oak"
      },
      "geometry": {
        "type": "Point",
        "coordinates": [
          -84.421450455691,
          33.838120063446
        ]
      }
    },
    {
      "type": "Feature",
      "properties": {
        "record": "BA-202603494",
        "address": "2032 SPINK ST NW, ATLANTA GA 30318",
        "status": "ACA Pending",
        "date": "07/24/2026",
        "description": null,
        "owner": "Pat Graham",
        "tree_dbh": "15",
        "tree_location": "Back right",
        "reason_removal": "Uncorrectable defect",
        "tree_description": "Double trunk suppressed canopy tree with bark inclusion and damage to trunkReason for Removal:Uncorrectable defectComments:Orange paint\n\t\t\n\t\n\t\n                                \n                            \n                        \n                    \n                        \n                            \n                                \n                                    \n                                        \n                                         Parcel Information\n                                \n                            \n                            \n                                \n                                    \n\t\tParcel Number:17 02520005043 *Block:--Lot:--Subdivision:--",
        "tree_number": "1",
        "species": "Box Elder"
      },
      "geometry": {
        "type": "Point",
        "coordinates": [
          -84.469027362387,
          33.810144683413
        ]
      }
    },
    {
      "type": "Feature",
      "properties": {
        "record": "BA-202603509",
        "address": "40 7TH ST NE, ATLANTA GA 30308",
        "status": "ACA Pending",
        "date": "07/24/2026",
        "description": null,
        "owner": "SELIG ENTERPRISES INC",
        "tree_dbh": "14",
        "tree_location": "Between retention pond and parking lot",
        "reason_removal": "Dying tree",
        "tree_description": "Dead, Falling apart, orange ribbon on fenceReason for Removal:Dead tree\n\t\t\n\t\t\n\t\t\tTree number:2Species:OakTree Size (DBH):6Tree location:Between retention pond and parking lot Description of Tree:Declining,ribbon Reason for Removal:Dying tree\n\t\t\n\t\n\t\n                                \n                            \n                        \n                    \n                        \n                            \n                                \n                                    \n                                        \n                                         Parcel Information\n                                \n                            \n                            \n                                \n                                    \n\t\tParcel Number:T14 00490001006 01 *Block:--Lot:--Subdivision:--",
        "tree_number": "1",
        "species": "Oak"
      },
      "geometry": {
        "type": "Point",
        "coordinates": [
          -84.386183710951,
          33.778717540502
        ]
      }
    },
    {
      "type": "Feature",
      "properties": {
        "record": "BA-202603502",
        "address": "4220 CLUB DR, ATLANTA GA 30319",
        "status": "ACA Pending",
        "date": "07/24/2026",
        "description": null,
        "owner": "Hilary and Luke Browning",
        "tree_dbh": "9",
        "tree_location": "Front left",
        "reason_removal": "Uncorrectable defect",
        "tree_description": "Tree adjacent to driveway. Decay in baseReason for Removal:Significant cavity/area of decay\n\t\t\n\t\t\n\t\t\tTree number:2Species:DogwoodTree Size (DBH):6Tree location:Front leftDescription of Tree:Decay in cavity, decline 40%Reason for Removal:Dying tree\n\t\t\n\t\t\n\t\t\tTree number:3Species:Loblolly pineTree Size (DBH):24Tree location:Back centerDescription of Tree:DeadReason for Removal:Dead tree\n\t\t\n\t\t\n\t\t\tTree number:4Species:Loblolly pineTree Size (DBH):32Tree location:Back centerDescription of Tree:Cable girdling tree. High likelihood of structural failureReason for Removal:Uncorrectable defect\n\t\t\n\t\t\n\t\t\tTree number:5Species:Tulip poplarTree Size (DBH):25Tree location:Back leftDescription of Tree:Large decay cavity in base. Tree is growing into retaining wallReason for Removal:Significant cavity/area of decay\n\t\t\n\t\t\n\t\t\tTree number:6Species:ElmTree Size (DBH):7Tree location:Back leftDescription of Tree:Severe phototropic leanReason for Removal:Uncorrectable defect\n\t\t\n\t\t\n\t\t\tTree number:7Species:HickoryTree Size (DBH):14Tree location:Back rightDescription of Tree:Broken/deadReason for Removal:Dead tree\n\t\t\n\t\t\n\t\t\tTree number:8Species:BoxelderTree Size (DBH):8Tree location:Back rightDescription of Tree:Severe phototropic lean, decay in trunkReason for Removal:Significant cavity/area of decay\n\t\t\n\t\t\n\t\t\tTree number:9Species:DogwoodTree Size (DBH):13Tree location:Against left side houseDescription of Tree:Tree is growing into house and porchReason for Removal:Uncorrectable defect\n\t\t\n\t\n\t\n                                \n                            \n                        \n                    \n                        \n                            \n                                \n                                    \n                                        \n                                         Parcel Information\n                                \n                            \n                            \n                                \n                                    \n\t\tParcel Number:17 00120003053 *Block:--Lot:--Subdivision:--",
        "tree_number": "1",
        "species": "Dogwood"
      },
      "geometry": {
        "type": "Point",
        "coordinates": [
          -84.356802424001,
          33.870411276111
        ]
      }
    }
  ]
}