{
  "type": "FeatureCollection",
  "features": [
    {
      "type": "Feature",
      "properties": {
        "record": "BA-202604761",
        "address": "683 COLLIER RD NW, ATLANTA GA 30318",
        "status": "ACA Pending",
        "date": "09/18/2026",
        "description": null,
        "owner": "Nicholas Hunter",
        "tree_dbh": "40",
        "tree_location": "Front Yard",
        "reason_removal": "Dying tree",
        "tree_description": "Tree appears to be rotting and has some dead branches that are facing my neighbors yardReason for Removal:Dying treeComments:I fear that this large tree is likely to fall in the incident of a severe storm on to mine or my neighbors property\n\t\t\n\t\n\t\n                                \n                            \n                        \n                    \n                        \n                            \n                                \n                                    \n                                        \n                                         Parcel Information\n                                \n                            \n                            \n                                \n                                    \n\t\tParcel Number:17 01530004009 *Block:--Lot:--Subdivision:--",
        "tree_number": "1",
        "species": "Unknown"
      },
      "geometry": {
        "type": "Point",
        "coordinates": [
          -84.476328918942,
          33.771041534614
        ]
      }
    },
    {
      "type": "Feature",
      "properties": {
        "record": "BA-202604767",
        "address": "615 MEMORIAL DR SE, ATLANTA GA 30312",
        "status": "ACA Pending",
        "date": "09/18/2026",
        "description": null,
        "owner": "One Consulting Group",
        "tree_dbh": "15",
        "tree_location": "Center",
        "reason_removal": "Invasive/undesirable tree",
        "tree_description": "InvasiveReason for Removal:Invasive/undesirable treeComments:Orange paint\n\t\t\n\t\t\n\t\t\tTree number:2Species:Paper MulberryTree Size (DBH):14Tree location:CenterDescription of Tree:InvasiveReason for Removal:Invasive/undesirable treeComments:Orange paint\n\t\t\n\t\t\n\t\t\tTree number:3Species:Paper MulberryTree Size (DBH):14Tree location:CenterDescription of Tree:InvasiveReason for Removal:Invasive/undesirable treeComments:Orange paint\n\t\t\n\t\n\t\n                                \n                            \n                        \n                    \n                        \n                            \n                                \n                                    \n                                        \n                                         Parcel Information\n                                \n                            \n                            \n                                \n                                    \n\t\tParcel Number:14 00210001006 *Block:--Lot:--Subdivision:--",
        "tree_number": "1",
        "species": "Paper Mulberry"
      },
      "geometry": {
        "type": "Point",
        "coordinates": [
          -84.367293960215,
          33.746649628041
        ]
      }
    },
    {
      "type": "Feature",
      "properties": {
        "record": "BA-202604776",
        "address": "2675 ARBOR AVE SE, ATLANTA GA 30317",
        "status": "ACA Pending",
        "date": "09/18/2026",
        "description": null,
        "owner": null,
        "tree_dbh": null,
        "tree_location": null,
        "reason_removal": null,
        "tree_description": null,
        "tree_number": null,
        "species": null
      },
      "geometry": {
        "type": "Point",
        "coordinates": [
          -84.299231878946,
          33.750185459549
        ]
      }
    },
    {
      "type": "Feature",
      "properties": {
        "record": "BA-202604759",
        "address": "3400 HABERSHAM RD NW, ATLANTA GA 30305",
        "status": "ACA Pending",
        "date": "09/18/2026",
        "description": null,
        "owner": null,
        "tree_dbh": null,
        "tree_location": null,
        "reason_removal": null,
        "tree_description": null,
        "tree_number": null,
        "species": null
      },
      "geometry": {
        "type": "Point",
        "coordinates": [
          -84.391911002573,
          33.84794439139
        ]
      }
    },
    {
      "type": "Feature",
      "properties": {
        "record": "BA-202604774",
        "address": "175 SAMPSON ST NE, ATLANTA GA 30312",
        "status": "ACA Pending",
        "date": "09/18/2026",
        "description": null,
        "owner": null,
        "tree_dbh": null,
        "tree_location": null,
        "reason_removal": null,
        "tree_description": null,
        "tree_number": null,
        "species": null
      },
      "geometry": {
        "type": "Point",
        "coordinates": [
          -84.365531239538,
          33.758965789736
        ]
      }
    },
    {
      "type": "Feature",
      "properties": {
        "record": "BA-202604768",
        "address": "378 PATTERSON AVE SE, ATLANTA GA 30316",
        "status": "ACA Pending",
        "date": "09/18/2026",
        "description": null,
        "owner": "Liam Homes",
        "tree_dbh": "23",
        "tree_location": "Center rear",
        "reason_removal": "Uncorrectable defect",
        "tree_description": "Tree has some damage with decay at the base and strong phototrophic lean, entire canopy is over the build areaReason for Removal:Uncorrectable defectComments:Pink ribbon\n\t\t\n\t\n\t\n                                \n                            \n                        \n                    \n                        \n                            \n                                \n                                    \n                                        \n                                         Parcel Information\n                                \n                            \n                            \n                                \n                                    \n\t\tParcel Number:15 177 02 043 *Block:--Lot:--Subdivision:--",
        "tree_number": "1",
        "species": "Elm"
      },
      "geometry": {
        "type": "Point",
        "coordinates": [
          -84.342809894071,
          33.74305922457
        ]
      }
    },
    {
      "type": "Feature",
      "properties": {
        "record": "BA-202604765",
        "address": "355 LAKE FORREST LN NE, ATLANTA GA 30342",
        "status": "ACA Pending",
        "date": "09/18/2026",
        "description": null,
        "owner": "BODY JUDITH A",
        "tree_dbh": "79",
        "tree_location": "back yard",
        "reason_removal": "Dying tree",
        "tree_description": "dead tree with dust of ambrosia beetle at base, not sure what DBH is...this is the circumference of trunk near baseReason for Removal:Dead tree\n\t\t\n\t\t\n\t\t\tTree number:2Species:oakTree Size (DBH):82Tree location:back yardDescription of Tree:I am concerned about the health of this tree. The dieback is considerable. Several arborists have looked at it and seen signs of the ambrosia beetle. I am concerned that it is weakened and is diseased. See other note about DBH.Reason for Removal:Dying treeComments:If you need to come in the back yard, you need to let me know when so I can put my dogs up in the house. \n\t\t\n\t\n\t\n                                \n                            \n                        \n                    \n                        \n                            \n                                \n                                    \n                                        \n                                         Parcel Information\n                                \n                            \n                            \n                                \n                                    \n\t\tParcel Number:17 00950007035 *Block:--Lot:--Subdivision:--",
        "tree_number": "1",
        "species": "hickory"
      },
      "geometry": {
        "type": "Point",
        "coordinates": [
          -84.386077730115,
          33.870724739037
        ]
      }
    },
    {
      "type": "Feature",
      "properties": {
        "record": "BA-202604766",
        "address": "368 CAMDEN RD NE, ATLANTA GA 30309",
        "status": "ACA Pending",
        "date": "09/18/2026",
        "description": null,
        "owner": null,
        "tree_dbh": null,
        "tree_location": null,
        "reason_removal": null,
        "tree_description": null,
        "tree_number": null,
        "species": null
      },
      "geometry": {
        "type": "Point",
        "coordinates": [
          -84.382861273893,
          33.812160375303
        ]
      }
    },
    {
      "type": "Feature",
      "properties": {
        "record": "BA-202604763",
        "address": "930 CUSTER AVE SE, ATLANTA GA 30316",
        "status": "ACA Pending",
        "date": "09/18/2026",
        "description": null,
        "owner": null,
        "tree_dbh": null,
        "tree_location": null,
        "reason_removal": null,
        "tree_description": null,
        "tree_number": null,
        "species": null
      },
      "geometry": {
        "type": "Point",
        "coordinates": [
          -84.358486584752,
          33.717097968175
        ]
      }
    },
    {
      "type": "Feature",
      "properties": {
        "record": "BA-202604753",
        "address": "3152 ANDREWS DR NW, ATLANTA GA 30305",
        "status": "ACA Pending",
        "date": "09/18/2026",
        "description": null,
        "owner": "HECHT SHIRLEY O",
        "tree_dbh": "40",
        "tree_location": "back of house",
        "reason_removal": "Other",
        "tree_description": "tree failed on home. already removedReason for Removal:Other\n\t\t\n\t\t\n\t\t\tTree number:2Species:sweetgumTree Size (DBH):16Tree location:back of houseDescription of Tree:tree already remove. failed on home.Reason for Removal:Other\n\t\t\n\t\t\n\t\t\tTree number:3Species:sweetgumTree Size (DBH):14Tree location:rear of houseDescription of Tree:tree already removed.failed on homeReason for Removal:Other\n\t\t\n\t\n\t\n                                \n                            \n                        \n                    \n                        \n                            \n                                \n                                    \n                                        \n                                         Parcel Information\n                                \n                            \n                            \n                                \n                                    \n\t\tParcel Number:17 0114  LL011 *Block:--Lot:--Subdivision:--",
        "tree_number": "1",
        "species": "pind"
      },
      "geometry": {
        "type": "Point",
        "coordinates": [
          -84.389578757542,
          33.841255260473
        ]
      }
    },
    {
      "type": "Feature",
      "properties": {
        "record": "BA-202604777",
        "address": "924 ST CHARLES AVE NE, ATLANTA GA 30306",
        "status": "ACA Pending",
        "date": "09/18/2026",
        "description": null,
        "owner": "BEAVER TODD",
        "tree_dbh": "27",
        "tree_location": "Back Yard",
        "reason_removal": "Other",
        "tree_description": "It is on the invasive listReason for Removal:Invasive/undesirable tree\n\t\t\n\t\t\n\t\t\tTree number:2Species:Japanese MapleTree Size (DBH):5Tree location:Back YardDescription of Tree:Small Japanese MapleReason for Removal:OtherComments:The tree is listed as 5,6,7 but the 6 and 7\" limbs were decaying and removed years ago. The trunk still remained though and that is what was measured for DBH. Significant trunk decay.\n\t\t\n\t\t\n\t\t\tTree number:3Species:DogwoodTree Size (DBH):6Tree location:Back YardDescription of Tree:Leaning and directly next to timber wall, roots were damaging timber wall construction. Reason for Removal:OtherComments:Leaning and directly next to timber wall, roots were damaging timber wall construction. \n\t\t\n\t\n\t\n                                \n                            \n                        \n                    \n                        \n                            \n                                \n                                    \n                                        \n                                         Parcel Information\n                                \n                            \n                            \n                                \n                                    \n\t\tParcel Number:14 00160004066 *Block:--Lot:--Subdivision:--",
        "tree_number": "1",
        "species": "Holly"
      },
      "geometry": {
        "type": "Point",
        "coordinates": [
          -84.357021611325,
          33.775475854551
        ]
      }
    },
    {
      "type": "Feature",
      "properties": {
        "record": "26TMP-061874",
        "address": "614 LARCHMONT DR NW, ATLANTA GA 30318",
        "status": "",
        "date": "09/18/2026",
        "description": null,
        "owner": null,
        "tree_dbh": null,
        "tree_location": null,
        "reason_removal": null,
        "tree_description": null,
        "tree_number": null,
        "species": null
      },
      "geometry": {
        "type": "Point",
        "coordinates": [
          -84.48976605348,
          33.767891076649
        ]
      }
    },
    {
      "type": "Feature",
      "properties": {
        "record": "BA-202604764",
        "address": "1404 SPRING ST NW, ATLANTA GA 30309",
        "status": "ACA Pending",
        "date": "09/18/2026",
        "description": null,
        "owner": "CENTER FOR PUPPETRY ARTS INC",
        "tree_dbh": "33",
        "tree_location": "Front entrance",
        "reason_removal": "Dying tree",
        "tree_description": "This tree is decaying and losing portions of its top. It has already lost several large leads.",
        "tree_number": "1",
        "species": "Hackberry"
      },
      "geometry": {
        "type": "Point",
        "coordinates": [
          -84.389222320395,
          33.793052075803
        ]
      }
    },
    {
      "type": "Feature",
      "properties": {
        "record": "BA-202604781",
        "address": "1125 NEW BRITAIN DR SW, ATLANTA GA 30331",
        "status": "ACA Pending",
        "date": "09/18/2026",
        "description": null,
        "owner": null,
        "tree_dbh": null,
        "tree_location": null,
        "reason_removal": null,
        "tree_description": null,
        "tree_number": null,
        "species": null
      },
      "geometry": {
        "type": "Point",
        "coordinates": [
          -84.545155698743,
          33.727833936839
        ]
      }
    },
    {
      "type": "Feature",
      "properties": {
        "record": "BA-202604760",
        "address": "2660 LENOX RD NE, ATLANTA GA 30324",
        "status": "ACA Pending",
        "date": "09/18/2026",
        "description": null,
        "owner": null,
        "tree_dbh": null,
        "tree_location": null,
        "reason_removal": null,
        "tree_description": null,
        "tree_number": null,
        "species": null
      },
      "geometry": {
        "type": "Point",
        "coordinates": [
          -84.356818681964,
          33.832343561979
        ]
      }
    },
    {
      "type": "Feature",
      "properties": {
        "record": "BA-202604751",
        "address": "3365 VALLEY RD NW, ATLANTA GA 30305",
        "status": "ACA Pending",
        "date": "09/18/2026",
        "description": null,
        "owner": "GRANT JOHN W",
        "tree_dbh": "18",
        "tree_location": "front left",
        "reason_removal": "Dying tree",
        "tree_description": "extensive trunk damageReason for Removal:Dying tree\n\t\t\n\t\n\t\n                                \n                            \n                        \n                    \n                        \n                            \n                                \n                                    \n                                        \n                                         Parcel Information\n                                \n                            \n                            \n                                \n                                    \n\t\tParcel Number:17 00980004027 *Block:--Lot:--Subdivision:--",
        "tree_number": "1",
        "species": "Tulip Poplar"
      },
      "geometry": {
        "type": "Point",
        "coordinates": [
          -84.384304731802,
          33.846284254336
        ]
      }
    },
    {
      "type": "Feature",
      "properties": {
        "record": "BA-202604780",
        "address": "2555 HABERSHAM RD NW, ATLANTA GA 30305",
        "status": "ACA Pending",
        "date": "09/18/2026",
        "description": null,
        "owner": null,
        "tree_dbh": "31",
        "tree_location": "right side of drive",
        "reason_removal": "Significant cavity/area of decay",
        "tree_description": "31\" Pine, right side of drive just behind gate, large crack in trunk approx 65 ft upReason for Removal:Significant cavity/area of decayComments:31\" Pine, right side of drive just behind gate, large crack in trunk approx 65 ft up\n\t\t\n\t\n\t\n                                \n                            \n                        \n                    \n                        \n                            \n                                \n                                    \n                                        \n                                         Parcel Information\n                                \n                            \n                            \n                                \n                                    \n\t\tParcel Number:17 01120003017 *Block:--Lot:--Subdivision:--",
        "tree_number": "1",
        "species": "Pine"
      },
      "geometry": {
        "type": "Point",
        "coordinates": [
          -84.393176923905,
          33.824211905851
        ]
      }
    },
    {
      "type": "Feature",
      "properties": {
        "record": "BA-202604770",
        "address": "3500 RIDGEWOOD RD NW, ATLANTA GA 30327",
        "status": "ACA Pending",
        "date": "09/18/2026",
        "description": null,
        "owner": null,
        "tree_dbh": null,
        "tree_location": null,
        "reason_removal": null,
        "tree_description": null,
        "tree_number": null,
        "species": null
      },
      "geometry": {
        "type": "Point",
        "coordinates": [
          -84.444053452921,
          33.850685572449
        ]
      }
    },
    {
      "type": "Feature",
      "properties": {
        "record": "BA-202604757",
        "address": "1136 WOODLAND AVE SE, ATLANTA GA 30316",
        "status": "ACA Pending",
        "date": "09/18/2026",
        "description": null,
        "owner": "HIGGINS HUEY R",
        "tree_dbh": "35",
        "tree_location": "Front left",
        "reason_removal": "Unpermitted destruction",
        "tree_description": "Leaning treeReason for Removal:Uncorrectable defect\n\t\t\n\t\t\n\t\t\tTree number:2Species:PineTree Size (DBH):16Tree location:Front rightDescription of Tree:Leaning treeReason for Removal:Unpermitted destruction\n\t\t\n\t\n\t\n                                \n                            \n                        \n                    \n                        \n                            \n                                \n                                    \n                                        \n                                         Parcel Information\n                                \n                            \n                            \n                                \n                                    \n\t\tParcel Number:14 00100009059 *Block:--Lot:--Subdivision:--",
        "tree_number": "1",
        "species": "Oak"
      },
      "geometry": {
        "type": "Point",
        "coordinates": [
          -84.353731083105,
          33.723348315868
        ]
      }
    },
    {
      "type": "Feature",
      "properties": {
        "record": "BA-202604754",
        "address": "1136 WOODLAND AVE SE, ATLANTA GA 30316",
        "status": "ACA Pending",
        "date": "09/18/2026",
        "description": null,
        "owner": "HIGGINS HUEY R",
        "tree_dbh": "35",
        "tree_location": "front",
        "reason_removal": "Uncorrectable defect",
        "tree_description": "Tree removalReason for Removal:Uncorrectable defect\n\t\t\n\t\t\n\t\t\tTree number:2Species:PineTree Size (DBH):16Tree location:right frontDescription of Tree:Tree removalReason for Removal:Uncorrectable defect\n\t\t\n\t\n\t\n                                \n                            \n                        \n                    \n                        \n                            \n                                \n                                    \n                                        \n                                         Parcel Information\n                                \n                            \n                            \n                                \n                                    \n\t\tParcel Number:14 00100009059 *Block:--Lot:--Subdivision:--",
        "tree_number": "1",
        "species": "Oak"
      },
      "geometry": {
        "type": "Point",
        "coordinates": [
          -84.353731083105,
          33.723348315868
        ]
      }
    },
    {
      "type": "Feature",
      "properties": {
        "record": "BA-202604772",
        "address": "3606 HABERSHAM RD NW, ATLANTA GA 30305",
        "status": "ACA Pending",
        "date": "09/18/2026",
        "description": null,
        "owner": null,
        "tree_dbh": "30",
        "tree_location": "Behind House",
        "reason_removal": "Other",
        "tree_description": "Leaning & Growing into the deck Reason for Removal:Other\n\t\t\n\t\n\t\n                                \n                            \n                        \n                    \n                        \n                            \n                                \n                                    \n                                        \n                                         Parcel Information\n                                \n                            \n                            \n                                \n                                    \n\t\tParcel Number:17 00980001025 *Block:--Lot:--Subdivision:--",
        "tree_number": "1",
        "species": "Pine"
      },
      "geometry": {
        "type": "Point",
        "coordinates": [
          -84.38481844091,
          33.852498906632
        ]
      }
    },
    {
      "type": "Feature",
      "properties": {
        "record": "BA-202604762",
        "address": "364 OLD IVY RD NE, BLDG1, ATLANTA GA 30342",
        "status": "ACA Pending",
        "date": "09/18/2026",
        "description": null,
        "owner": "CITY OF ATLANTA",
        "tree_dbh": "27",
        "tree_location": "left side drive closer to house",
        "reason_removal": "Dead tree",
        "tree_description": "27\" Pine, left side drive, excessive leanReason for Removal:OtherComments:27\" Pine, left side drive, excessive lean\n\t\t\n\t\t\n\t\t\tTree number:2Species:PineTree Size (DBH):23Tree location:left side drive closer to houseDescription of Tree:23\" Pine, left side drive closer to house, DeadReason for Removal:Dead treeComments:23\" Pine, left side drive closer to house, Dead\n\t\t\n\t\n\t\n                                \n                            \n                        \n                    \n                        \n                            \n                                \n                                    \n                                        \n                                         Parcel Information\n                                \n                            \n                            \n                                \n                                    \n\t\tParcel Number:17 0063  LL042 *Block:--Lot:--Subdivision:--",
        "tree_number": "1",
        "species": "Pine"
      },
      "geometry": {
        "type": "Point",
        "coordinates": [
          -84.375577480148,
          33.857463200546
        ]
      }
    },
    {
      "type": "Feature",
      "properties": {
        "record": "BA-202604756",
        "address": "3033 EAST PINE VALLEY RD NW, ATLANTA GA 30305",
        "status": "ACA Pending",
        "date": "09/18/2026",
        "description": null,
        "owner": "Kevin Jameson",
        "tree_dbh": "14",
        "tree_location": "Back left",
        "reason_removal": "Uncorrectable defect",
        "tree_description": "Damaged by garage fireReason for Removal:Uncorrectable defect\n\t\t\n\t\t\n\t\t\tTree number:2Species:HemlockTree Size (DBH):10Tree location:Back leftDescription of Tree:Damaged by garage fireReason for Removal:Uncorrectable defect\n\t\t\n\t\t\n\t\t\tTree number:3Species:PoplarTree Size (DBH):36Tree location:Back leftDescription of Tree:Damaged by garage fire\n(2 - 18\" leads)Reason for Removal:Uncorrectable defect\n\t\t\n\t\t\n\t\t\tTree number:4Species:PineTree Size (DBH):20Tree location:Back leftDescription of Tree:DeadReason for Removal:Dead tree\n\t\t\n\t\t\n\t\t\tTree number:5Species:SweetgumTree Size (DBH):30Tree location:Back rightDescription of Tree:DeadReason for Removal:Dead tree\n\t\t\n\t\t\n\t\t\tTree number:6Species:Multi-stem PoplarTree Size (DBH):30Tree location:RearDescription of Tree:damaged by garage fireReason for Removal:Uncorrectable defect\n\t\t\n\t\n\t\n                                \n                            \n                        \n                    \n                        \n                            \n                                \n                                    \n                                        \n                                         Parcel Information\n                                \n                            \n                            \n                                \n                                    \n\t\tParcel Number:17 01430003076 *Block:--Lot:--Subdivision:--",
        "tree_number": "1",
        "species": "Hemlock"
      },
      "geometry": {
        "type": "Point",
        "coordinates": [
          -84.399547324291,
          33.83818611481
        ]
      }
    },
    {
      "type": "Feature",
      "properties": {
        "record": "BA-202604769",
        "address": "2426 HOSEA L WILLIAMS DR NE, ATLANTA GA 30317",
        "status": "Issued",
        "date": "09/18/2026",
        "description": "Canopy collapse from 60\" Water Oak on right side of house.",
        "owner": null,
        "tree_dbh": null,
        "tree_location": null,
        "reason_removal": null,
        "tree_description": null,
        "tree_number": null,
        "species": null
      },
      "geometry": {
        "type": "Point",
        "coordinates": [
          -84.307502102397,
          33.751122434599
        ]
      }
    },
    {
      "type": "Feature",
      "properties": {
        "record": "BA-202604752",
        "address": "1474 NISKEY LAKE TRL SW, ATLANTA GA 30331",
        "status": "Issued",
        "date": "09/18/2026",
        "description": "DDH",
        "owner": null,
        "tree_dbh": null,
        "tree_location": null,
        "reason_removal": null,
        "tree_description": null,
        "tree_number": null,
        "species": null
      },
      "geometry": {
        "type": "Point",
        "coordinates": [
          -84.5308948499,
          33.715384709775
        ]
      }
    }
  ]
}