{
  "type": "FeatureCollection",
  "features": [
    {
      "type": "Feature",
      "properties": {
        "record": "26TMP-060937",
        "address": "457 LYNN VALLEY RD SW, ATLANTA GA 30311",
        "status": "",
        "date": "09/16/2026",
        "description": null,
        "owner": null,
        "tree_dbh": null,
        "tree_location": null,
        "reason_removal": null,
        "tree_description": null,
        "tree_number": null,
        "species": null
      },
      "geometry": {
        "type": "Point",
        "coordinates": [
          -84.484641706951,
          33.738292545937
        ]
      }
    },
    {
      "type": "Feature",
      "properties": {
        "record": "BA-202604700",
        "address": "2191 HOSEA L WILLIAMS DR SE, ATLANTA GA 30317",
        "status": "Accepted",
        "date": "09/16/2026",
        "description": null,
        "owner": "Lauren Hughes",
        "tree_dbh": "35",
        "tree_location": "Rear of property",
        "reason_removal": "Uncorrectable defect",
        "tree_description": "dieback/decline exceeding 1/3 total canopy of treeReason for Removal:Uncorrectable defectComments:Ribbon\n\t\t\n\t\n\t\n                                \n                            \n                        \n                    \n                        \n                            \n                                \n                                    \n                                        \n                                         Parcel Information\n                                \n                            \n                            \n                                \n                                    \n\t\tParcel Number:15 205 02 059 *Block:--Lot:--Subdivision:--",
        "tree_number": "1",
        "species": "Sweetgum"
      },
      "geometry": {
        "type": "Point",
        "coordinates": [
          -84.315800748512,
          33.751094563174
        ]
      }
    },
    {
      "type": "Feature",
      "properties": {
        "record": "BA-202604697",
        "address": "1083 AMSTERDAM AVE NE, ATLANTA GA 30306",
        "status": "Accepted",
        "date": "09/16/2026",
        "description": null,
        "owner": null,
        "tree_dbh": "12",
        "tree_location": "front left",
        "reason_removal": "Dying tree",
        "tree_description": "This tree is growing under overhead utilities. The tree is infested with Crape Myrtle Bark Scale. Reason for Removal:Dying tree\n\t\t\n\t\n\t\n                                \n                            \n                        \n                    \n                        \n                            \n                                \n                                    \n                                        \n                                         Parcel Information\n                                \n                            \n                            \n                                \n                                    \n\t\tParcel Number:17 00010002034 *Block:--Lot:--Subdivision:--",
        "tree_number": "1",
        "species": "crape myrtle"
      },
      "geometry": {
        "type": "Point",
        "coordinates": [
          -84.351623794047,
          33.787514169938
        ]
      }
    },
    {
      "type": "Feature",
      "properties": {
        "record": "BA-202604711",
        "address": "1119 CASCADE AVE SW, ATLANTA GA 30311",
        "status": "ACA Pending",
        "date": "09/16/2026",
        "description": null,
        "owner": null,
        "tree_dbh": null,
        "tree_location": null,
        "reason_removal": null,
        "tree_description": null,
        "tree_number": null,
        "species": null
      },
      "geometry": {
        "type": "Point",
        "coordinates": [
          -84.45032977954,
          33.724029245208
        ]
      }
    },
    {
      "type": "Feature",
      "properties": {
        "record": "26TMP-061142",
        "address": "2321 COUNTY LINE RD SW, ATLANTA GA 30331",
        "status": "",
        "date": "09/16/2026",
        "description": null,
        "owner": null,
        "tree_dbh": null,
        "tree_location": null,
        "reason_removal": null,
        "tree_description": null,
        "tree_number": null,
        "species": null
      },
      "geometry": {
        "type": "Point",
        "coordinates": [
          -84.534492593491,
          33.691670697923
        ]
      }
    },
    {
      "type": "Feature",
      "properties": {
        "record": "BA-202604705",
        "address": "1524 AUSTIN RD SW, ATLANTA GA 30331",
        "status": "ACA Pending",
        "date": "09/16/2026",
        "description": null,
        "owner": null,
        "tree_dbh": null,
        "tree_location": null,
        "reason_removal": null,
        "tree_description": null,
        "tree_number": null,
        "species": null
      },
      "geometry": {
        "type": "Point",
        "coordinates": [
          -84.510231347195,
          33.712736807211
        ]
      }
    },
    {
      "type": "Feature",
      "properties": {
        "record": "BA-202604698",
        "address": "850 OAK ST SW, ATLANTA GA 30310",
        "status": "Accepted",
        "date": "09/16/2026",
        "description": null,
        "owner": null,
        "tree_dbh": null,
        "tree_location": null,
        "reason_removal": null,
        "tree_description": null,
        "tree_number": null,
        "species": null
      },
      "geometry": {
        "type": "Point",
        "coordinates": [
          -84.4157395239,
          33.740589044343
        ]
      }
    },
    {
      "type": "Feature",
      "properties": {
        "record": "BA-202604694",
        "address": "2004 RIDGEWOOD DR NE, ATLANTA GA",
        "status": "Accepted",
        "date": "09/16/2026",
        "description": null,
        "owner": null,
        "tree_dbh": null,
        "tree_location": null,
        "reason_removal": null,
        "tree_description": null,
        "tree_number": null,
        "species": null
      },
      "geometry": {
        "type": "Point",
        "coordinates": [
          -84.318222217411,
          33.792423183666
        ]
      }
    },
    {
      "type": "Feature",
      "properties": {
        "record": "BA-202604696",
        "address": "3380 EAST WOOD VALLEY RD NW, ATLANTA GA 30327",
        "status": "Accepted",
        "date": "09/16/2026",
        "description": null,
        "owner": null,
        "tree_dbh": null,
        "tree_location": null,
        "reason_removal": null,
        "tree_description": null,
        "tree_number": null,
        "species": null
      },
      "geometry": {
        "type": "Point",
        "coordinates": [
          -84.413379183413,
          33.847435815052
        ]
      }
    },
    {
      "type": "Feature",
      "properties": {
        "record": "BA-202604706",
        "address": "1943 KILBURN DR NE, ATLANTA GA 30324",
        "status": "ACA Pending",
        "date": "09/16/2026",
        "description": null,
        "owner": null,
        "tree_dbh": null,
        "tree_location": null,
        "reason_removal": null,
        "tree_description": null,
        "tree_number": null,
        "species": null
      },
      "geometry": {
        "type": "Point",
        "coordinates": [
          -84.372312839996,
          33.807668975634
        ]
      }
    },
    {
      "type": "Feature",
      "properties": {
        "record": "BA-202604692",
        "address": "744 BELLEMEADE AVE NW, ATLANTA GA 30318",
        "status": "Accepted",
        "date": "09/16/2026",
        "description": null,
        "owner": null,
        "tree_dbh": null,
        "tree_location": null,
        "reason_removal": null,
        "tree_description": null,
        "tree_number": null,
        "species": null
      },
      "geometry": {
        "type": "Point",
        "coordinates": [
          -84.41278609178,
          33.80032153301
        ]
      }
    },
    {
      "type": "Feature",
      "properties": {
        "record": "BA-202604703",
        "address": "1102 LANIER BLVD NE, ATLANTA GA 30306",
        "status": "Accepted",
        "date": "09/16/2026",
        "description": null,
        "owner": null,
        "tree_dbh": null,
        "tree_location": null,
        "reason_removal": null,
        "tree_description": null,
        "tree_number": null,
        "species": null
      },
      "geometry": {
        "type": "Point",
        "coordinates": [
          -84.350930610368,
          33.784750020455
        ]
      }
    },
    {
      "type": "Feature",
      "properties": {
        "record": "BA-202604686",
        "address": "682 STOKESWOOD AVE SE, ATLANTA GA 30316",
        "status": "Accepted",
        "date": "09/16/2026",
        "description": null,
        "owner": null,
        "tree_dbh": null,
        "tree_location": null,
        "reason_removal": null,
        "tree_description": null,
        "tree_number": null,
        "species": null
      },
      "geometry": {
        "type": "Point",
        "coordinates": [
          -84.344637697207,
          33.735753325934
        ]
      }
    },
    {
      "type": "Feature",
      "properties": {
        "record": "BA-202604687",
        "address": "796 PEEPLES ST SW, ATLANTA GA 30310",
        "status": "Accepted",
        "date": "09/16/2026",
        "description": null,
        "owner": null,
        "tree_dbh": null,
        "tree_location": null,
        "reason_removal": null,
        "tree_description": null,
        "tree_number": null,
        "species": null
      },
      "geometry": {
        "type": "Point",
        "coordinates": [
          -84.420417910443,
          33.73324598767
        ]
      }
    },
    {
      "type": "Feature",
      "properties": {
        "record": "BA-202604712",
        "address": "1099 CASCADE AVE SW, ATLANTA GA 30311",
        "status": "ACA Pending",
        "date": "09/16/2026",
        "description": null,
        "owner": null,
        "tree_dbh": null,
        "tree_location": null,
        "reason_removal": null,
        "tree_description": null,
        "tree_number": null,
        "species": null
      },
      "geometry": {
        "type": "Point",
        "coordinates": [
          -84.450239851911,
          33.724314572197
        ]
      }
    },
    {
      "type": "Feature",
      "properties": {
        "record": "BA-202604709",
        "address": "623 KIMBERLY LN NE, ATLANTA GA 30306",
        "status": "ACA Pending",
        "date": "09/16/2026",
        "description": null,
        "owner": null,
        "tree_dbh": null,
        "tree_location": null,
        "reason_removal": null,
        "tree_description": null,
        "tree_number": null,
        "species": null
      },
      "geometry": {
        "type": "Point",
        "coordinates": [
          -84.341355663417,
          33.79439956796
        ]
      }
    },
    {
      "type": "Feature",
      "properties": {
        "record": "26TMP-061152",
        "address": "4300 ROSWELL RD NE, #2, ATLANTA GA 30342",
        "status": "",
        "date": "09/16/2026",
        "description": null,
        "owner": null,
        "tree_dbh": null,
        "tree_location": null,
        "reason_removal": null,
        "tree_description": null,
        "tree_number": null,
        "species": null
      },
      "geometry": {
        "type": "Point",
        "coordinates": [
          -84.381112114628,
          33.872289398253
        ]
      }
    },
    {
      "type": "Feature",
      "properties": {
        "record": "BA-202604683",
        "address": "3189 PEACHTREE DR NE, ATLANTA GA 30305",
        "status": "Accepted",
        "date": "09/16/2026",
        "description": null,
        "owner": null,
        "tree_dbh": "4",
        "tree_location": "Back yard",
        "reason_removal": "Other",
        "tree_description": "Large mature OakReason for Removal:OtherComments:This application is for the TRAP Pruning not removal. DBH is an estimate\n\t\t\n\t\n\t\n                                \n                            \n                        \n                    \n                        \n                            \n                                \n                                    \n                                        \n                                         Parcel Information\n                                \n                            \n                            \n                                \n                                    \n\t\tParcel Number:17 00460012006 *Block:--Lot:--Subdivision:--",
        "tree_number": "1",
        "species": "Water Oak (?)"
      },
      "geometry": {
        "type": "Point",
        "coordinates": [
          -84.362919332929,
          33.841240503103
        ]
      }
    },
    {
      "type": "Feature",
      "properties": {
        "record": "26TMP-061259",
        "address": "2836 OLDKNOW DR NW, ATLANTA GA 30318",
        "status": "",
        "date": "09/16/2026",
        "description": null,
        "owner": null,
        "tree_dbh": null,
        "tree_location": null,
        "reason_removal": null,
        "tree_description": null,
        "tree_number": null,
        "species": null
      },
      "geometry": {
        "type": "Point",
        "coordinates": [
          -84.481144183768,
          33.771743268564
        ]
      }
    },
    {
      "type": "Feature",
      "properties": {
        "record": "BA-202604688",
        "address": "875 PEYTON RD SW, ATLANTA GA 30311",
        "status": "Accepted",
        "date": "09/16/2026",
        "description": null,
        "owner": "FRAZIER EVELYN J",
        "tree_dbh": "29",
        "tree_location": "back left of house",
        "reason_removal": "Dying tree",
        "tree_description": "Tree has a prononce lean towards the house. This tree at 40' splits into 2 co-dominant large stems with included bark, wet wood or a disease is present around the union of the 2 large co-dominant stems, sap is running down and the area is black indicating potential interior decaying. Reason for Removal:Dying tree\n\t\t\n\t\t\n\t\t\tTree number:2Species:water oak Tree Size (DBH):41Tree location:back left of house Description of Tree:This tree splits into to large stems around 5 ft from the ground. Each stem is approximately +20\" in diameter with included bark and large. The tree is growing in small planter area and has destroyed the retaining wall. It has a limited growing space.",
        "tree_number": "1",
        "species": "red oak"
      },
      "geometry": {
        "type": "Point",
        "coordinates": [
          -84.479291619054,
          33.732060222304
        ]
      }
    },
    {
      "type": "Feature",
      "properties": {
        "record": "BA-202604710",
        "address": "575 BLAKE AVE SE, ATLANTA GA 30316",
        "status": "ACA Pending",
        "date": "09/16/2026",
        "description": null,
        "owner": "KEVIN DRISCOLL",
        "tree_dbh": "26",
        "tree_location": "Back of the house",
        "reason_removal": "Dead tree",
        "tree_description": null,
        "tree_number": "1",
        "species": "Oak"
      },
      "geometry": {
        "type": "Point",
        "coordinates": [
          -84.33945953213,
          33.738384388403
        ]
      }
    },
    {
      "type": "Feature",
      "properties": {
        "record": "BA-202604690",
        "address": "4315 HARRIS TRL NW, ATLANTA GA 30327",
        "status": "Accepted",
        "date": "09/16/2026",
        "description": null,
        "owner": null,
        "tree_dbh": "30",
        "tree_location": "Back left side",
        "reason_removal": "Other",
        "tree_description": "Unsure of true dbh, but larger red oak which is uprooting and has shelf mushrooms at the bottom of the treeReason for Removal:OtherComments:Weight was taken out so it was less of an imminent threat while waiting for permit\n\t\t\n\t\n\t\n                                \n                            \n                        \n                    \n                        \n                            \n                                \n                                    \n                                        \n                                         Parcel Information\n                                \n                            \n                            \n                                \n                                    \n\t\tParcel Number:17 0201  LL079 *Block:--Lot:--Subdivision:--",
        "tree_number": "1",
        "species": "Red oak"
      },
      "geometry": {
        "type": "Point",
        "coordinates": [
          -84.434303953304,
          33.87309510201
        ]
      }
    },
    {
      "type": "Feature",
      "properties": {
        "record": "BA-202604682",
        "address": "1825 WELLBOURNE DR NE, ATLANTA GA 30324",
        "status": "Accepted",
        "date": "09/16/2026",
        "description": null,
        "owner": null,
        "tree_dbh": "30",
        "tree_location": "Rear right",
        "reason_removal": "Dead tree",
        "tree_description": "DeadReason for Removal:Dead tree\n\t\t\n\t\t\n\t\t\tTree number:2Species:hackberryTree Size (DBH):17Tree location:left side of propertyDescription of Tree:multiple broken limbs, lean towards neighbor's house, cavity at root crown on tension side of lean; seam from wound up to approximately 5' Reason for Removal:Uncorrectable defect\n\t\t\n\t\t\n\t\t\tTree number:3Species: HickoryTree Size (DBH):8Tree location:Right side of propertyDescription of Tree:Tree damaged from adjacent fallen tree; multiple broken limbs, asymmetrical canopyReason for Removal:Other\n\t\t\n\t\t\n\t\t\tTree number:4Species:tulip poplarTree Size (DBH):13Tree location:Right side of propertyDescription of Tree:Significant bend in trunk, with canopy weighted towards neighbor's houseReason for Removal:Uncorrectable defect\n\t\t\n\t\t\n\t\t\tTree number:5Species:loblolly pineTree Size (DBH):18Tree location:Rear leftDescription of Tree:Dead stubReason for Removal:Dead treeComments:Previously approved under BA-202502298\n\t\t\n\t\t\n\t\t\tTree number:6Species:Loblolly pineTree Size (DBH):18Tree location:Rear leftDescription of Tree:Dead stubReason for Removal:Dead treeComments:Previously approved under BA-202502298\n\t\t\n\t\n\t\n                                \n                            \n                        \n                    \n                        \n                            \n                                \n                                    \n                                        \n                                         Parcel Information\n                                \n                            \n                            \n                                \n                                    \n\t\tParcel Number:17 00500008001 *Block:--Lot:--Subdivision:--",
        "tree_number": "1",
        "species": "loblolly pine"
      },
      "geometry": {
        "type": "Point",
        "coordinates": [
          -84.360025268141,
          33.805450768149
        ]
      }
    },
    {
      "type": "Feature",
      "properties": {
        "record": "BA-202604691",
        "address": "3185 WEST MANOR CIR SW, ATLANTA GA 00000",
        "status": "Accepted",
        "date": "09/16/2026",
        "description": null,
        "owner": "Sutana Fullins",
        "tree_dbh": "50",
        "tree_location": "Backyard",
        "reason_removal": "Dying tree",
        "tree_description": "Large pine tree near fence and large oak tree in middle of backyard needs inspection. Reason for Removal:Dying treeComments:Large pine tree snear fence and large oak tree in middle of backyard needs inspection. \n\t\t\n\t\n\t\n                                \n                            \n                        \n                    \n                        \n                            \n                                \n                                    \n                                        \n                                         Parcel Information\n                                \n                            \n                            \n                                \n                                    \n\t\tParcel Number:14 02350005017 *Block:--Lot:--Subdivision:--",
        "tree_number": "3",
        "species": "Oak and pine"
      },
      "geometry": {
        "type": "Point",
        "coordinates": [
          -84.4913351579,
          33.736865867799
        ]
      }
    },
    {
      "type": "Feature",
      "properties": {
        "record": "BA-202604685",
        "address": "1483 CHATTAHOOCHEE AVE NW, ATLANTA GA 30318",
        "status": "Accepted",
        "date": "09/16/2026",
        "description": null,
        "owner": "JODACO INC",
        "tree_dbh": "6",
        "tree_location": "Parking lot island",
        "reason_removal": "Dead tree",
        "tree_description": null,
        "tree_number": "0",
        "species": "Trident Maple"
      },
      "geometry": {
        "type": "Point",
        "coordinates": [
          -84.436127473334,
          33.808776475091
        ]
      }
    },
    {
      "type": "Feature",
      "properties": {
        "record": "BA-202604707",
        "address": "380 ARDMORE CIR NW, A-1, ATLANTA GA 00000",
        "status": "ACA Pending",
        "date": "09/16/2026",
        "description": null,
        "owner": null,
        "tree_dbh": "18",
        "tree_location": "Front right of property near trash area",
        "reason_removal": "Dying tree",
        "tree_description": "18\" Mulberry, Declining, Canopy Dieback, Undesirable species, front right of property near trash areaReason for Removal:Dying treeComments:18\" Mulberry, Declining, Canopy Dieback, Undesirable species, front right of property near trash area\n\t\t\n\t\n\t\n                                \n                            \n                        \n                    \n                        \n                            \n                                \n                                    \n                                        \n                                         Parcel Information\n                                \n                            \n                            \n                                \n                                    \n\t\tParcel Number:17 01470005001 *Block:--Lot:--Subdivision:--",
        "tree_number": "1",
        "species": "Mulberry"
      },
      "geometry": {
        "type": "Point",
        "coordinates": [
          -84.397855100152,
          33.803557504401
        ]
      }
    },
    {
      "type": "Feature",
      "properties": {
        "record": "BA-202604699",
        "address": "3088 MARNE DR NW, ATLANTA GA 30305",
        "status": "Accepted",
        "date": "09/16/2026",
        "description": null,
        "owner": "Hayward McEver",
        "tree_dbh": "32",
        "tree_location": "Right rear",
        "reason_removal": "Uncorrectable defect",
        "tree_description": "root decay fungus, unbalanced canopy, restricted root space.Reason for Removal:Uncorrectable defectComments:Orange dot\n\t\t\n\t\n\t\n                                \n                            \n                        \n                    \n                        \n                            \n                                \n                                    \n                                        \n                                         Parcel Information\n                                \n                            \n                            \n                                \n                                    \n\t\tParcel Number:17 01420003035 *Block:--Lot:--Subdivision:--",
        "tree_number": "1",
        "species": "Water Oak"
      },
      "geometry": {
        "type": "Point",
        "coordinates": [
          -84.404319613109,
          33.839924085405
        ]
      }
    },
    {
      "type": "Feature",
      "properties": {
        "record": "BA-202604684",
        "address": "700 MARTINA DR NE, ATLANTA GA 30305",
        "status": "Accepted",
        "date": "09/16/2026",
        "description": null,
        "owner": null,
        "tree_dbh": "32",
        "tree_location": "front left of house",
        "reason_removal": "Significant cavity/area of decay",
        "tree_description": "Cavity in the main trunk at the attachment point of the two large upper canopy leaders. The tree is hazardous to the 2 homes below Reason for Removal:Significant cavity/area of decay\n\t\t\n\t\n\t\n                                \n                            \n                        \n                    \n                        \n                            \n                                \n                                    \n                                        \n                                         Parcel Information\n                                \n                            \n                            \n                                \n                                    \n\t\tParcel Number:17 00460003041 *Block:--Lot:--Subdivision:--",
        "tree_number": "1",
        "species": "Pecan"
      },
      "geometry": {
        "type": "Point",
        "coordinates": [
          -84.36666358441,
          33.842468931575
        ]
      }
    },
    {
      "type": "Feature",
      "properties": {
        "record": "BA-202604693",
        "address": "675 CUMBERLAND RD NE, ATLANTA GA 30306",
        "status": "Accepted",
        "date": "09/16/2026",
        "description": null,
        "owner": "SMITH SARAH H",
        "tree_dbh": "30",
        "tree_location": "front right",
        "reason_removal": "Dead tree",
        "tree_description": "This tree is dead. No live canopy. It has been attacked by wood boring insects. Reason for Removal:Dead tree\n\t\t\n\t\n\t\n                                \n                            \n                        \n                    \n                        \n                            \n                                \n                                    \n                                        \n                                         Parcel Information\n                                \n                            \n                            \n                                \n                                    \n\t\tParcel Number:17 00520001015 *Block:--Lot:--Subdivision:--",
        "tree_number": "1",
        "species": "loblolly pine"
      },
      "geometry": {
        "type": "Point",
        "coordinates": [
          -84.364882356236,
          33.796137874773
        ]
      }
    },
    {
      "type": "Feature",
      "properties": {
        "record": "26TMP-061343",
        "address": "833 BRADDOCK ST SW, ATLANTA GA 30310",
        "status": "",
        "date": "09/16/2026",
        "description": null,
        "owner": null,
        "tree_dbh": null,
        "tree_location": null,
        "reason_removal": null,
        "tree_description": null,
        "tree_number": null,
        "species": null
      },
      "geometry": {
        "type": "Point",
        "coordinates": [
          -84.41576697827,
          33.710769214727
        ]
      }
    },
    {
      "type": "Feature",
      "properties": {
        "record": "BA-202604701",
        "address": "2466 SPRING GARDEN DR SW, ATLANTA GA 30315",
        "status": "Accepted",
        "date": "09/16/2026",
        "description": null,
        "owner": "ALLEN MARY",
        "tree_dbh": "25",
        "tree_location": "Backyard",
        "reason_removal": "Dead tree",
        "tree_description": "It is a dead tree and it creates a hazardous. It has a great big dead hole right in the centerReason for Removal:Dead tree\n\t\t\n\t\t\n\t\t\tTree number:1Species:Water oakTree Size (DBH):25Tree location:BackyardDescription of Tree:Dead tree Reason for Removal:Dead tree\n\t\t\n\t\n\t\n                                \n                            \n                        \n                    \n                        \n                            \n                                \n                                    \n                                        \n                                         Parcel Information\n                                \n                            \n                            \n                                \n                                    \n\t\tParcel Number:14 01010009039 *Block:--Lot:--Subdivision:--",
        "tree_number": "1",
        "species": "Water oak"
      },
      "geometry": {
        "type": "Point",
        "coordinates": [
          -84.411662651043,
          33.687414428785
        ]
      }
    },
    {
      "type": "Feature",
      "properties": {
        "record": "BA-202604702",
        "address": "1051 TUMLIN ST NW, ATLANTA GA 30318",
        "status": "Accepted",
        "date": "09/16/2026",
        "description": "DDH",
        "owner": null,
        "tree_dbh": null,
        "tree_location": null,
        "reason_removal": null,
        "tree_description": null,
        "tree_number": null,
        "species": null
      },
      "geometry": {
        "type": "Point",
        "coordinates": [
          -84.400513856344,
          33.783561417957
        ]
      }
    }
  ]
}