{
  "type": "FeatureCollection",
  "features": [
    {
      "type": "Feature",
      "properties": {
        "record": "BA-202603598",
        "address": "915 REGENCY CREST DR SW, ATLANTA GA 30331",
        "status": "ACA Pending",
        "date": "07/29/2026",
        "description": null,
        "owner": null,
        "tree_dbh": "40",
        "tree_location": "side of home",
        "reason_removal": "Dying tree",
        "tree_description": "dead tree-storm damagedReason for Removal:Dying treeComments:The overall tree description can be located in the attached for these trees.\n\t\t\n\t\t\n\t\t\tTree number:4549Species:Georgia Pine TreesTree Size (DBH):40Tree location:side of homeDescription of Tree:dead/dying tree due to storm damage.Reason for Removal:Dying treeComments:The overall location of these trees are located in the attached photo provided for this tree type.\n\t\t\n\t\n\t\n                                \n                            \n                        \n                    \n                        \n                            \n                                \n                                    \n                                        \n                                         Parcel Information\n                                \n                            \n                            \n                                \n                                    \n\t\tParcel Number:14F00470003002 *Block:--Lot:--Subdivision:--",
        "tree_number": "4542",
        "species": "Georgia Pine Trees"
      },
      "geometry": {
        "type": "Point",
        "coordinates": [
          -84.530055482147,
          33.727344372526
        ]
      }
    },
    {
      "type": "Feature",
      "properties": {
        "record": "BA-202603572",
        "address": "2230 BOHLER RD NW, 6, ATLANTA GA 30327",
        "status": "Accepted",
        "date": "07/29/2026",
        "description": null,
        "owner": "SCRUGGS GRETA E",
        "tree_dbh": "18",
        "tree_location": "behind home",
        "reason_removal": "Other",
        "tree_description": "2230 Bohler-One leaning 18\" Pine behind home. Reason for Removal:OtherComments:2230 Bohler-One leaning 18\" Pine behind home\n\t\t\n\t\n\t\n                                \n                            \n                        \n                    \n                        \n                            \n                                \n                                    \n                                        \n                                         Parcel Information\n                                \n                            \n                            \n                                \n                                    \n\t\tParcel Number:17 01940001067 *Block:--Lot:--Subdivision:--",
        "tree_number": "1",
        "species": "pine"
      },
      "geometry": {
        "type": "Point",
        "coordinates": [
          -84.430548823673,
          33.816764459847
        ]
      }
    },
    {
      "type": "Feature",
      "properties": {
        "record": "BA-202603583",
        "address": "760 BERKELEY AVE NW, ATLANTA GA 30318",
        "status": "Accepted",
        "date": "07/29/2026",
        "description": null,
        "owner": null,
        "tree_dbh": null,
        "tree_location": null,
        "reason_removal": null,
        "tree_description": null,
        "tree_number": null,
        "species": null
      },
      "geometry": {
        "type": "Point",
        "coordinates": [
          -84.413537082976,
          33.79699978322
        ]
      }
    },
    {
      "type": "Feature",
      "properties": {
        "record": "BA-202603596",
        "address": "966 WALKER AVE SE, ATLANTA GA 30316",
        "status": "ACA Pending",
        "date": "07/29/2026",
        "description": null,
        "owner": "BRUNSON COURTNEY",
        "tree_dbh": "33",
        "tree_location": "back center right now",
        "reason_removal": "Dead tree",
        "tree_description": "33 inch dead poplar in back center leftReason for Removal:Dead tree\n\t\t\n\t\n\t\n                                \n                            \n                        \n                    \n                        \n                            \n                                \n                                    \n                                        \n                                         Parcel Information\n                                \n                            \n                            \n                                \n                                    \n\t\tParcel Number:14 00100005019 *Block:--Lot:--Subdivision:--",
        "tree_number": "1",
        "species": "poplar"
      },
      "geometry": {
        "type": "Point",
        "coordinates": [
          -84.359431842588,
          33.728410940187
        ]
      }
    },
    {
      "type": "Feature",
      "properties": {
        "record": "BA-202603590",
        "address": "737 PARK DR NE, ATLANTA GA 30306",
        "status": "ACA Pending",
        "date": "07/29/2026",
        "description": null,
        "owner": "Bill Vann",
        "tree_dbh": "19",
        "tree_location": "Front left corner of home",
        "reason_removal": "Significant cavity/area of decay",
        "tree_description": "prior improper electrical and house clearance pruning poor form and lean, decay in trunk and missing bark on major leaderReason for Removal:Significant cavity/area of decayComments:Orange paint\n\t\t\n\t\t\n\t\t\tTree number:2Species:LigustrumTree Size (DBH):13Tree location:Left side of houseDescription of Tree:UndesirableReason for Removal:Invasive/undesirable treeComments:Orange paint\n\t\t\n\t\t\n\t\t\tTree number:3Species:ElmTree Size (DBH):14Tree location:Left side of houseDescription of Tree:prior improper electrical and house clearance pruning poor form and lean, missing large sections of canopyReason for Removal:Uncorrectable defectComments:Orange paint\n\t\t\n\t\t\n\t\t\tTree number:4Species:Water OakTree Size (DBH):10Tree location:Left side of houseDescription of Tree:prior improper electrical and house clearance pruning poor form and lean, decay in trunk",
        "tree_number": "1",
        "species": "Elm"
      },
      "geometry": {
        "type": "Point",
        "coordinates": [
          -84.363604138984,
          33.782815711629
        ]
      }
    },
    {
      "type": "Feature",
      "properties": {
        "record": "BA-202603588",
        "address": "2868 ALPINE RD NE, ATLANTA GA 30305",
        "status": "Accepted",
        "date": "07/29/2026",
        "description": null,
        "owner": "Paul Atkins",
        "tree_dbh": "10",
        "tree_location": "Left side of backyard",
        "reason_removal": "Uncorrectable defect",
        "tree_description": "Extensive root damage when previous owner built retaining wallReason for Removal:Uncorrectable defect\n\t\t\n\t\n\t\n                                \n                            \n                        \n                    \n                        \n                            \n                                \n                                    \n                                        \n                                         Parcel Information\n                                \n                            \n                            \n                                \n                                    \n\t\tParcel Number:17 00600007075 *Block:--Lot:--Subdivision:--",
        "tree_number": "1",
        "species": "Persimmon"
      },
      "geometry": {
        "type": "Point",
        "coordinates": [
          -84.370424603664,
          33.832901833913
        ]
      }
    },
    {
      "type": "Feature",
      "properties": {
        "record": "BA-202603584",
        "address": "349 ELMIRA PL NE, ATLANTA GA 30307",
        "status": "Accepted",
        "date": "07/29/2026",
        "description": null,
        "owner": "Karibe Haynes",
        "tree_dbh": "12",
        "tree_location": "Left side front yard",
        "reason_removal": "Invasive/undesirable tree",
        "tree_description": "UndesirableReason for Removal:Invasive/undesirable tree\n\t\t\n\t\n\t\n                                \n                            \n                        \n                    \n                        \n                            \n                                \n                                    \n                                        \n                                         Parcel Information\n                                \n                            \n                            \n                                \n                                    \n\t\tParcel Number:15 209 04 111 *Block:--Lot:--Subdivision:--",
        "tree_number": "1",
        "species": "Cherry Laurel"
      },
      "geometry": {
        "type": "Point",
        "coordinates": [
          -84.346800068045,
          33.763877317744
        ]
      }
    },
    {
      "type": "Feature",
      "properties": {
        "record": "BA-202603597",
        "address": "1125 ANGELO CT NE, ATLANTA GA 30319",
        "status": "ACA Pending",
        "date": "07/29/2026",
        "description": null,
        "owner": null,
        "tree_dbh": null,
        "tree_location": null,
        "reason_removal": null,
        "tree_description": null,
        "tree_number": null,
        "species": null
      },
      "geometry": {
        "type": "Point",
        "coordinates": [
          -84.35093072803,
          33.881254704533
        ]
      }
    },
    {
      "type": "Feature",
      "properties": {
        "record": "BA-202603574",
        "address": "2208 BOHLER RD NW, 17, ATLANTA GA 30327",
        "status": "Accepted",
        "date": "07/29/2026",
        "description": null,
        "owner": "TALLY NINA S",
        "tree_dbh": "16",
        "tree_location": "left side of home",
        "reason_removal": "Other",
        "tree_description": "2208 Bohler left side of home- One 16\" leaning pineReason for Removal:OtherComments:2208 Bohler left side of home- One 16\" leaning pine\n\t\t\n\t\n\t\n                                \n                            \n                        \n                    \n                        \n                            \n                                \n                                    \n                                        \n                                         Parcel Information\n                                \n                            \n                            \n                                \n                                    \n\t\tParcel Number:17 01940001078 *Block:--Lot:--Subdivision:--",
        "tree_number": "1",
        "species": "pine"
      },
      "geometry": {
        "type": "Point",
        "coordinates": [
          -84.429095878857,
          33.815671713505
        ]
      }
    },
    {
      "type": "Feature",
      "properties": {
        "record": "26TMP-049297",
        "address": "989 EISENHOWER RD SE, ATLANTA GA 30354",
        "status": "",
        "date": "07/29/2026",
        "description": null,
        "owner": null,
        "tree_dbh": null,
        "tree_location": null,
        "reason_removal": null,
        "tree_description": null,
        "tree_number": null,
        "species": null
      },
      "geometry": {
        "type": "Point",
        "coordinates": [
          -84.357140750079,
          33.65659480711
        ]
      }
    },
    {
      "type": "Feature",
      "properties": {
        "record": "BA-202603577",
        "address": "3144 TOWERVIEW DR NE, ATLANTA GA 30324",
        "status": "Accepted",
        "date": "07/29/2026",
        "description": null,
        "owner": null,
        "tree_dbh": null,
        "tree_location": null,
        "reason_removal": null,
        "tree_description": null,
        "tree_number": null,
        "species": null
      },
      "geometry": {
        "type": "Point",
        "coordinates": [
          -84.352940910773,
          33.840027403473
        ]
      }
    },
    {
      "type": "Feature",
      "properties": {
        "record": "BA-202603581",
        "address": "270 ELMIRA PL NE, ATLANTA GA 00000",
        "status": "Accepted",
        "date": "07/29/2026",
        "description": null,
        "owner": "Karibe Haynes",
        "tree_dbh": "18",
        "tree_location": "Rear left corner of house",
        "reason_removal": "Invasive/undesirable tree",
        "tree_description": "UndesirableReason for Removal:Invasive/undesirable tree\n\t\t\n\t\n\t\n                                \n                            \n                        \n                    \n                        \n                            \n                                \n                                    \n                                        \n                                         Parcel Information\n                                \n                            \n                            \n                                \n                                    \n\t\tParcel Number:15 209 04 202 *Block:--Lot:--Subdivision:--",
        "tree_number": "1",
        "species": "Multi-Stem Cherry Laurel"
      },
      "geometry": {
        "type": "Point",
        "coordinates": [
          -84.346955130009,
          33.762306775556
        ]
      }
    },
    {
      "type": "Feature",
      "properties": {
        "record": "BA-202603576",
        "address": "386 SINCLAIR AVE NE, ATLANTA GA 30307",
        "status": "Accepted",
        "date": "07/29/2026",
        "description": null,
        "owner": "Kurt Wenner",
        "tree_dbh": "18",
        "tree_location": "Left side of backyard, resting on houses",
        "reason_removal": "Other",
        "tree_description": "FallenReason for Removal:Other\n\t\t\n\t\n\t\n                                \n                            \n                        \n                    \n                        \n                            \n                                \n                                    \n                                        \n                                         Parcel Information\n                                \n                            \n                            \n                                \n                                    \n\t\tParcel Number:14 00150010014 *Block:--Lot:--Subdivision:--",
        "tree_number": "1",
        "species": "Pecan"
      },
      "geometry": {
        "type": "Point",
        "coordinates": [
          -84.353358529606,
          33.764867164189
        ]
      }
    },
    {
      "type": "Feature",
      "properties": {
        "record": "BA-202603575",
        "address": "2101 OLD GEORGIAN TER, ATLANTA GA 00000",
        "status": "Accepted",
        "date": "07/29/2026",
        "description": null,
        "owner": "Frahana Zaman",
        "tree_dbh": "14",
        "tree_location": "Back right corner",
        "reason_removal": "Invasive/undesirable tree",
        "tree_description": "UndesirableReason for Removal:Invasive/undesirable treeComments:Pink ribbon\n\t\t\n\t\n\t\n                                \n                            \n                        \n                    \n                        \n                            \n                                \n                                    \n                                        \n                                         Parcel Information\n                                \n                            \n                            \n                                \n                                    \n\t\tParcel Number:17 0256  LL038 *Block:--Lot:--Subdivision:--",
        "tree_number": "1",
        "species": "Leyland Cypress"
      },
      "geometry": {
        "type": "Point",
        "coordinates": [
          -84.481470402229,
          33.812881313922
        ]
      }
    },
    {
      "type": "Feature",
      "properties": {
        "record": "BA-202603582",
        "address": "14 VERNON RD NW, ATLANTA GA 30305",
        "status": "Accepted",
        "date": "07/29/2026",
        "description": null,
        "owner": "WOOD ZAIDA C",
        "tree_dbh": "15",
        "tree_location": "front right",
        "reason_removal": "Dying tree",
        "tree_description": "Vascular disease in the main trunk. Canopy die back greater than 30%.Reason for Removal:Dying tree\n\t\t\n\t\n\t\n                                \n                            \n                        \n                    \n                        \n                            \n                                \n                                    \n                                        \n                                         Parcel Information\n                                \n                            \n                            \n                                \n                                    \n\t\tParcel Number:17 01130006019 *Block:--Lot:--Subdivision:--",
        "tree_number": "1",
        "species": "Hemlock"
      },
      "geometry": {
        "type": "Point",
        "coordinates": [
          -84.390734376282,
          33.828716498397
        ]
      }
    },
    {
      "type": "Feature",
      "properties": {
        "record": "BA-202603591",
        "address": "1652 FLAT SHOALS RD SE, ATLANTA GA 30316",
        "status": "ACA Pending",
        "date": "07/29/2026",
        "description": null,
        "owner": "Darnell Harris",
        "tree_dbh": "150",
        "tree_location": "front yard",
        "reason_removal": "Dying tree",
        "tree_description": "old water oak. had some limbs that were hanging over the house removed back in February. In July, we had a huge limb that was hanging over the driveway fall on one of our vehicles.Reason for Removal:Dying tree\n\t\t\n\t\n\t\n                                \n                            \n                        \n                    \n                        \n                            \n                                \n                                    \n                                        \n                                         Parcel Information\n                                \n                            \n                            \n                                \n                                    \n\t\tParcel Number:15 146 10 030 *Block:--Lot:--Subdivision:--",
        "tree_number": "1",
        "species": "water oak?"
      },
      "geometry": {
        "type": "Point",
        "coordinates": [
          -84.333656854371,
          33.730810396261
        ]
      }
    },
    {
      "type": "Feature",
      "properties": {
        "record": "BA-202603593",
        "address": "740 BONNIE BRAE AVE SW, ATLANTA GA 30310",
        "status": "ACA Pending",
        "date": "07/29/2026",
        "description": null,
        "owner": "DEUTSCHE BANK NATIONAL TRUST COMPANY TRUSTEE",
        "tree_dbh": "42",
        "tree_location": "back right",
        "reason_removal": "Diseased",
        "tree_description": "42” DBH Water Oak located off the back right corner of the home.\n-This trees main flair has suffered canopy dieback for 50% of the canopy. Major dead structural leaders are over the home.\n-This tree has an infestation of ambrosia beetles.\n-High Risk.Reason for Removal:Diseased\n\t\t\n\t\n\t\n                                \n                            \n                        \n                    \n                        \n                            \n                                \n                                    \n                                        \n                                         Parcel Information\n                                \n                            \n                            \n                                \n                                    \n\t\tParcel Number:14 01060003009 *Block:--Lot:--Subdivision:--",
        "tree_number": "1",
        "species": "oak"
      },
      "geometry": {
        "type": "Point",
        "coordinates": [
          -84.412697174968,
          33.730205986107
        ]
      }
    },
    {
      "type": "Feature",
      "properties": {
        "record": "BA-202603579",
        "address": "1095 ROSEWOOD DR NE, ATLANTA GA 30306",
        "status": "Accepted",
        "date": "07/29/2026",
        "description": null,
        "owner": "Brit Gordon",
        "tree_dbh": "44",
        "tree_location": "Left Side of House/Backyard",
        "reason_removal": "Dying tree",
        "tree_description": "Fungal Fruiting Bodies at Base (Armillaria), Greater than 30% Canopy Die-BackReason for Removal:Dying tree\n\t\t\n\t\n\t\n                                \n                            \n                        \n                    \n                        \n                            \n                                \n                                    \n                                        \n                                         Parcel Information\n                                \n                            \n                            \n                                \n                                    \n\t\tParcel Number:17 00010004018 *Block:--Lot:--Subdivision:--",
        "tree_number": "1",
        "species": "Water Oak"
      },
      "geometry": {
        "type": "Point",
        "coordinates": [
          -84.351201026978,
          33.785724577162
        ]
      }
    },
    {
      "type": "Feature",
      "properties": {
        "record": "BA-202603594",
        "address": "1810 GIBEN RD SW, ATLANTA GA 30315",
        "status": "ACA Pending",
        "date": "07/29/2026",
        "description": null,
        "owner": null,
        "tree_dbh": "6",
        "tree_location": "backyard",
        "reason_removal": "Diseased",
        "tree_description": null,
        "tree_number": "1",
        "species": "oak"
      },
      "geometry": {
        "type": "Point",
        "coordinates": [
          -84.400359803394,
          33.706942106576
        ]
      }
    },
    {
      "type": "Feature",
      "properties": {
        "record": "BA-202603573",
        "address": "2216 BOHLER RD NW, 13, ATLANTA GA 30327",
        "status": "Accepted",
        "date": "07/29/2026",
        "description": null,
        "owner": "DAVIDSON CHRISTY K",
        "tree_dbh": "30",
        "tree_location": "behind home",
        "reason_removal": "Dead tree",
        "tree_description": "2216 Bohler behind home- One dead 30\" codominant PinReason for Removal:Dead treeComments:2216 Bohler behind home- One dead 30\" codominant Pin\n\t\t\n\t\n\t\n                                \n                            \n                        \n                    \n                        \n                            \n                                \n                                    \n                                        \n                                         Parcel Information\n                                \n                            \n                            \n                                \n                                    \n\t\tParcel Number:17 01940001074 *Block:--Lot:--Subdivision:--",
        "tree_number": "1",
        "species": "pine"
      },
      "geometry": {
        "type": "Point",
        "coordinates": [
          -84.429199264729,
          33.815718845308
        ]
      }
    },
    {
      "type": "Feature",
      "properties": {
        "record": "BA-202603599",
        "address": "45 JAMES P BRAWLEY DR NW, ATLANTA GA 30314",
        "status": "ACA Pending",
        "date": "07/29/2026",
        "description": null,
        "owner": null,
        "tree_dbh": "27",
        "tree_location": "Northeast corner of property",
        "reason_removal": "Dying tree",
        "tree_description": null,
        "tree_number": "6",
        "species": "Hackberry"
      },
      "geometry": {
        "type": "Point",
        "coordinates": [
          -84.412685938661,
          33.755717099992
        ]
      }
    },
    {
      "type": "Feature",
      "properties": {
        "record": "BA-202603578",
        "address": "1900 DEKALB AVE NE, ATLANTA GA 30307",
        "status": "Accepted",
        "date": "07/29/2026",
        "description": null,
        "owner": "Lake Claire Pool Club",
        "tree_dbh": "36",
        "tree_location": "Southwest corner of property",
        "reason_removal": "Significant cavity/area of decay",
        "tree_description": "Greater than 30% Canopy Die-Back/Decay at the BaseReason for Removal:Significant cavity/area of decay\n\t\t\n\t\n\t\n                                \n                            \n                        \n                    \n                        \n                            \n                                \n                                    \n                                        \n                                         Parcel Information\n                                \n                            \n                            \n                                \n                                    \n\t\tParcel Number:15 211 04 083 *Block:--Lot:--Subdivision:--",
        "tree_number": "1",
        "species": "Water Oak"
      },
      "geometry": {
        "type": "Point",
        "coordinates": [
          -84.324124503877,
          33.760671244607
        ]
      }
    },
    {
      "type": "Feature",
      "properties": {
        "record": "BA-202603589",
        "address": "900 WEST WESLEY RD NW, ATLANTA GA 30327",
        "status": "Issued",
        "date": "07/29/2026",
        "description": null,
        "owner": "CROSIER ASHLEY M",
        "tree_dbh": "26",
        "tree_location": "Left front corner of house",
        "reason_removal": "Uncorrectable defect",
        "tree_description": "Trunk split out during last nights storm, leaning towards to high occupancy targets Reason for Removal:Uncorrectable defectComments:This tree is actively failing\n\t\t\n\t\n\t\n                                \n                            \n                        \n                    \n                        \n                            \n                                \n                                    \n                                        \n                                         Parcel Information\n                                \n                            \n                            \n                                \n                                    \n\t\tParcel Number:17 01840001007 *Block:--Lot:--Subdivision:--",
        "tree_number": "1",
        "species": "Mulberry"
      },
      "geometry": {
        "type": "Point",
        "coordinates": [
          -84.416759535511,
          33.828646451388
        ]
      }
    },
    {
      "type": "Feature",
      "properties": {
        "record": "BA-202603580",
        "address": "115 ESTORIA ST SE, ATLANTA GA 30316",
        "status": "Accepted",
        "date": "07/29/2026",
        "description": null,
        "owner": "BLANKENSHIP DANIEL H",
        "tree_dbh": "44",
        "tree_location": "Front left corner of property",
        "reason_removal": "Significant cavity/area of decay",
        "tree_description": "Decay at the base/Fungal Fruiting BodiesReason for Removal:Significant cavity/area of decay\n\t\t\n\t\n\t\n                                \n                            \n                        \n                    \n                        \n                            \n                                \n                                    \n                                        \n                                         Parcel Information\n                                \n                            \n                            \n                                \n                                    \n\t\tParcel Number:14 00200006030 *Block:--Lot:--Subdivision:--",
        "tree_number": "1",
        "species": "Water Oak"
      },
      "geometry": {
        "type": "Point",
        "coordinates": [
          -84.36338172883,
          33.750799880578
        ]
      }
    },
    {
      "type": "Feature",
      "properties": {
        "record": "BA-202603595",
        "address": "25 BOWEN AVE SE, ATLANTA GA 30315",
        "status": "Accepted",
        "date": "07/29/2026",
        "description": "request for inspection of two trees to see if they need to be pruned or removed under the Sr Assistance program (initiated by neighbor on left who has limbs hanging over the house).",
        "owner": null,
        "tree_dbh": "36",
        "tree_location": "rear left",
        "reason_removal": "Dying tree",
        "tree_description": "large tree that has dropped some limbs - neighbor is concerned that it needs to be pruned and Ms. Barbara would like to know if it needs to be pruned and would qualify for the low-income senior assistance program.Reason for Removal:Other\n\t\t\n\t\t\n\t\t\tTree number:2Species:oakTree Size (DBH):34Tree location:rear rightDescription of Tree:large tree seems to be dying.  Ms. Barbara would like to know if it qualifies for the senior assistance programReason for Removal:Dying tree\n\t\t\n\t\n\t\n                                \n                            \n                        \n                    \n                        \n                            \n                                \n                                    \n                                        \n                                         Parcel Information\n                                \n                            \n                            \n                                \n                                    \n\t\t0) Parcel Number:14 00570012009Block:--Lot:--Subdivision:--",
        "tree_number": "1",
        "species": "oak"
      },
      "geometry": {
        "type": "Point",
        "coordinates": [
          -84.382901306929,
          33.709849775823
        ]
      }
    },
    {
      "type": "Feature",
      "properties": {
        "record": "BA-202603585",
        "address": "1342 HILL ST SE, ATLANTA GA 30315",
        "status": "Accepted",
        "date": "07/29/2026",
        "description": "inspect two trees",
        "owner": null,
        "tree_dbh": "25",
        "tree_location": "back yard",
        "reason_removal": "Other",
        "tree_description": "wants to know if tree needs to be pruned or removed (low income sr assistance)Reason for Removal:Uncorrectable defectComments:please call so he can keep dogs inside\n\t\t\n\t\t\n\t\t\tTree number:2Species:mulberry Tree Size (DBH):35Tree location:back yardDescription of Tree:wants to know if tree needs to be pruned or removed (low income sr assistance)Reason for Removal:OtherComments:please call so he can keep dogs inside\n\t\t\n\t\n\t\n                                \n                            \n                        \n                    \n                        \n                            \n                                \n                                    \n                                        \n                                         Parcel Information\n                                \n                            \n                            \n                                \n                                    \n\t\t0) Parcel Number:14 00410006018Block:--Lot:--Subdivision:--",
        "tree_number": "1",
        "species": "magnolia"
      },
      "geometry": {
        "type": "Point",
        "coordinates": [
          -84.378712355859,
          33.718330819354
        ]
      }
    }
  ]
}