{
  "type": "FeatureCollection",
  "features": [
    {
      "type": "Feature",
      "properties": {
        "record": "BA-202603864",
        "address": "189 HALE ST NE, ATLANTA GA 30307",
        "status": "ACA Pending",
        "date": "08/11/2026",
        "description": null,
        "owner": "ASTIN MILLE C",
        "tree_dbh": "9",
        "tree_location": "front left",
        "reason_removal": "Dying tree",
        "tree_description": "The dogwood exhibits a 6-inch pocket of decay near the base of the trunk with severe dieback throughout the canopy, indicating advanced decline. The tree is located in extremely close proximity to overhead power lines and nearby structures. Based on the observed decay, declining condition, and location, removal is recommended to prevent further deterioration and avoid potential impacts to surrounding infrastructure.Reason for Removal:Dying tree\n\t\t\n\t\n\t\n                                \n                            \n                        \n                    \n                        \n                            \n                                \n                                    \n                                        \n                                         Parcel Information\n                                \n                            \n                            \n                                \n                                    \n\t\tParcel Number:14 00140004020 *Block:--Lot:--Subdivision:--",
        "tree_number": "1",
        "species": "dogwood"
      },
      "geometry": {
        "type": "Point",
        "coordinates": [
          -84.359259098199,
          33.759336703744
        ]
      }
    },
    {
      "type": "Feature",
      "properties": {
        "record": "BA-202603877",
        "address": "872 EUCLID AVE NE, ATLANTA GA 30307",
        "status": "ACA Pending",
        "date": "08/11/2026",
        "description": null,
        "owner": "STROMQUIST C ERIC",
        "tree_dbh": "40",
        "tree_location": "Backyard left",
        "reason_removal": "Significant cavity/area of decay",
        "tree_description": "Picture of treeReason for Removal:Significant cavity/area of decayComments: dead top - storm damaged and fallen later limb - Large decay hole on fence side of tree",
        "tree_number": "1",
        "species": "White Oak"
      },
      "geometry": {
        "type": "Point",
        "coordinates": [
          -84.3583994304,
          33.756825831756
        ]
      }
    },
    {
      "type": "Feature",
      "properties": {
        "record": "BA-202603900",
        "address": "447 ARGONNE DR NW, ATLANTA GA 30305",
        "status": "ACA Pending",
        "date": "08/11/2026",
        "description": null,
        "owner": null,
        "tree_dbh": null,
        "tree_location": null,
        "reason_removal": null,
        "tree_description": null,
        "tree_number": null,
        "species": null
      },
      "geometry": {
        "type": "Point",
        "coordinates": [
          -84.401920355422,
          33.835965294391
        ]
      }
    },
    {
      "type": "Feature",
      "properties": {
        "record": "BA-202603890",
        "address": "241 NACOOCHEE DR NW, ATLANTA GA 30305",
        "status": "ACA Pending",
        "date": "08/11/2026",
        "description": null,
        "owner": null,
        "tree_dbh": null,
        "tree_location": null,
        "reason_removal": null,
        "tree_description": null,
        "tree_number": null,
        "species": null
      },
      "geometry": {
        "type": "Point",
        "coordinates": [
          -84.394563171047,
          33.819616893383
        ]
      }
    },
    {
      "type": "Feature",
      "properties": {
        "record": "BA-202603867",
        "address": "53 EAST LAKE DR NE, ATLANTA GA 30317",
        "status": "ACA Pending",
        "date": "08/11/2026",
        "description": null,
        "owner": null,
        "tree_dbh": null,
        "tree_location": null,
        "reason_removal": null,
        "tree_description": null,
        "tree_number": null,
        "species": null
      },
      "geometry": {
        "type": "Point",
        "coordinates": [
          -84.301298692376,
          33.752772193613
        ]
      }
    },
    {
      "type": "Feature",
      "properties": {
        "record": "BA-202603862",
        "address": "2550 WOODWARD WAY NW, ATLANTA GA 30305",
        "status": "ACA Pending",
        "date": "08/11/2026",
        "description": null,
        "owner": null,
        "tree_dbh": null,
        "tree_location": null,
        "reason_removal": null,
        "tree_description": null,
        "tree_number": null,
        "species": null
      },
      "geometry": {
        "type": "Point",
        "coordinates": [
          -84.396108712483,
          33.824687493888
        ]
      }
    },
    {
      "type": "Feature",
      "properties": {
        "record": "BA-202603882",
        "address": "980 MORELAND AVE SE, ATLANTA GA 30316",
        "status": "ACA Pending",
        "date": "08/11/2026",
        "description": null,
        "owner": null,
        "tree_dbh": null,
        "tree_location": null,
        "reason_removal": null,
        "tree_description": null,
        "tree_number": null,
        "species": null
      },
      "geometry": {
        "type": "Point",
        "coordinates": [
          -84.34928990767,
          33.727631437483
        ]
      }
    },
    {
      "type": "Feature",
      "properties": {
        "record": "BA-202603889",
        "address": "836 MITCHELL ST SW, ATLANTA GA 30314",
        "status": "ACA Pending",
        "date": "08/11/2026",
        "description": null,
        "owner": null,
        "tree_dbh": null,
        "tree_location": null,
        "reason_removal": null,
        "tree_description": null,
        "tree_number": null,
        "species": null
      },
      "geometry": {
        "type": "Point",
        "coordinates": [
          -84.415000346104,
          33.753388555851
        ]
      }
    },
    {
      "type": "Feature",
      "properties": {
        "record": "BA-202603866",
        "address": "764 PEAVINE CREEK DR NE, ATLANTA GA",
        "status": "ACA Pending",
        "date": "08/11/2026",
        "description": null,
        "owner": null,
        "tree_dbh": null,
        "tree_location": null,
        "reason_removal": null,
        "tree_description": null,
        "tree_number": null,
        "species": null
      },
      "geometry": {
        "type": "Point",
        "coordinates": [
          -84.331724204411,
          33.797863631529
        ]
      }
    },
    {
      "type": "Feature",
      "properties": {
        "record": "26TMP-052539",
        "address": "4107 NORTH BROADLAND RD NW, ATLANTA GA 30342",
        "status": "",
        "date": "08/11/2026",
        "description": null,
        "owner": null,
        "tree_dbh": null,
        "tree_location": null,
        "reason_removal": null,
        "tree_description": null,
        "tree_number": null,
        "species": null
      },
      "geometry": {
        "type": "Point",
        "coordinates": [
          -84.402010536988,
          33.868333535574
        ]
      }
    },
    {
      "type": "Feature",
      "properties": {
        "record": "BA-202603901",
        "address": "3219 ROCKINGHAM DR NW, ATLANTA GA 30327",
        "status": "ACA Pending",
        "date": "08/11/2026",
        "description": null,
        "owner": null,
        "tree_dbh": "18",
        "tree_location": "rear left",
        "reason_removal": "Dying tree",
        "tree_description": "close proximity to home.",
        "tree_number": "1",
        "species": "poplar"
      },
      "geometry": {
        "type": "Point",
        "coordinates": [
          -84.41577029709,
          33.834212396181
        ]
      }
    },
    {
      "type": "Feature",
      "properties": {
        "record": "BA-202603899",
        "address": "1111 FERNCLIFF RD NE, ATLANTA GA 30324",
        "status": "ACA Pending",
        "date": "08/11/2026",
        "description": null,
        "owner": null,
        "tree_dbh": "73",
        "tree_location": "backyard",
        "reason_removal": "Diseased",
        "tree_description": "tall sweet gum with mushrooms, mold and disease, has 20 percent of its canopy and is almost all deadReason for Removal:Diseased\n\t\t\n\t\n\t\n                                \n                            \n                        \n                    \n                        \n                            \n                                \n                                    \n                                        \n                                         Parcel Information\n                                \n                            \n                            \n                                \n                                    \n\t\tParcel Number:17 00080006032 *Block:--Lot:--Subdivision:--",
        "tree_number": "1",
        "species": "sweet gum"
      },
      "geometry": {
        "type": "Point",
        "coordinates": [
          -84.350166940303,
          33.844440993144
        ]
      }
    },
    {
      "type": "Feature",
      "properties": {
        "record": "BA-202603898",
        "address": "138 KIRKWOOD RD NE, ATLANTA GA 30317",
        "status": "ACA Pending",
        "date": "08/11/2026",
        "description": null,
        "owner": "BOARD OF EDUCATION",
        "tree_dbh": "24",
        "tree_location": "Main Entrance Gate",
        "reason_removal": "Dead tree",
        "tree_description": null,
        "tree_number": "1",
        "species": "Elm"
      },
      "geometry": {
        "type": "Point",
        "coordinates": [
          -84.321786798882,
          33.755747089044
        ]
      }
    },
    {
      "type": "Feature",
      "properties": {
        "record": "BA-202603865",
        "address": "273 LAKEVIEW AVE NE, ATLANTA GA 30305",
        "status": "ACA Pending",
        "date": "08/11/2026",
        "description": null,
        "owner": null,
        "tree_dbh": null,
        "tree_location": null,
        "reason_removal": null,
        "tree_description": null,
        "tree_number": null,
        "species": null
      },
      "geometry": {
        "type": "Point",
        "coordinates": [
          -84.379098495982,
          33.824350540899
        ]
      }
    },
    {
      "type": "Feature",
      "properties": {
        "record": "BA-202603878",
        "address": "330 RALPH MCGILL BLVD NE, ATLANTA GA 30312",
        "status": "ACA Pending",
        "date": "08/11/2026",
        "description": null,
        "owner": "John M Johnson",
        "tree_dbh": "15",
        "tree_location": "Ralph McGill behind building 5",
        "reason_removal": "Diseased",
        "tree_description": "Specimens 331: Quercus small fruiting bodies at the root flair and heavy phototrophism towards the building.  The roots are encircled due to its proximity to the retaining wall.",
        "tree_number": "331",
        "species": "Oak"
      },
      "geometry": {
        "type": "Point",
        "coordinates": [
          -84.375180484981,
          33.764070092937
        ]
      }
    },
    {
      "type": "Feature",
      "properties": {
        "record": "BA-202603872",
        "address": "885 ROSEDALE RD NE, ATLANTA GA 30306",
        "status": "ACA Pending",
        "date": "08/11/2026",
        "description": null,
        "owner": null,
        "tree_dbh": null,
        "tree_location": null,
        "reason_removal": null,
        "tree_description": null,
        "tree_number": null,
        "species": null
      },
      "geometry": {
        "type": "Point",
        "coordinates": [
          -84.348301116468,
          33.778900126225
        ]
      }
    },
    {
      "type": "Feature",
      "properties": {
        "record": "BA-202603885",
        "address": "2970 TEJAS TRL SW, ATLANTA GA 30331",
        "status": "ACA Pending",
        "date": "08/11/2026",
        "description": null,
        "owner": "DEANE MILDRED",
        "tree_dbh": "50",
        "tree_location": "woods",
        "reason_removal": "Diseased",
        "tree_description": "The tree is leaning significantly over neighbor's driveway and houseReason for Removal:Uncorrectable defect\n\t\t\n\t\t\n\t\t\tTree number:2Species:Black CherryTree Size (DBH):50Tree location:woodsDescription of Tree:The tree is leaning significantly over neighbor's driveway and houseReason for Removal:Other\n\t\t\n\t\t\n\t\t\tTree number:3Species:White oakTree Size (DBH):60Tree location:woodsDescription of Tree:This poor tree is weakened by parasitic vinesReason for Removal:Diseased\n\t\t\n\t\n\t\n                                \n                            \n                        \n                    \n                        \n                            \n                                \n                                    \n                                        \n                                         Parcel Information\n                                \n                            \n                            \n                                \n                                    \n\t\tParcel Number:14 02280002030 *Block:--Lot:--Subdivision:--",
        "tree_number": "1",
        "species": "Black Cherry"
      },
      "geometry": {
        "type": "Point",
        "coordinates": [
          -84.490223829549,
          33.675353121732
        ]
      }
    },
    {
      "type": "Feature",
      "properties": {
        "record": "26TMP-052572",
        "address": "2801 CONNALLY DR SW, ATLANTA GA 30311",
        "status": "",
        "date": "08/11/2026",
        "description": null,
        "owner": null,
        "tree_dbh": null,
        "tree_location": null,
        "reason_removal": null,
        "tree_description": null,
        "tree_number": null,
        "species": null
      },
      "geometry": {
        "type": "Point",
        "coordinates": [
          -84.480059749244,
          33.694576400682
        ]
      }
    },
    {
      "type": "Feature",
      "properties": {
        "record": "BA-202603895",
        "address": "1062 EUCLID AVE NE, ATLANTA GA 30307",
        "status": "ACA Pending",
        "date": "08/11/2026",
        "description": null,
        "owner": null,
        "tree_dbh": "34",
        "tree_location": "Front corner of property adjacent to neighbor's driveway",
        "reason_removal": "Uncorrectable defect",
        "tree_description": "significant lean, uneven canopy due to adjacent tree crowdingReason for Removal:Uncorrectable defect\n\t\t\n\t\n\t\n                                \n                            \n                        \n                    \n                        \n                            \n                                \n                                    \n                                        \n                                         Parcel Information\n                                \n                            \n                            \n                                \n                                    \n\t\tParcel Number:14 00150012028 *Block:--Lot:--Subdivision:--",
        "tree_number": "30",
        "species": "Water Oak"
      },
      "geometry": {
        "type": "Point",
        "coordinates": [
          -84.352560078646,
          33.762897651833
        ]
      }
    },
    {
      "type": "Feature",
      "properties": {
        "record": "BA-202603863",
        "address": "4045 PEACHTREE DUNWOODY RD NE, ATLANTA GA 30342",
        "status": "ACA Pending",
        "date": "08/11/2026",
        "description": null,
        "owner": "Whit Ferguson",
        "tree_dbh": "21",
        "tree_location": "Back right driveway",
        "reason_removal": "Significant cavity/area of decay",
        "tree_description": "Sweetgum with significant basal cavityReason for Removal:Significant cavity/area of decay\n\t\t\n\t\n\t\n                                \n                            \n                        \n                    \n                        \n                            \n                                \n                                    \n                                        \n                                         Parcel Information\n                                \n                            \n                            \n                                \n                                    \n\t\tParcel Number:17 00110001016 *Block:--Lot:--Subdivision:--",
        "tree_number": "1",
        "species": "Sweetgum"
      },
      "geometry": {
        "type": "Point",
        "coordinates": [
          -84.357850372749,
          33.865707147909
        ]
      }
    },
    {
      "type": "Feature",
      "properties": {
        "record": "BA-202603893",
        "address": "1193 MARTIN L KING JR DR SW, ATLANTA GA 30314",
        "status": "ACA Pending",
        "date": "08/11/2026",
        "description": null,
        "owner": "Jason Lewis",
        "tree_dbh": "26",
        "tree_location": "GA Registered Site Survey",
        "reason_removal": "Other",
        "tree_description": "Large mature 26-inch DBH pine located immediately adjacent to the residence and active construction area. Upper canopy exhibits significant deadwood and crown decline, including multiple large dead/bare limbs. Due to the tree's substantial height and close proximity to the residence, failure of the tree or major limbs presents a direct hazard to the structure and active construction area.Reason for Removal:Uncorrectable defectComments:Tree #6 corresponds to Tree #6 on the GA Registered Site Survey submitted with the property's approved site plan. The property was previously inspected for DDH conditions under permits BA-202505953 and BA-202506058. Construction is now underway and the residence and active work area are within the potential failure zone of this large pine. Applicant requests City Arborist inspection based on the tree's current condition and documented upper-canopy deadwood/decline.\n\t\t\n\t\t\n\t\t\tTree number:16Species:OAKTree Size (DBH):18Tree location:GA Registered Site Survey – Adjacent PropertyDescription of Tree:18-inch DBH oak located immediately adjacent to the subject property. Tree has experienced significant structural failure involving major limbs/leader(s), leaving a large fractured and exposed failure point. Failed portions have already fallen approximately 10 feet into the subject property. Remaining tree structure presents concern for additional failure toward the residence and active construction area.Reason for Removal:Uncorrectable defectComments:Tree #16 corresponds to Tree #16 on the GA Registered Site Survey and was originally designated \"NO IMPACT.\" Since the prior site assessment, the tree has experienced significant structural failure. Multiple large limbs have broken and fallen approximately 10 feet east into the subject property. Photographs document the existing fracture/failure and resulting condition. Applicant requests City Arborist inspection and determination of appropriate removal or mitigation due to the documented structural failure and risk of additional failure toward the residence.\n\t\t\n\t\t\n\t\t\tTree number:15Species:OAKTree Size (DBH):16Tree location:GA Registered Site SurveyDescription of Tree:16-inch DBH oak located immediately adjacent to the residence within the active construction and required drainage/grading area. Corrective grading is required to establish positive drainage away from the residence. Necessary grading within the tree's root zone raises concern regarding root disturbance and the tree's continued structural stability due to its height and close proximity to the residence.Reason for Removal:OtherComments:Tree #15 corresponds to Tree #15 on the GA Registered Site Survey and was originally designated \"NO IMPACT.\" Since construction commenced, required site grading and drainage conditions have become apparent. Corrective grading is necessary to direct water away from the residence and will affect the tree's root zone. Applicant requests City Arborist inspection to determine whether the required grading/root-zone impacts make retention of this tree unsafe adjacent to the residence.\n\t\t\n\t\n\t\n                                \n                            \n                        \n                    \n                        \n                            \n                                \n                                    \n                                        \n                                         Parcel Information\n                                \n                            \n                            \n                                \n                                    \n\t\tParcel Number:14 01410003095 *Block:--Lot:--Subdivision:--",
        "tree_number": "6",
        "species": "PINE"
      },
      "geometry": {
        "type": "Point",
        "coordinates": [
          -84.426419897356,
          33.75356079974
        ]
      }
    },
    {
      "type": "Feature",
      "properties": {
        "record": "BA-202603884",
        "address": "1730 MELROSE DR SW, ATLANTA GA 30310",
        "status": "ACA Pending",
        "date": "08/11/2026",
        "description": null,
        "owner": "Cristina Nichols",
        "tree_dbh": "30",
        "tree_location": "Back right",
        "reason_removal": "Uncorrectable defect",
        "tree_description": "Undesirable, poor healthReason for Removal:Uncorrectable defectComments:Pink ribbon",
        "tree_number": "1",
        "species": "Ailanthus"
      },
      "geometry": {
        "type": "Point",
        "coordinates": [
          -84.420605583299,
          33.707678294822
        ]
      }
    },
    {
      "type": "Feature",
      "properties": {
        "record": "BA-202603875",
        "address": "633 DARLINGTON CIR NE, ATLANTA GA 30305",
        "status": "ACA Pending",
        "date": "08/11/2026",
        "description": null,
        "owner": null,
        "tree_dbh": "45",
        "tree_location": "backyard",
        "reason_removal": "Significant cavity/area of decay",
        "tree_description": "45\" diameter at back of house. Resistograph readings indicate significant cavity of decay at bifurcation approx. 20 feet up main stem.Reason for Removal:Significant cavity/area of decay\n\t\t\n\t\n\t\n                                \n                            \n                        \n                    \n                        \n                            \n                                \n                                    \n                                        \n                                         Parcel Information\n                                \n                            \n                            \n                                \n                                    \n\t\tParcel Number:17 00470002057 *Block:--Lot:--Subdivision:--",
        "tree_number": "1",
        "species": "water oak"
      },
      "geometry": {
        "type": "Point",
        "coordinates": [
          -84.36608293882,
          33.832142473977
        ]
      }
    },
    {
      "type": "Feature",
      "properties": {
        "record": "BA-202603896",
        "address": "4615 ANGELO DR NE, ATLANTA GA 30319",
        "status": "ACA Pending",
        "date": "08/11/2026",
        "description": null,
        "owner": null,
        "tree_dbh": "8",
        "tree_location": "left side of drive",
        "reason_removal": "Other",
        "tree_description": "8\" Dogwood, front right of driveway, leaning, base and trunk covered in kudzu and ivyReason for Removal:OtherComments:8\" Dogwood, front right of driveway, leaning, base and trunk covered in kudzu and ivy\n\t\t\n\t\t\n\t\t\tTree number:2Species:DogwoodTree Size (DBH):8Tree location:front right of driveDescription of Tree:8\" Dogwood, front right of driveway, leaning, base and trunk covered in kudzu and ivyReason for Removal:OtherComments:8\" Dogwood, front right of driveway, leaning, base and trunk covered in kudzu and ivy\n\t\t\n\t\t\n\t\t\tTree number:3Species:Japanese MagnoliaTree Size (DBH):8Tree location:left side of driveDescription of Tree:8\" 2 trunk, Japanese Magnolia, left side of drive, within 1 ft of foundationReason for Removal:OtherComments:8\" 2 trunk, Japanese Magnolia, left side of drive, within 1 ft of foundation\n\t\t\n\t\n\t\n                                \n                            \n                        \n                    \n                        \n                            \n                                \n                                    \n                                        \n                                         Parcel Information\n                                \n                            \n                            \n                                \n                                    \n\t\tParcel Number:17 00130003001 *Block:--Lot:--Subdivision:--",
        "tree_number": "1",
        "species": "Dogwood"
      },
      "geometry": {
        "type": "Point",
        "coordinates": [
          -84.351539449562,
          33.880225605522
        ]
      }
    },
    {
      "type": "Feature",
      "properties": {
        "record": "BA-202603883",
        "address": "350 PEACHTREE AVE NE, ATLANTA GA 30305",
        "status": "ACA Pending",
        "date": "08/11/2026",
        "description": null,
        "owner": "SANCHEZ PERDOMO YEINY",
        "tree_dbh": "26",
        "tree_location": "next to the house, behind some bushes",
        "reason_removal": "Invasive/undesirable tree",
        "tree_description": null,
        "tree_number": "1",
        "species": "oak tree"
      },
      "geometry": {
        "type": "Point",
        "coordinates": [
          -84.375984340798,
          33.834972180897
        ]
      }
    },
    {
      "type": "Feature",
      "properties": {
        "record": "BA-202603892",
        "address": "1034 EUCLID AVE NE, ATLANTA GA 30307",
        "status": "ACA Pending",
        "date": "08/11/2026",
        "description": null,
        "owner": null,
        "tree_dbh": "24",
        "tree_location": "Corner of Property at intersection of Austin and Euclid",
        "reason_removal": "Dying tree",
        "tree_description": null,
        "tree_number": "119",
        "species": "Dogwood"
      },
      "geometry": {
        "type": "Point",
        "coordinates": [
          -84.353283679866,
          33.762337985851
        ]
      }
    },
    {
      "type": "Feature",
      "properties": {
        "record": "BA-202603897",
        "address": "1083 EUCLID AVE NE, ATLANTA GA 30307",
        "status": "ACA Pending",
        "date": "08/11/2026",
        "description": null,
        "owner": null,
        "tree_dbh": "16",
        "tree_location": "Front of property behind sidewalk",
        "reason_removal": "Dying tree",
        "tree_description": "Undesirable species, heavy utility pruning causing significant canopy and branching lossReason for Removal:Invasive/undesirable tree\n\t\t\n\t\t\n\t\t\tTree number:98Species:Crape MyrtleTree Size (DBH):11Tree location:Front of property behind sidewalkDescription of Tree:Heavy utility pruning, significant loss of canopy and branching, significant vine damageReason for Removal:Dying tree\n\t\t\n\t\t\n\t\t\tTree number:99Species:CherryTree Size (DBH):34Tree location:Front of property behind sidewalkDescription of Tree:Heavy utility pruning causing large canopy and branching loss, significant vine damage, loss of bark, weak V co-dominant trunkReason for Removal:Dying tree\n\t\t\n\t\n\t\n                                \n                            \n                        \n                    \n                        \n                            \n                                \n                                    \n                                        \n                                         Parcel Information\n                                \n                            \n                            \n                                \n                                    \n\t\tParcel Number:14 00150013068 *Block:--Lot:--Subdivision:--",
        "tree_number": "96",
        "species": "Bradford Pear"
      },
      "geometry": {
        "type": "Point",
        "coordinates": [
          -84.349602343151,
          33.765021622995
        ]
      }
    },
    {
      "type": "Feature",
      "properties": {
        "record": "BA-202603887",
        "address": "241 NACOOCHEE DR NW, ATLANTA GA 30305",
        "status": "ACA Pending",
        "date": "08/11/2026",
        "description": null,
        "owner": "John Wiley",
        "tree_dbh": "18",
        "tree_location": "Rear yard",
        "reason_removal": "Dying tree",
        "tree_description": "Tree is a hickory tree located near neighbors property line and leaning towards their structures. The tree is approximately 40-50 ft tall. Reason for Removal:Dying tree\n\t\t\n\t\n\t\n                                \n                            \n                        \n                    \n                        \n                            \n                                \n                                    \n                                        \n                                         Parcel Information\n                                \n                            \n                            \n                                \n                                    \n\t\tParcel Number:17 01110001009 *Block:--Lot:--Subdivision:--",
        "tree_number": "1",
        "species": "Hickory"
      },
      "geometry": {
        "type": "Point",
        "coordinates": [
          -84.394563171047,
          33.819616893383
        ]
      }
    },
    {
      "type": "Feature",
      "properties": {
        "record": "BA-202603869",
        "address": "39 PLANTATION DR NE, ATLANTA GA 30324",
        "status": "ACA Pending",
        "date": "08/11/2026",
        "description": null,
        "owner": "Madison Main",
        "tree_dbh": "12",
        "tree_location": "Private Property",
        "reason_removal": "Uncorrectable defect",
        "tree_description": "Tree has a severe lean. Not sure when the lean was developed, but I am concerned the tree may fail and cause property damage.Reason for Removal:Uncorrectable defect\n\t\t\n\t\n\t\n                                \n                            \n                        \n                    \n                        \n                            \n                                \n                                    \n                                        \n                                         Parcel Information\n                                \n                            \n                            \n                                \n                                    \n\t\tParcel Number:17 00080013006 *Block:--Lot:--Subdivision:--",
        "tree_number": "1",
        "species": "Honey locust"
      },
      "geometry": {
        "type": "Point",
        "coordinates": [
          -84.353854329338,
          33.837208329264
        ]
      }
    },
    {
      "type": "Feature",
      "properties": {
        "record": "BA-202603873",
        "address": "502 ATWOOD ST SW, ATLANTA GA 30310",
        "status": "ACA Pending",
        "date": "08/11/2026",
        "description": null,
        "owner": "Robert Porterfield",
        "tree_dbh": "23",
        "tree_location": "Backyard",
        "reason_removal": "Uncorrectable defect",
        "tree_description": "mechanical damage to cambium from skid steerReason for Removal:Uncorrectable defectComments:Orange paint\n\t\t\n\t\n\t\n                                \n                            \n                        \n                    \n                        \n                            \n                                \n                                    \n                                        \n                                         Parcel Information\n                                \n                            \n                            \n                                \n                                    \n\t\tParcel Number:14 01400009055 *Block:--Lot:--Subdivision:--",
        "tree_number": "1",
        "species": "Winged Elm"
      },
      "geometry": {
        "type": "Point",
        "coordinates": [
          -84.42882372657,
          33.741121777232
        ]
      }
    },
    {
      "type": "Feature",
      "properties": {
        "record": "BA-202603888",
        "address": "1643 RALPH D ABERNATHY BLVD SW, ATLANTA GA 00000",
        "status": "ACA Pending",
        "date": "08/11/2026",
        "description": null,
        "owner": "Michelle Fox",
        "tree_dbh": "999999",
        "tree_location": "backyard, back corner of the property, near property line with 1649",
        "reason_removal": "Dead tree",
        "tree_description": null,
        "tree_number": "1",
        "species": "unknown"
      },
      "geometry": {
        "type": "Point",
        "coordinates": [
          -84.44112317262,
          33.746774702691
        ]
      }
    },
    {
      "type": "Feature",
      "properties": {
        "record": "BA-202603874",
        "address": "484 GLEN IRIS DR NE, ATLANTA GA 30308",
        "status": "ACA Pending",
        "date": "08/11/2026",
        "description": null,
        "owner": "Lukas Graber",
        "tree_dbh": "20",
        "tree_location": "Rear-left corner of property",
        "reason_removal": "Uncorrectable defect",
        "tree_description": "Roots impacting client's sewerReason for Removal:Uncorrectable defect\n\t\t\n\t\t\n\t\t\tTree number:1Species:Water OakTree Size (DBH):48Tree location:Rear-left corner of propertyDescription of Tree:Significant canopy failureReason for Removal:Uncorrectable defect\n\t\t\n\t\n\t\n                                \n                            \n                        \n                    \n                        \n                            \n                                \n                                    \n                                        \n                                         Parcel Information\n                                \n                            \n                            \n                                \n                                    \n\t\tParcel Number:14 00470006023 *Block:--Lot:--Subdivision:--",
        "tree_number": "1",
        "species": "Water Oak"
      },
      "geometry": {
        "type": "Point",
        "coordinates": [
          -84.367816171938,
          33.76777858963
        ]
      }
    },
    {
      "type": "Feature",
      "properties": {
        "record": "BA-202603861",
        "address": "188 ELIZABETH ST NE, ATLANTA GA 30307",
        "status": "ACA Pending",
        "date": "08/11/2026",
        "description": null,
        "owner": "GRIST WILLIAM J",
        "tree_dbh": "15",
        "tree_location": "back yard",
        "reason_removal": "Dying tree",
        "tree_description": "Tree has not greened up. 80 ft tall 15-16 \" diameterReason for Removal:Dying tree\n\t\t\n\t\n\t\n                                \n                            \n                        \n                    \n                        \n                            \n                                \n                                    \n                                        \n                                         Parcel Information\n                                \n                            \n                            \n                                \n                                    \n\t\tParcel Number:14 00140006001 *Block:--Lot:--Subdivision:--",
        "tree_number": "15",
        "species": "oak"
      },
      "geometry": {
        "type": "Point",
        "coordinates": [
          -84.357522944091,
          33.759429496385
        ]
      }
    },
    {
      "type": "Feature",
      "properties": {
        "record": "BA-202603894",
        "address": "537 MCWILLIAMS RD SE, ATLANTA GA 30315",
        "status": "ACA Pending",
        "date": "08/11/2026",
        "description": null,
        "owner": "Douglas Weber",
        "tree_dbh": "27",
        "tree_location": "Front",
        "reason_removal": "Other",
        "tree_description": "15 ft from home.within striking distance.dropping branchesReason for Removal:OtherComments:concerned tree's proxiimity;canker observed near the basal portion of trunk;top-heavy canopy\n\t\t\n\t\t\n\t\t\tTree number:2Species:PineTree Size (DBH):34Tree location:backyardDescription of Tree:20 ft from home;striking distance;tree has high,top heavy canopy.susceptibility to wind-related failureReason for Removal:Other\n\t\t\n\t\t\n\t\t\tTree number:3Species:OakTree Size (DBH):10Tree location:backyardDescription of Tree:vertical cracking near the basal union;codominant stem combined with cracking indicate a structural weakness;stem separation.within striking of fence and shedReason for Removal:Other\n\t\t\n\t\t\n\t\t\tTree number:4Species:HackberryTree Size (DBH):15Tree location:backyardDescription of Tree:striking distance of shed and fence; exhibits vertical cracking associated with codominant stem;overgrown within existing landscapeReason for Removal:OtherComments:homeowner willing to install appropriate replacement trees if replanting is required\n\t\t\n\t\n\t\n                                \n                            \n                        \n                    \n                        \n                            \n                                \n                                    \n                                        \n                                         Parcel Information\n                                \n                            \n                            \n                                \n                                    \n\t\tParcel Number:14 00370001009 *Block:--Lot:--Subdivision:--",
        "tree_number": "1",
        "species": "pine"
      },
      "geometry": {
        "type": "Point",
        "coordinates": [
          -84.371440719112,
          33.688772282258
        ]
      }
    },
    {
      "type": "Feature",
      "properties": {
        "record": "BA-202603881",
        "address": "922 EDEN AVE SE, ATLANTA GA 30316",
        "status": "ACA Pending",
        "date": "08/11/2026",
        "description": null,
        "owner": "HARROP LEE",
        "tree_dbh": "9",
        "tree_location": "located at the front right corner of the home.",
        "reason_removal": "Significant cavity/area of decay",
        "tree_description": "This tree has over 40% dieback .Removing the top would not help mitigate the decline.",
        "tree_number": "1",
        "species": "dogwood"
      },
      "geometry": {
        "type": "Point",
        "coordinates": [
          -84.35744596014,
          33.730205864259
        ]
      }
    },
    {
      "type": "Feature",
      "properties": {
        "record": "BA-202603871",
        "address": "241 PATTERSON AVE SE, ATLANTA GA 30316",
        "status": "ACA Pending",
        "date": "08/11/2026",
        "description": null,
        "owner": "LEITCH MEGAN E",
        "tree_dbh": "33",
        "tree_location": "Front left of house",
        "reason_removal": "Uncorrectable defect",
        "tree_description": "Tree has a 5 degree lean towards client's house where all of the canopy is unbalanced over the roof and large limb failures have caused repeated damage to the roof. Past 3 years a limb has fallen causing roof damage. This year a small leak has caused significant water damage to the walls where water got in through the roof. Client does not want this tree dropping more limbs on their roof. Tree appears healthy but has suffered from summer limb dropReason for Removal:Uncorrectable defectComments:Pink ribbon\n\t\t\n\t\n\t\n                                \n                            \n                        \n                    \n                        \n                            \n                                \n                                    \n                                        \n                                         Parcel Information\n                                \n                            \n                            \n                                \n                                    \n\t\tParcel Number:15 177 01 063 *Block:--Lot:--Subdivision:--",
        "tree_number": "1",
        "species": "White Oak"
      },
      "geometry": {
        "type": "Point",
        "coordinates": [
          -84.34324071656,
          33.746562289685
        ]
      }
    },
    {
      "type": "Feature",
      "properties": {
        "record": "BA-202603876",
        "address": "450 WEST WESLEY RD NW, ATLANTA GA 30305",
        "status": "ACA Pending",
        "date": "08/11/2026",
        "description": null,
        "owner": "DRAKE TRISKA A",
        "tree_dbh": "22",
        "tree_location": "back yard agains driveway wall",
        "reason_removal": "Significant cavity/area of decay",
        "tree_description": "PICTURE OF TREEReason for Removal:Significant cavity/area of decayComments:heavy lean with more than 75% of upper canopy more than 20’ from center mass - large decay spot on main upper lead. Tree is targeting driveway wall and 2 story garage\n\t\t\n\t\n\t\n                                \n                            \n                        \n                    \n                        \n                            \n                                \n                                    \n                                        \n                                         Parcel Information\n                                \n                            \n                            \n                                \n                                    \n\t\tParcel Number:17 01440001073 *Block:--Lot:--Subdivision:--",
        "tree_number": "1",
        "species": "Pine"
      },
      "geometry": {
        "type": "Point",
        "coordinates": [
          -84.402649761014,
          33.828641253481
        ]
      }
    },
    {
      "type": "Feature",
      "properties": {
        "record": "BA-202603868",
        "address": "170 WEST PACES FERRY RD NW, ATLANTA GA 30305",
        "status": "ACA Pending",
        "date": "08/11/2026",
        "description": null,
        "owner": "Carney Danielle and Patrick",
        "tree_dbh": "52",
        "tree_location": "ON STREET left OF DRIVEWAY",
        "reason_removal": "Diseased",
        "tree_description": "52\" oak treeReason for Removal:Diseased\n\t\t\n\t\n\t\n                                \n                            \n                        \n                    \n                        \n                            \n                                \n                                    \n                                        \n                                         Parcel Information\n                                \n                            \n                            \n                                \n                                    \n\t\tParcel Number:17 0114  LL015 *Block:--Lot:--Subdivision:--",
        "tree_number": "1",
        "species": "OAK"
      },
      "geometry": {
        "type": "Point",
        "coordinates": [
          -84.390290902764,
          33.84421426578
        ]
      }
    },
    {
      "type": "Feature",
      "properties": {
        "record": "BA-202603902",
        "address": "1002 WELCH ST SW, ATLANTA GA 30310",
        "status": "ACA Pending",
        "date": "08/11/2026",
        "description": null,
        "owner": "PLATT GLADYS",
        "tree_dbh": "52",
        "tree_location": "right side of house and driveway.",
        "reason_removal": "Other",
        "tree_description": "Tree got hit by lightning Reason for Removal:OtherComments:the tree has several holes in the trunk.including a lightning strike wound that splits open at the base.\n\t\t\n\t\n\t\n                                \n                            \n                        \n                    \n                        \n                            \n                                \n                                    \n                                        \n                                         Parcel Information\n                                \n                            \n                            \n                                \n                                    \n\t\tParcel Number:14 00870005014 *Block:--Lot:--Subdivision:--",
        "tree_number": "1",
        "species": "Red oak"
      },
      "geometry": {
        "type": "Point",
        "coordinates": [
          -84.404761902084,
          33.727494584975
        ]
      }
    },
    {
      "type": "Feature",
      "properties": {
        "record": "BA-202603891",
        "address": "1185 WEST CONWAY DR NW, ATLANTA GA 30327",
        "status": "ACA Pending",
        "date": "08/11/2026",
        "description": null,
        "owner": "CHITNIS JAY K TR",
        "tree_dbh": "20",
        "tree_location": "left of driveway",
        "reason_removal": "Dead tree",
        "tree_description": "Picture of treeReason for Removal:Dead tree\n\t\t\n\t\n\t\n                                \n                            \n                        \n                    \n                        \n                            \n                                \n                                    \n                                        \n                                         Parcel Information\n                                \n                            \n                            \n                                \n                                    \n\t\tParcel Number:17 01790004008 *Block:--Lot:--Subdivision:--",
        "tree_number": "1",
        "species": "Red Oak"
      },
      "geometry": {
        "type": "Point",
        "coordinates": [
          -84.425747364569,
          33.866758243627
        ]
      }
    }
  ]
}