{
  "type": "FeatureCollection",
  "features": [
    {
      "type": "Feature",
      "properties": {
        "record": "BA-202605232",
        "address": "1382 EVERHART ST SW, ATLANTA GA 0",
        "status": "ACA Pending",
        "date": "10/07/2026",
        "description": null,
        "owner": "Thomas Garcia",
        "tree_dbh": "39",
        "tree_location": "Rear left property line",
        "reason_removal": "Dying tree",
        "tree_description": "Mature Water Oak with documented root crown and lower trunk decay. Arborist Resistograph testing found up to 44% strength loss and shell walls of approximately 5–6 inches.",
        "tree_number": "1",
        "species": "Water Oak",
        "comments": "Certified arborist inspection performed December 14, 2020. Arborist determined the tree presented an unreasonable risk and recommended removal. Recent fungal/mushroom growth has also been observed around the base. See attached arborist report and current photographs.",
        "tree_count": 1,
        "trees": [
          {
            "tree_number": "1",
            "species": "Water Oak",
            "tree_dbh": "39",
            "tree_location": "Rear left property line",
            "tree_description": "Mature Water Oak with documented root crown and lower trunk decay. Arborist Resistograph testing found up to 44% strength loss and shell walls of approximately 5–6 inches.",
            "reason_removal": "Dying tree",
            "comments": "Certified arborist inspection performed December 14, 2020. Arborist determined the tree presented an unreasonable risk and recommended removal. Recent fungal/mushroom growth has also been observed around the base. See attached arborist report and current photographs."
          }
        ]
      },
      "geometry": {
        "type": "Point",
        "coordinates": [
          -84.413988332829,
          33.71680601624
        ]
      }
    },
    {
      "type": "Feature",
      "properties": {
        "record": "BA-202605221",
        "address": "1752 INVERNESS AVE NE, ATLANTA GA 30306",
        "status": "ACA Pending",
        "date": "10/07/2026",
        "description": null,
        "owner": "David Cofrin",
        "tree_dbh": "23",
        "tree_location": "Back right",
        "reason_removal": "Invasive/undesirable tree",
        "tree_description": "Undesirable Co-dominant 12\"/11\"",
        "tree_number": "1",
        "species": "Privet",
        "comments": null,
        "tree_count": 1,
        "trees": [
          {
            "tree_number": "1",
            "species": "Privet",
            "tree_dbh": "23",
            "tree_location": "Back right",
            "tree_description": "Undesirable Co-dominant 12\"/11\"",
            "reason_removal": "Invasive/undesirable tree",
            "comments": null
          }
        ]
      },
      "geometry": {
        "type": "Point",
        "coordinates": [
          -84.345844611699,
          33.802152905458
        ]
      }
    },
    {
      "type": "Feature",
      "properties": {
        "record": "BA-202605223",
        "address": "1004 DELAWARE AVE SE, ATLANTA GA 30316",
        "status": "ACA Pending",
        "date": "10/07/2026",
        "description": null,
        "owner": null,
        "tree_dbh": "32",
        "tree_location": "back yard on left side.",
        "reason_removal": "Dead tree",
        "tree_description": "dead tree",
        "tree_number": "1",
        "species": "sweet gum",
        "comments": "Dead tree",
        "tree_count": 1,
        "trees": [
          {
            "tree_number": "1",
            "species": "sweet gum",
            "tree_dbh": "32",
            "tree_location": "back yard on left side.",
            "tree_description": "dead tree",
            "reason_removal": "Dead tree",
            "comments": "Dead tree"
          }
        ]
      },
      "geometry": {
        "type": "Point",
        "coordinates": [
          -84.355073002445,
          33.731230698379
        ]
      }
    },
    {
      "type": "Feature",
      "properties": {
        "record": "BA-202605234",
        "address": "1467 PEACHTREE BATTLE AVE NW, ATLANTA GA 30327",
        "status": "ACA Pending",
        "date": "10/07/2026",
        "description": null,
        "owner": null,
        "tree_dbh": null,
        "tree_location": null,
        "reason_removal": null,
        "tree_description": null,
        "tree_number": null,
        "species": null,
        "comments": null,
        "tree_count": null,
        "trees": null
      },
      "geometry": {
        "type": "Point",
        "coordinates": [
          -84.435635910839,
          33.82738608389
        ]
      }
    },
    {
      "type": "Feature",
      "properties": {
        "record": "BA-202605246",
        "address": "534 ETHEL ST NW, ATLANTA GA 30318",
        "status": "ACA Pending",
        "date": "10/07/2026",
        "description": null,
        "owner": null,
        "tree_dbh": null,
        "tree_location": null,
        "reason_removal": null,
        "tree_description": null,
        "tree_number": null,
        "species": null,
        "comments": null,
        "tree_count": null,
        "trees": null
      },
      "geometry": {
        "type": "Point",
        "coordinates": [
          -84.404793295298,
          33.784469263004
        ]
      }
    },
    {
      "type": "Feature",
      "properties": {
        "record": "BA-202605244",
        "address": "3160 ARDEN RD NW, ATLANTA GA 30305",
        "status": "ACA Pending",
        "date": "10/07/2026",
        "description": null,
        "owner": null,
        "tree_dbh": null,
        "tree_location": null,
        "reason_removal": null,
        "tree_description": null,
        "tree_number": null,
        "species": null,
        "comments": null,
        "tree_count": null,
        "trees": null
      },
      "geometry": {
        "type": "Point",
        "coordinates": [
          -84.399829179011,
          33.840894621057
        ]
      }
    },
    {
      "type": "Feature",
      "properties": {
        "record": "BA-202605225",
        "address": "808 PONCE DE LEON TER NE, ATLANTA GA 30306",
        "status": "ACA Pending",
        "date": "10/07/2026",
        "description": null,
        "owner": null,
        "tree_dbh": null,
        "tree_location": null,
        "reason_removal": null,
        "tree_description": null,
        "tree_number": null,
        "species": null,
        "comments": null,
        "tree_count": null,
        "trees": null
      },
      "geometry": {
        "type": "Point",
        "coordinates": [
          -84.360978323172,
          33.778770164728
        ]
      }
    },
    {
      "type": "Feature",
      "properties": {
        "record": "BA-202605236",
        "address": "2570 SHARONDALE DR NE, ATLANTA GA 30305",
        "status": "ACA Pending",
        "date": "10/07/2026",
        "description": null,
        "owner": null,
        "tree_dbh": null,
        "tree_location": null,
        "reason_removal": null,
        "tree_description": null,
        "tree_number": null,
        "species": null,
        "comments": null,
        "tree_count": null,
        "trees": null
      },
      "geometry": {
        "type": "Point",
        "coordinates": [
          -84.372853681894,
          33.824722645048
        ]
      }
    },
    {
      "type": "Feature",
      "properties": {
        "record": "BA-202605245",
        "address": "1444 LUCILE AVE SW, ATLANTA GA 30310",
        "status": "ACA Pending",
        "date": "10/07/2026",
        "description": null,
        "owner": null,
        "tree_dbh": null,
        "tree_location": null,
        "reason_removal": null,
        "tree_description": null,
        "tree_number": null,
        "species": null,
        "comments": null,
        "tree_count": null,
        "trees": null
      },
      "geometry": {
        "type": "Point",
        "coordinates": [
          -84.43565521503,
          33.742571333108
        ]
      }
    },
    {
      "type": "Feature",
      "properties": {
        "record": "BA-202605228",
        "address": "2550 BROOKDALE DR NW, ATLANTA GA 30305",
        "status": "ACA Pending",
        "date": "10/07/2026",
        "description": null,
        "owner": null,
        "tree_dbh": null,
        "tree_location": null,
        "reason_removal": null,
        "tree_description": null,
        "tree_number": null,
        "species": null,
        "comments": null,
        "tree_count": null,
        "trees": null
      },
      "geometry": {
        "type": "Point",
        "coordinates": [
          -84.404580541673,
          33.824943094053
        ]
      }
    },
    {
      "type": "Feature",
      "properties": {
        "record": "BA-202605233",
        "address": "1095 SIMS ST SW, ATLANTA GA 30310",
        "status": "ACA Pending",
        "date": "10/07/2026",
        "description": null,
        "owner": null,
        "tree_dbh": null,
        "tree_location": null,
        "reason_removal": null,
        "tree_description": null,
        "tree_number": null,
        "species": null,
        "comments": null,
        "tree_count": null,
        "trees": null
      },
      "geometry": {
        "type": "Point",
        "coordinates": [
          -84.403252836318,
          33.724930650653
        ]
      }
    },
    {
      "type": "Feature",
      "properties": {
        "record": "BA-202605217",
        "address": "2804 BONNYBROOK DR SW, ATLANTA GA 30311",
        "status": "ACA Pending",
        "date": "10/07/2026",
        "description": null,
        "owner": null,
        "tree_dbh": null,
        "tree_location": null,
        "reason_removal": null,
        "tree_description": null,
        "tree_number": null,
        "species": null,
        "comments": null,
        "tree_count": null,
        "trees": null
      },
      "geometry": {
        "type": "Point",
        "coordinates": [
          -84.479970197387,
          33.693574434233
        ]
      }
    },
    {
      "type": "Feature",
      "properties": {
        "record": "BA-202605219",
        "address": "590 MORELAND AVE SE, ATLANTA GA 30316",
        "status": "ACA Pending",
        "date": "10/07/2026",
        "description": null,
        "owner": null,
        "tree_dbh": null,
        "tree_location": null,
        "reason_removal": null,
        "tree_description": null,
        "tree_number": null,
        "species": null,
        "comments": null,
        "tree_count": null,
        "trees": null
      },
      "geometry": {
        "type": "Point",
        "coordinates": [
          -84.349186289353,
          33.738080342055
        ]
      }
    },
    {
      "type": "Feature",
      "properties": {
        "record": "BA-202605241",
        "address": "3549 CREIGHTON RD SW, ATLANTA GA 30331",
        "status": "ACA Pending",
        "date": "10/07/2026",
        "description": null,
        "owner": null,
        "tree_dbh": null,
        "tree_location": null,
        "reason_removal": null,
        "tree_description": null,
        "tree_number": null,
        "species": null,
        "comments": null,
        "tree_count": null,
        "trees": null
      },
      "geometry": {
        "type": "Point",
        "coordinates": [
          -84.505029172028,
          33.700037495133
        ]
      }
    },
    {
      "type": "Feature",
      "properties": {
        "record": "BA-202605247",
        "address": "505 WOODWARD WAY NW, ATLANTA GA 30305",
        "status": "ACA Pending",
        "date": "10/07/2026",
        "description": null,
        "owner": null,
        "tree_dbh": null,
        "tree_location": null,
        "reason_removal": null,
        "tree_description": null,
        "tree_number": null,
        "species": null,
        "comments": null,
        "tree_count": null,
        "trees": null
      },
      "geometry": {
        "type": "Point",
        "coordinates": [
          -84.404080907293,
          33.820266789317
        ]
      }
    },
    {
      "type": "Feature",
      "properties": {
        "record": "BA-202605239",
        "address": "2820 ANDREWS DR NW, ATLANTA GA 30305",
        "status": "ACA Pending",
        "date": "10/07/2026",
        "description": null,
        "owner": null,
        "tree_dbh": null,
        "tree_location": null,
        "reason_removal": null,
        "tree_description": null,
        "tree_number": null,
        "species": null,
        "comments": null,
        "tree_count": null,
        "trees": null
      },
      "geometry": {
        "type": "Point",
        "coordinates": [
          -84.388661109511,
          33.83194673223
        ]
      }
    },
    {
      "type": "Feature",
      "properties": {
        "record": "BA-202605227",
        "address": "850 BUCKHEAD TRCE NE, ATLANTA GA 30342",
        "status": "ACA Pending",
        "date": "10/07/2026",
        "description": null,
        "owner": null,
        "tree_dbh": null,
        "tree_location": null,
        "reason_removal": null,
        "tree_description": null,
        "tree_number": null,
        "species": null,
        "comments": null,
        "tree_count": null,
        "trees": null
      },
      "geometry": {
        "type": "Point",
        "coordinates": [
          -84.358612795171,
          33.863104416645
        ]
      }
    },
    {
      "type": "Feature",
      "properties": {
        "record": "26TMP-066172",
        "address": "145 VALLEY RD NW, ATLANTA GA 30305",
        "status": "",
        "date": "10/07/2026",
        "description": null,
        "owner": null,
        "tree_dbh": null,
        "tree_location": null,
        "reason_removal": null,
        "tree_description": null,
        "tree_number": null,
        "species": null,
        "comments": null,
        "tree_count": null,
        "trees": null
      },
      "geometry": {
        "type": "Point",
        "coordinates": [
          -84.39202642646,
          33.853396174967
        ]
      }
    },
    {
      "type": "Feature",
      "properties": {
        "record": "BA-202605237",
        "address": "3777 KING JAMES DR SW, ATLANTA GA 30331",
        "status": "ACA Pending",
        "date": "10/07/2026",
        "description": null,
        "owner": null,
        "tree_dbh": null,
        "tree_location": null,
        "reason_removal": null,
        "tree_description": null,
        "tree_number": null,
        "species": null,
        "comments": null,
        "tree_count": null,
        "trees": null
      },
      "geometry": {
        "type": "Point",
        "coordinates": [
          -84.512217214291,
          33.700854963748
        ]
      }
    },
    {
      "type": "Feature",
      "properties": {
        "record": "BA-202605222",
        "address": "1503 PEACHTREE ST NE, ATLANTA GA 30309",
        "status": "ACA Pending",
        "date": "10/07/2026",
        "description": null,
        "owner": null,
        "tree_dbh": null,
        "tree_location": null,
        "reason_removal": null,
        "tree_description": null,
        "tree_number": null,
        "species": null,
        "comments": null,
        "tree_count": null,
        "trees": null
      },
      "geometry": {
        "type": "Point",
        "coordinates": [
          -84.387646409423,
          33.79951011143
        ]
      }
    },
    {
      "type": "Feature",
      "properties": {
        "record": "26TMP-066409",
        "address": "987 LAWTON ST SW, ATLANTA GA 30310",
        "status": "",
        "date": "10/07/2026",
        "description": null,
        "owner": null,
        "tree_dbh": null,
        "tree_location": null,
        "reason_removal": null,
        "tree_description": null,
        "tree_number": null,
        "species": null,
        "comments": null,
        "tree_count": null,
        "trees": null
      },
      "geometry": {
        "type": "Point",
        "coordinates": [
          -84.423424557047,
          33.728278154818
        ]
      }
    },
    {
      "type": "Feature",
      "properties": {
        "record": "BA-202605229",
        "address": "4065 PEACHTREE DUNWOODY RD NE, ATLANTA GA 30342",
        "status": "ACA Pending",
        "date": "10/07/2026",
        "description": null,
        "owner": "Jason Peace",
        "tree_dbh": "27",
        "tree_location": "Right of driveway",
        "reason_removal": "Dying tree",
        "tree_description": "30% dead canopy",
        "tree_number": "1",
        "species": "Boxelder",
        "comments": "pink tape",
        "tree_count": 1,
        "trees": [
          {
            "tree_number": "1",
            "species": "Boxelder",
            "tree_dbh": "27",
            "tree_location": "Right of driveway",
            "tree_description": "30% dead canopy",
            "reason_removal": "Dying tree",
            "comments": "pink tape"
          }
        ]
      },
      "geometry": {
        "type": "Point",
        "coordinates": [
          -84.357847778499,
          33.866134192683
        ]
      }
    },
    {
      "type": "Feature",
      "properties": {
        "record": "BA-202605224",
        "address": "1026 CORONADO DR NW, ATLANTA GA 30327",
        "status": "ACA Pending",
        "date": "10/07/2026",
        "description": null,
        "owner": null,
        "tree_dbh": "44",
        "tree_location": "back left corner of property",
        "reason_removal": "Other",
        "tree_description": "leaning tree",
        "tree_number": "1",
        "species": "poplar",
        "comments": "the tree leans towards the house really bad with a slight upheaval on back side.",
        "tree_count": 1,
        "trees": [
          {
            "tree_number": "1",
            "species": "poplar",
            "tree_dbh": "44",
            "tree_location": "back left corner of property",
            "tree_description": "leaning tree",
            "reason_removal": "Other",
            "comments": "the tree leans towards the house really bad with a slight upheaval on back side."
          }
        ]
      },
      "geometry": {
        "type": "Point",
        "coordinates": [
          -84.42043834826,
          33.873745124452
        ]
      }
    },
    {
      "type": "Feature",
      "properties": {
        "record": "BA-202605240",
        "address": "3199 ROCKINGHAM DR NW, ATLANTA GA 30327",
        "status": "ACA Pending",
        "date": "10/07/2026",
        "description": null,
        "owner": null,
        "tree_dbh": null,
        "tree_location": null,
        "reason_removal": null,
        "tree_description": null,
        "tree_number": null,
        "species": null,
        "comments": null,
        "tree_count": null,
        "trees": null
      },
      "geometry": {
        "type": "Point",
        "coordinates": [
          -84.415830786054,
          33.834695423765
        ]
      }
    },
    {
      "type": "Feature",
      "properties": {
        "record": "BA-202605220",
        "address": "314 BEREAN AVE SE, ATLANTA GA 30312",
        "status": "ACA Pending",
        "date": "10/07/2026",
        "description": null,
        "owner": null,
        "tree_dbh": null,
        "tree_location": null,
        "reason_removal": null,
        "tree_description": null,
        "tree_number": null,
        "species": null,
        "comments": null,
        "tree_count": null,
        "trees": null
      },
      "geometry": {
        "type": "Point",
        "coordinates": [
          -84.366634845488,
          33.745661537596
        ]
      }
    },
    {
      "type": "Feature",
      "properties": {
        "record": "BA-202605231",
        "address": "645 NORTHSIDE DR, ATLANTA GA 00000",
        "status": "ACA Pending",
        "date": "10/07/2026",
        "description": null,
        "owner": "BOARD OF REGENTS OF THE UNIV SYSTEM OF GEORGIA",
        "tree_dbh": "15",
        "tree_location": "GA Tech",
        "reason_removal": "Dying tree",
        "tree_description": "Bad Condition",
        "tree_number": "1",
        "species": "dogwood",
        "comments": null,
        "tree_count": 2,
        "trees": [
          {
            "tree_number": "1",
            "species": "dogwood",
            "tree_dbh": "15",
            "tree_location": "GA Tech",
            "tree_description": "Bad Condition",
            "reason_removal": "Dying tree",
            "comments": null
          },
          {
            "tree_number": "2",
            "species": "ELM",
            "tree_dbh": "18",
            "tree_location": "GA Tech",
            "tree_description": null,
            "reason_removal": "Dying tree",
            "comments": "On GA Tech Property"
          }
        ]
      },
      "geometry": {
        "type": "Point",
        "coordinates": [
          -84.408188332878,
          33.774459851596
        ]
      }
    },
    {
      "type": "Feature",
      "properties": {
        "record": "BA-202605242",
        "address": "1198 AVON AVE SW, ATLANTA GA 30310",
        "status": "ACA Pending",
        "date": "10/07/2026",
        "description": null,
        "owner": null,
        "tree_dbh": null,
        "tree_location": null,
        "reason_removal": null,
        "tree_description": null,
        "tree_number": null,
        "species": null,
        "comments": null,
        "tree_count": null,
        "trees": null
      },
      "geometry": {
        "type": "Point",
        "coordinates": [
          -84.42735603746,
          33.722198580764
        ]
      }
    },
    {
      "type": "Feature",
      "properties": {
        "record": "BA-202605238",
        "address": "978 NORTH AVE NE, ATLANTA GA 30306",
        "status": "ACA Pending",
        "date": "10/07/2026",
        "description": null,
        "owner": "CITY OF ATLANTA HIGHLAND SCH",
        "tree_dbh": "50",
        "tree_location": "east rear property",
        "reason_removal": "Dying tree",
        "tree_description": "see pink ribbon",
        "tree_number": "1",
        "species": "Red cedar",
        "comments": null,
        "tree_count": 3,
        "trees": [
          {
            "tree_number": "1",
            "species": "Red cedar",
            "tree_dbh": "50",
            "tree_location": "east rear property",
            "tree_description": "see pink ribbon",
            "reason_removal": "Dying tree",
            "comments": null
          },
          {
            "tree_number": "2",
            "species": "red cedar",
            "tree_dbh": "25",
            "tree_location": "east rear property",
            "tree_description": "see pink ribbon",
            "reason_removal": "Dying tree",
            "comments": null
          },
          {
            "tree_number": "3",
            "species": "hackberry",
            "tree_dbh": "100",
            "tree_location": "east rear property",
            "tree_description": "see pink ribbon",
            "reason_removal": "Uncorrectable defect",
            "comments": "Lean will fall towards building"
          }
        ]
      },
      "geometry": {
        "type": "Point",
        "coordinates": [
          -84.355227189194,
          33.771137855413
        ]
      }
    },
    {
      "type": "Feature",
      "properties": {
        "record": "BA-202605226",
        "address": "910 VIRGINIA CIR NE, ATLANTA GA 30306",
        "status": "ACA Pending",
        "date": "10/07/2026",
        "description": null,
        "owner": "HALL LEWIS MATTHEW",
        "tree_dbh": "11",
        "tree_location": "front left side of house",
        "reason_removal": "Other",
        "tree_description": "close to the water line and foundation.",
        "tree_number": "1",
        "species": "hackberry",
        "comments": "the tree is close to the water line and foundation.",
        "tree_count": 1,
        "trees": [
          {
            "tree_number": "1",
            "species": "hackberry",
            "tree_dbh": "11",
            "tree_location": "front left side of house",
            "tree_description": "close to the water line and foundation.",
            "reason_removal": "Other",
            "comments": "the tree is close to the water line and foundation."
          }
        ]
      },
      "geometry": {
        "type": "Point",
        "coordinates": [
          -84.357915871127,
          33.781077056503
        ]
      }
    },
    {
      "type": "Feature",
      "properties": {
        "record": "BA-202605230",
        "address": "2708 FAIRLANE DR SE, ATLANTA GA 30354",
        "status": "ACA Pending",
        "date": "10/07/2026",
        "description": null,
        "owner": null,
        "tree_dbh": "17",
        "tree_location": "back",
        "reason_removal": "Dying tree",
        "tree_description": "Fusiform Cankers on trunk and base Targets: House",
        "tree_number": "1",
        "species": "pine",
        "comments": null,
        "tree_count": 4,
        "trees": [
          {
            "tree_number": "1",
            "species": "pine",
            "tree_dbh": "17",
            "tree_location": "back",
            "tree_description": "Fusiform Cankers on trunk and base Targets: House",
            "reason_removal": "Dying tree",
            "comments": null
          },
          {
            "tree_number": "2",
            "species": "pine",
            "tree_dbh": "28",
            "tree_location": "back",
            "tree_description": "Fusiform canker, no life in canopy Targets: House, Street Risk: High",
            "reason_removal": "Dying tree",
            "comments": null
          },
          {
            "tree_number": "3",
            "species": "pine",
            "tree_dbh": "29",
            "tree_location": "back",
            "tree_description": "Fusiform cankers throughout trunk, no life in canopy Targets: House & Street",
            "reason_removal": "Dying tree",
            "comments": null
          },
          {
            "tree_number": "4",
            "species": "pine",
            "tree_dbh": "23",
            "tree_location": "back",
            "tree_description": ": Fuisform Cankers on trunk, top is browning Targets: Fusiform Cankers, no life in crown",
            "reason_removal": "Dying tree",
            "comments": null
          }
        ]
      },
      "geometry": {
        "type": "Point",
        "coordinates": [
          -84.380308802581,
          33.680968176153
        ]
      }
    },
    {
      "type": "Feature",
      "properties": {
        "record": "BA-202605218",
        "address": "1881 VENETIAN DR SW, ATLANTA GA 30311",
        "status": "Accepted",
        "date": "10/07/2026",
        "description": "DDH",
        "owner": null,
        "tree_dbh": null,
        "tree_location": null,
        "reason_removal": null,
        "tree_description": null,
        "tree_number": null,
        "species": null,
        "comments": null,
        "tree_count": null,
        "trees": null
      },
      "geometry": {
        "type": "Point",
        "coordinates": [
          -84.4491193463,
          33.714772858816
        ]
      }
    }
  ]
}