{
  "type": "FeatureCollection",
  "features": [
    {
      "type": "Feature",
      "properties": {
        "record": "BA-202604479",
        "address": "544 LINWOOD AVE NE, ATLANTA GA 30306",
        "status": "ACA Pending",
        "date": "09/06/2026",
        "description": null,
        "owner": "GRINNELL DAVID A  ET AL",
        "tree_dbh": "29",
        "tree_location": "Far rear right",
        "reason_removal": "Invasive/undesirable tree",
        "tree_description": "Covered in kudzu and vines, 2 cavities at the baseReason for Removal:Invasive/undesirable treeComments:Hackberry trees non-desirable as they usually have aphid infestations that drop honeydew.  The amount of kudzu in overpowering in this tree and may not be viable after vines cut. \n\t\t\n\t\n\t\n                                \n                            \n                        \n                    \n                        \n                            \n                                \n                                    \n                                        \n                                         Parcel Information\n                                \n                            \n                            \n                                \n                                    \n\t\tParcel Number:14 00150004012 *Block:--Lot:--Subdivision:--",
        "tree_number": "1",
        "species": "Hackberry"
      },
      "geometry": {
        "type": "Point",
        "coordinates": [
          -84.356196883957,
          33.76935250089
        ]
      }
    },
    {
      "type": "Feature",
      "properties": {
        "record": "BA-202604475",
        "address": "1223 BEECH VALLEY RD NE, ATLANTA GA 30306",
        "status": "ACA Pending",
        "date": "09/06/2026",
        "description": null,
        "owner": "Jennifer Palmer",
        "tree_dbh": "21",
        "tree_location": "Front yard",
        "reason_removal": "Dying tree",
        "tree_description": "Maple that has been growing less foliage and losing branches for about 2 years. Reason for Removal:Dying treeComments:Low-forking tree. DBH is 21 just below the split, which is slightly below 4.5 feet. Main trunk has DBH of 13.4 inches just above the split, which is at about 5 feet. \n\t\t\n\t\n\t\n                                \n                            \n                        \n                    \n                        \n                            \n                                \n                                    \n                                        \n                                         Parcel Information\n                                \n                            \n                            \n                                \n                                    \n\t\tParcel Number:18 056 03 170 *Block:--Lot:--Subdivision:--",
        "tree_number": "1",
        "species": "Maple"
      },
      "geometry": {
        "type": "Point",
        "coordinates": [
          -84.346687546927,
          33.796681862494
        ]
      }
    },
    {
      "type": "Feature",
      "properties": {
        "record": "26TMP-058335",
        "address": "195 ESTORIA ST SE, ATLANTA GA 30316",
        "status": "",
        "date": "09/06/2026",
        "description": null,
        "owner": null,
        "tree_dbh": null,
        "tree_location": null,
        "reason_removal": null,
        "tree_description": null,
        "tree_number": null,
        "species": null
      },
      "geometry": {
        "type": "Point",
        "coordinates": [
          -84.363130712598,
          33.749050783006
        ]
      }
    },
    {
      "type": "Feature",
      "properties": {
        "record": "BA-202604476",
        "address": "3914 CLUB DR NE, ATLANTA GA 30319",
        "status": "ACA Pending",
        "date": "09/06/2026",
        "description": null,
        "owner": "Andrew Stephens",
        "tree_dbh": "20",
        "tree_location": "back yard",
        "reason_removal": "Diseased",
        "tree_description": "20 foot HickoryReason for Removal:DiseasedComments:Ambrosia bug?\n\t\t\n\t\n\t\n                                \n                            \n                        \n                    \n                        \n                            \n                                \n                                    \n                                        \n                                         Parcel Information\n                                \n                            \n                            \n                                \n                                    \n\t\tParcel Number:17 00110003015 *Block:--Lot:--Subdivision:--",
        "tree_number": "1",
        "species": "Hickory"
      },
      "geometry": {
        "type": "Point",
        "coordinates": [
          -84.352474067053,
          33.862375400842
        ]
      }
    },
    {
      "type": "Feature",
      "properties": {
        "record": "BA-202604477",
        "address": "747 CARON CIR NW, ATLANTA GA 30318",
        "status": "ACA Pending",
        "date": "09/06/2026",
        "description": null,
        "owner": "Jacqueline t Brown",
        "tree_dbh": "50",
        "tree_location": "back corner side of home",
        "reason_removal": "Invasive/undesirable tree",
        "tree_description": "Tree with vines growing on it and its branches; branches cross into my yard.",
        "tree_number": "170",
        "species": "unknown"
      },
      "geometry": {
        "type": "Point",
        "coordinates": [
          -84.485387360907,
          33.775481922477
        ]
      }
    },
    {
      "type": "Feature",
      "properties": {
        "record": "BA-202604474",
        "address": "700 MOUNTAIN DR NE, ATLANTA GA 30342",
        "status": "ACA Pending",
        "date": "09/06/2026",
        "description": null,
        "owner": null,
        "tree_dbh": "62",
        "tree_location": "700 Mountain Dr NE",
        "reason_removal": "Dying tree",
        "tree_description": "The tree has violet ribbon around it Reason for Removal:Dying treeComments:The tree is dying and drops heavy branches in windy weather\n\t\t\n\t\t\n\t\t\tTree number:2Species:OakTree Size (DBH):42Tree location:700 Mountain Dr NEDescription of Tree:The tree has violet ribbon around it Reason for Removal:Dying treeComments:The tree is dying and drops heavy branches in windy weather\n\t\t\n\t\n\t\n                                \n                            \n                        \n                    \n                        \n                            \n                                \n                                    \n                                        \n                                         Parcel Information\n                                \n                            \n                            \n                                \n                                    \n\t\tParcel Number:17 00430001050 *Block:--Lot:--Subdivision:--",
        "tree_number": "1",
        "species": "Oak"
      },
      "geometry": {
        "type": "Point",
        "coordinates": [
          -84.364339832095,
          33.866453468705
        ]
      }
    },
    {
      "type": "Feature",
      "properties": {
        "record": "BA-202604478",
        "address": "540 LINWOOD AVE NE, ATLANTA GA 30306",
        "status": "ACA Pending",
        "date": "09/06/2026",
        "description": null,
        "owner": "Andrew James",
        "tree_dbh": "15",
        "tree_location": "Far rear left near property line",
        "reason_removal": "Uncorrectable defect",
        "tree_description": "12\" deep basal cavity  (18\" long x 6\" wide)Reason for Removal:Significant cavity/area of decayComments:Weak tree\n\t\t\n\t\t\n\t\t\tTree number:2Species:DogwoodTree Size (DBH):20Tree location:front rightDescription of Tree:3-trunks (7\"/9\"/4\"), weak attachments, weight to one side, some crown dieback with wilting leavesReason for Removal:Uncorrectable defectComments:Declining and weak\n\t\t\n\t\n\t\n                                \n                            \n                        \n                    \n                        \n                            \n                                \n                                    \n                                        \n                                         Parcel Information\n                                \n                            \n                            \n                                \n                                    \n\t\tParcel Number:14 00150004097 *Block:--Lot:--Subdivision:--",
        "tree_number": "1",
        "species": "Dogwood"
      },
      "geometry": {
        "type": "Point",
        "coordinates": [
          -84.356118113318,
          33.769299987122
        ]
      }
    }
  ]
}