{
  "type": "FeatureCollection",
  "features": [
    {
      "type": "Feature",
      "properties": {
        "record": "BA-202604305",
        "address": "2421 SPRING GARDEN DR SW, ATLANTA GA 30315",
        "status": "ACA Pending",
        "date": "08/29/2026",
        "description": null,
        "owner": "Kennya Simms",
        "tree_dbh": "19",
        "tree_location": "back left",
        "reason_removal": "Dying tree",
        "tree_description": "dead pine treeReason for Removal:Dead tree\n\t\t\n\t\t\n\t\t\tTree number:2Species:water oakTree Size (DBH):38Tree location:back centerDescription of Tree:dying oak tree, with dead limbs, covering the houseReason for Removal:Dying treeComments:large hollow opening and fungi growing at trunk\n\t\t\n\t\n\t\n                                \n                            \n                        \n                    \n                        \n                            \n                                \n                                    \n                                        \n                                         Parcel Information\n                                \n                            \n                            \n                                \n                                    \n\t\tParcel Number:14 01010009047 *Block:--Lot:--Subdivision:--",
        "tree_number": "1",
        "species": "pine"
      },
      "geometry": {
        "type": "Point",
        "coordinates": [
          -84.412356126437,
          33.688725436356
        ]
      }
    },
    {
      "type": "Feature",
      "properties": {
        "record": "BA-202604307",
        "address": "1887 WYCLIFF RD NW, ATLANTA GA 30309",
        "status": "ACA Pending",
        "date": "08/29/2026",
        "description": null,
        "owner": null,
        "tree_dbh": null,
        "tree_location": null,
        "reason_removal": null,
        "tree_description": null,
        "tree_number": null,
        "species": null
      },
      "geometry": {
        "type": "Point",
        "coordinates": [
          -84.395890211366,
          33.806243695487
        ]
      }
    },
    {
      "type": "Feature",
      "properties": {
        "record": "BA-202604304",
        "address": "52 VINSON DR SE, ATLANTA GA 30317",
        "status": "ACA Pending",
        "date": "08/29/2026",
        "description": null,
        "owner": null,
        "tree_dbh": null,
        "tree_location": null,
        "reason_removal": null,
        "tree_description": null,
        "tree_number": null,
        "species": null
      },
      "geometry": {
        "type": "Point",
        "coordinates": [
          -84.34062682691,
          33.752022720287
        ]
      }
    },
    {
      "type": "Feature",
      "properties": {
        "record": "BA-202604303",
        "address": "661 VALLEY GREEN DR NE, ATLANTA GA 30342",
        "status": "ACA Pending",
        "date": "08/29/2026",
        "description": null,
        "owner": null,
        "tree_dbh": null,
        "tree_location": null,
        "reason_removal": null,
        "tree_description": null,
        "tree_number": null,
        "species": null
      },
      "geometry": {
        "type": "Point",
        "coordinates": [
          -84.366843705756,
          33.874976569951
        ]
      }
    }
  ]
}