{
  "type": "FeatureCollection",
  "features": [
    {
      "type": "Feature",
      "properties": {
        "record": "BA-202604170",
        "address": "453 EUCLID TER NE, ATLANTA GA 30307",
        "status": "ACA Pending",
        "date": "08/24/2026",
        "description": null,
        "owner": "POMEROY D BOYD OR SIMON SUSAN",
        "tree_dbh": "10",
        "tree_location": "Rear fence",
        "reason_removal": "Invasive/undesirable tree",
        "tree_description": "In fence",
        "tree_number": "1",
        "species": "Cherry Laurel"
      },
      "geometry": {
        "type": "Point",
        "coordinates": [
          -84.346899076274,
          33.766648413659
        ]
      }
    },
    {
      "type": "Feature",
      "properties": {
        "record": "BA-202604181",
        "address": "2616 BROWNTOWN RD NW, ATLANTA GA 30318",
        "status": "ACA Pending",
        "date": "08/24/2026",
        "description": null,
        "owner": "NELLOMS EVA M",
        "tree_dbh": "46",
        "tree_location": "front yard",
        "reason_removal": "Dying tree",
        "tree_description": null,
        "tree_number": "1",
        "species": "loblolly"
      },
      "geometry": {
        "type": "Point",
        "coordinates": [
          -84.473600386203,
          33.803323656523
        ]
      }
    },
    {
      "type": "Feature",
      "properties": {
        "record": "26TMP-055553",
        "address": "973 GRANT COVE PL SE, ATLANTA GA 30315",
        "status": "",
        "date": "08/24/2026",
        "description": null,
        "owner": null,
        "tree_dbh": null,
        "tree_location": null,
        "reason_removal": null,
        "tree_description": null,
        "tree_number": null,
        "species": null
      },
      "geometry": {
        "type": "Point",
        "coordinates": [
          -84.377139874275,
          33.727560309047
        ]
      }
    },
    {
      "type": "Feature",
      "properties": {
        "record": "BA-202604166",
        "address": "1560 NEW ST NE, ATLANTA GA 30307",
        "status": "ACA Pending",
        "date": "08/24/2026",
        "description": null,
        "owner": null,
        "tree_dbh": null,
        "tree_location": null,
        "reason_removal": null,
        "tree_description": null,
        "tree_number": null,
        "species": null
      },
      "geometry": {
        "type": "Point",
        "coordinates": [
          -84.336141737203,
          33.759317300859
        ]
      }
    },
    {
      "type": "Feature",
      "properties": {
        "record": "BA-202604168",
        "address": "3499 NANCY CREEK RD NW, REAR, ATLANTA GA 30327",
        "status": "ACA Pending",
        "date": "08/24/2026",
        "description": null,
        "owner": null,
        "tree_dbh": null,
        "tree_location": null,
        "reason_removal": null,
        "tree_description": null,
        "tree_number": null,
        "species": null
      },
      "geometry": {
        "type": "Point",
        "coordinates": [
          -84.440769691898,
          33.850758585102
        ]
      }
    },
    {
      "type": "Feature",
      "properties": {
        "record": "BA-202604169",
        "address": "3295 VALLEY RD NW, ATLANTA GA 30305",
        "status": "ACA Pending",
        "date": "08/24/2026",
        "description": null,
        "owner": null,
        "tree_dbh": null,
        "tree_location": null,
        "reason_removal": null,
        "tree_description": null,
        "tree_number": null,
        "species": null
      },
      "geometry": {
        "type": "Point",
        "coordinates": [
          -84.385492811617,
          33.844719241889
        ]
      }
    },
    {
      "type": "Feature",
      "properties": {
        "record": "BA-202604177",
        "address": "3301 LANDINGS SOUTH DR SW, ATLANTA GA 30331",
        "status": "ACA Pending",
        "date": "08/24/2026",
        "description": null,
        "owner": null,
        "tree_dbh": null,
        "tree_location": null,
        "reason_removal": null,
        "tree_description": null,
        "tree_number": null,
        "species": null
      },
      "geometry": {
        "type": "Point",
        "coordinates": [
          -84.521065221913,
          33.662385315276
        ]
      }
    },
    {
      "type": "Feature",
      "properties": {
        "record": "BA-202604176",
        "address": "759 TARA CIR SE, ATLANTA GA 30354",
        "status": "ACA Pending",
        "date": "08/24/2026",
        "description": null,
        "owner": null,
        "tree_dbh": null,
        "tree_location": null,
        "reason_removal": null,
        "tree_description": null,
        "tree_number": null,
        "species": null
      },
      "geometry": {
        "type": "Point",
        "coordinates": [
          -84.36623595199,
          33.666895818527
        ]
      }
    },
    {
      "type": "Feature",
      "properties": {
        "record": "BA-202604171",
        "address": "963 MARTIN ST SE, ATLANTA GA 30315",
        "status": "ACA Pending",
        "date": "08/24/2026",
        "description": null,
        "owner": null,
        "tree_dbh": null,
        "tree_location": null,
        "reason_removal": null,
        "tree_description": null,
        "tree_number": null,
        "species": null
      },
      "geometry": {
        "type": "Point",
        "coordinates": [
          -84.383333083519,
          33.728210478861
        ]
      }
    },
    {
      "type": "Feature",
      "properties": {
        "record": "BA-202604174",
        "address": "963 MARTIN ST SE, ATLANTA GA 30315",
        "status": "ACA Pending",
        "date": "08/24/2026",
        "description": null,
        "owner": null,
        "tree_dbh": null,
        "tree_location": null,
        "reason_removal": null,
        "tree_description": null,
        "tree_number": null,
        "species": null
      },
      "geometry": {
        "type": "Point",
        "coordinates": [
          -84.383333083519,
          33.728210478861
        ]
      }
    },
    {
      "type": "Feature",
      "properties": {
        "record": "BA-202604165",
        "address": "2675 DELLWOOD DR NW, ATLANTA GA 30305",
        "status": "ACA Pending",
        "date": "08/24/2026",
        "description": null,
        "owner": null,
        "tree_dbh": null,
        "tree_location": null,
        "reason_removal": null,
        "tree_description": null,
        "tree_number": null,
        "species": null
      },
      "geometry": {
        "type": "Point",
        "coordinates": [
          -84.400902892383,
          33.826868087846
        ]
      }
    },
    {
      "type": "Feature",
      "properties": {
        "record": "BA-202604164",
        "address": "953 VICTORY DR SW, ATLANTA GA 30310",
        "status": "ACA Pending",
        "date": "08/24/2026",
        "description": null,
        "owner": null,
        "tree_dbh": null,
        "tree_location": null,
        "reason_removal": null,
        "tree_description": null,
        "tree_number": null,
        "species": null
      },
      "geometry": {
        "type": "Point",
        "coordinates": [
          -84.419492225381,
          33.707829489164
        ]
      }
    },
    {
      "type": "Feature",
      "properties": {
        "record": "BA-202604172",
        "address": "681 WOODS DR NW, ATLANTA GA 30318",
        "status": "ACA Pending",
        "date": "08/24/2026",
        "description": null,
        "owner": null,
        "tree_dbh": null,
        "tree_location": null,
        "reason_removal": null,
        "tree_description": null,
        "tree_number": null,
        "species": null
      },
      "geometry": {
        "type": "Point",
        "coordinates": [
          -84.468226961307,
          33.773078522431
        ]
      }
    },
    {
      "type": "Feature",
      "properties": {
        "record": "BA-202604162",
        "address": "1577 SYLVAN RD SW, ATLANTA GA 30310",
        "status": "Issued",
        "date": "08/24/2026",
        "description": null,
        "owner": null,
        "tree_dbh": null,
        "tree_location": null,
        "reason_removal": null,
        "tree_description": null,
        "tree_number": null,
        "species": null
      },
      "geometry": {
        "type": "Point",
        "coordinates": [
          -84.418225288579,
          33.711850561554
        ]
      }
    },
    {
      "type": "Feature",
      "properties": {
        "record": "BA-202604163",
        "address": "2686 TUPELO ST SE, ATLANTA GA 30317",
        "status": "ACA Pending",
        "date": "08/24/2026",
        "description": null,
        "owner": null,
        "tree_dbh": null,
        "tree_location": null,
        "reason_removal": null,
        "tree_description": null,
        "tree_number": null,
        "species": null
      },
      "geometry": {
        "type": "Point",
        "coordinates": [
          -84.298878934604,
          33.749011383708
        ]
      }
    },
    {
      "type": "Feature",
      "properties": {
        "record": "26TMP-055339",
        "address": "4393 JETT PL NW, ATLANTA GA 30327",
        "status": "",
        "date": "08/24/2026",
        "description": null,
        "owner": null,
        "tree_dbh": null,
        "tree_location": null,
        "reason_removal": null,
        "tree_description": null,
        "tree_number": null,
        "species": null
      },
      "geometry": {
        "type": "Point",
        "coordinates": [
          -84.401971141914,
          33.874870654334
        ]
      }
    },
    {
      "type": "Feature",
      "properties": {
        "record": "BA-202604187",
        "address": "1881 TURNER RD SE, ATLANTA GA 30315",
        "status": "ACA Pending",
        "date": "08/24/2026",
        "description": null,
        "owner": "MALONE RICHARD",
        "tree_dbh": "41",
        "tree_location": "front yard",
        "reason_removal": "Significant cavity/area of decay",
        "tree_description": null,
        "tree_number": "1",
        "species": "water oak"
      },
      "geometry": {
        "type": "Point",
        "coordinates": [
          -84.354963180242,
          33.702400488638
        ]
      }
    },
    {
      "type": "Feature",
      "properties": {
        "record": "BA-202604186",
        "address": "25 BOWEN AVE SE, ATLANTA GA 30315",
        "status": "ACA Pending",
        "date": "08/24/2026",
        "description": null,
        "owner": null,
        "tree_dbh": null,
        "tree_location": null,
        "reason_removal": null,
        "tree_description": null,
        "tree_number": null,
        "species": null
      },
      "geometry": {
        "type": "Point",
        "coordinates": [
          -84.382901306929,
          33.709849775823
        ]
      }
    },
    {
      "type": "Feature",
      "properties": {
        "record": "26TMP-055396",
        "address": "31 ATLANTA AVE SE, ATLANTA GA 30315",
        "status": "",
        "date": "08/24/2026",
        "description": null,
        "owner": null,
        "tree_dbh": null,
        "tree_location": null,
        "reason_removal": null,
        "tree_description": null,
        "tree_number": null,
        "species": null
      },
      "geometry": {
        "type": "Point",
        "coordinates": [
          -84.386813946297,
          33.730337270913
        ]
      }
    },
    {
      "type": "Feature",
      "properties": {
        "record": "BA-202604185",
        "address": "4508 CLUB DR NE, ATLANTA GA 30319",
        "status": "ACA Pending",
        "date": "08/24/2026",
        "description": null,
        "owner": "FAIR MARK G MARTHA R",
        "tree_dbh": "25",
        "tree_location": "front right",
        "reason_removal": "Diseased",
        "tree_description": "tagged",
        "tree_number": "1",
        "species": "Pine"
      },
      "geometry": {
        "type": "Point",
        "coordinates": [
          -84.352638011127,
          33.876416403151
        ]
      }
    },
    {
      "type": "Feature",
      "properties": {
        "record": "BA-202604184",
        "address": "4495 CLUB VALLEY DR NE, ATLANTA GA 30319",
        "status": "ACA Pending",
        "date": "08/24/2026",
        "description": null,
        "owner": null,
        "tree_dbh": "20",
        "tree_location": "rear center",
        "reason_removal": "Diseased",
        "tree_description": "taggedReason for Removal:DiseasedComments:Active Pine beetles\n\t\t\n\t\n\t\n                                \n                            \n                        \n                    \n                        \n                            \n                                \n                                    \n                                        \n                                         Parcel Information\n                                \n                            \n                            \n                                \n                                    \n\t\tParcel Number:17 00130001041 *Block:--Lot:--Subdivision:--",
        "tree_number": "1",
        "species": "Pine"
      },
      "geometry": {
        "type": "Point",
        "coordinates": [
          -84.353031361443,
          33.877723016293
        ]
      }
    }
  ]
}