{
  "type": "FeatureCollection",
  "features": [
    {
      "type": "Feature",
      "properties": {
        "record": "BA-202604606",
        "address": "982 CARDOVA DR NE, ATLANTA GA 30324",
        "status": "ACA Pending",
        "date": "09/13/2026",
        "description": null,
        "owner": "Booth Benjamin Chase",
        "tree_dbh": "22",
        "tree_location": "Backyard",
        "reason_removal": "Dead tree",
        "tree_description": "Tree is shedding bark and hanging over the house. Reason for Removal:Dead tree\n\t\t\n\t\n\t\n                                \n                            \n                        \n                    \n                        \n                            \n                                \n                                    \n                                        \n                                         Parcel Information\n                                \n                            \n                            \n                                \n                                    \n\t\tParcel Number:17 00050003014 *Block:--Lot:--Subdivision:--",
        "tree_number": "1",
        "species": "Oak"
      },
      "geometry": {
        "type": "Point",
        "coordinates": [
          -84.356170940262,
          33.816736814287
        ]
      }
    },
    {
      "type": "Feature",
      "properties": {
        "record": "BA-202604612",
        "address": "3331 LANDINGS SOUTH DR SW, ATLANTA GA 30331",
        "status": "ACA Pending",
        "date": "09/13/2026",
        "description": null,
        "owner": null,
        "tree_dbh": "34",
        "tree_location": "rear center",
        "reason_removal": "Diseased",
        "tree_description": "3 trunks (15\"/12\"/7\"), SRP impact from neighboring lot 16 - 3341, 15\" trunk brokenReason for Removal:Uncorrectable defectComments:Tree Tag 15-1\n\t\t\n\t\t\n\t\t\tTree number:2Species:SweetgumTree Size (DBH):9Tree location:right sideDescription of Tree:No topReason for Removal:Uncorrectable defectComments:Tree Tag 15-2\n\t\t\n\t\t\n\t\t\tTree number:3Species:SweetgumTree Size (DBH):21Tree location:rear centerDescription of Tree:2-trunk (13\"/8\"), basal swelling, trunk decayReason for Removal:DiseasedComments:Tree Tag 15-3\n\t\t\n\t\t\n\t\t\tTree number:4Species:SweetgumTree Size (DBH):20Tree location:rear leftDescription of Tree:Trunk cavity - hollowReason for Removal:Significant cavity/area of decayComments:Tree Tag 15-4, #3324\n\t\t\n\t\t\n\t\t\tTree number:5Species:SweetgumTree Size (DBH):11Tree location:rear rightDescription of Tree:Dead, rotten baseReason for Removal:Dead treeComments:Tree Tag 15-5, #3306\n\t\t\n\t\t\n\t\t\tTree number:6Species:Water OakTree Size (DBH):28Tree location:rear rightDescription of Tree:Ganoderma conks, growing into fenceReason for Removal:DiseasedComments:Tree Tag 15-6\n\t\t\n\t\n\t\n                                \n                            \n                        \n                    \n                        \n                            \n                                \n                                    \n                                        \n                                         Parcel Information\n                                \n                            \n                            \n                                \n                                    \n\t\tParcel Number:T14F0036  LL021 15 *Block:--Lot:--Subdivision:--",
        "tree_number": "1",
        "species": "Water Oak"
      },
      "geometry": {
        "type": "Point",
        "coordinates": [
          -84.52111768856,
          33.662641299543
        ]
      }
    },
    {
      "type": "Feature",
      "properties": {
        "record": "BA-202604608",
        "address": "1289 BEECH VALLEY RD NE, ATLANTA GA 30306",
        "status": "ACA Pending",
        "date": "09/13/2026",
        "description": null,
        "owner": null,
        "tree_dbh": null,
        "tree_location": null,
        "reason_removal": null,
        "tree_description": null,
        "tree_number": null,
        "species": null
      },
      "geometry": {
        "type": "Point",
        "coordinates": [
          -84.344423960612,
          33.7955978484
        ]
      }
    },
    {
      "type": "Feature",
      "properties": {
        "record": "BA-202604607",
        "address": "993 NORTHROPE DR NE, ATLANTA GA 30324",
        "status": "ACA Pending",
        "date": "09/13/2026",
        "description": null,
        "owner": "Richard Hardeman",
        "tree_dbh": "6",
        "tree_location": "Backyard",
        "reason_removal": "Dead tree",
        "tree_description": "6 inch dogwood located near the street. The leaves fell off around may of this year and my landscaper recommends it is dead.Reason for Removal:Dead treeComments:Would plan to replace with a similar species of  dogwood\n\t\t\n\t\t\n\t\t\tTree number:2Species:HardwoodTree Size (DBH):11Tree location:BackyardDescription of Tree:Hardwood tree covered in ivy with top broken off halfway upReason for Removal:Dead tree\n\t\t\n\t\n\t\n                                \n                            \n                        \n                    \n                        \n                            \n                                \n                                    \n                                        \n                                         Parcel Information\n                                \n                            \n                            \n                                \n                                    \n\t\tParcel Number:17 00050003028 *Block:--Lot:--Subdivision:--",
        "tree_number": "1",
        "species": "Dogwood"
      },
      "geometry": {
        "type": "Point",
        "coordinates": [
          -84.355607522273,
          33.818264101014
        ]
      }
    },
    {
      "type": "Feature",
      "properties": {
        "record": "BA-202604611",
        "address": "3321 LANDINGS SOUTH DR SW, ATLANTA GA 30331",
        "status": "ACA Pending",
        "date": "09/13/2026",
        "description": null,
        "owner": null,
        "tree_dbh": "19",
        "tree_location": "rear property line",
        "reason_removal": "Dead tree",
        "tree_description": "Dead, HypoxylonReason for Removal:Dead treeComments:Tree Tag 14-1\n\t\t\n\t\t\n\t\t\tTree number:2Species:Water OakTree Size (DBH):11Tree location:right sideDescription of Tree:Poor form, co-dominant trunkReason for Removal:Uncorrectable defectComments:Tree Tag 14-2\n\t\t\n\t\t\n\t\t\tTree number:3Species:SweetgumTree Size (DBH):22Tree location:rear property lineDescription of Tree:top dieback, 1 large dead limbReason for Removal:Dying treeComments:Tree Tag 14-3\n\t\t\n\t\t\n\t\t\tTree number:4Species:SweetgumTree Size (DBH):17Tree location:right centerDescription of Tree:2-trunk (11\"/6\"), poor form, basal cavity, asymmetric root plateReason for Removal:Significant cavity/area of decayComments:Tree Tag 14-4\n\t\t\n\t\t\n\t\t\tTree number:5Species:SweetgumTree Size (DBH):11Tree location:rear centerDescription of Tree:DeadReason for Removal:Dead treeComments:Tag 14-5, #3283\n\t\t\n\t\t\n\t\t\tTree number:6Species:Loblolly PineTree Size (DBH):32Tree location:rear leftDescription of Tree:Large Fusiform rusk trunk canker, sparse crownReason for Removal:Uncorrectable defectComments:Tree Tag 14-6, #3284\n\t\t\n\t\t\n\t\t\tTree number:7Species:Water OakTree Size (DBH):22Tree location:rear leftDescription of Tree:4 trunks, weak form \n(5\"/9\"/6\"/2\")Reason for Removal:Uncorrectable defectComments:Tree Tag 14-7\n\t\t\n\t\t\n\t\t\tTree number:8Species:SweetgumTree Size (DBH):10Tree location:rear leftDescription of Tree:2-trunk (4\"/6\"), growing at the base of Tree 14-9Reason for Removal:OtherComments:Crowded",
        "tree_number": "1",
        "species": "Loblolly Pine"
      },
      "geometry": {
        "type": "Point",
        "coordinates": [
          -84.521114473642,
          33.662546425713
        ]
      }
    },
    {
      "type": "Feature",
      "properties": {
        "record": "BA-202604610",
        "address": "3311 LANDINGS SOUTH DR SW, ATLANTA GA 30331",
        "status": "ACA Pending",
        "date": "09/13/2026",
        "description": null,
        "owner": null,
        "tree_dbh": "8",
        "tree_location": "Front right center",
        "reason_removal": "Dead tree",
        "tree_description": "Non-native, invasiveReason for Removal:Invasive/undesirable treeComments:Tree Tag 13-1\n\t\t\n\t\t\n\t\t\tTree number:2Species:PaulowniaTree Size (DBH):13Tree location:Front right centerDescription of Tree:Non-native, invasiveReason for Removal:Invasive/undesirable treeComments:Tree Tag 13-2\n\t\t\n\t\t\n\t\t\tTree number:3Species:SweetgumTree Size (DBH):25Tree location:rear rightDescription of Tree:4 large dead limbs, top dieback, heavy poison ivyReason for Removal:Dying treeComments:Tree Tag 13-3\n\t\t\n\t\t\n\t\t\tTree number:4Species:Water OakTree Size (DBH):10Tree location:Rear right centerDescription of Tree:Declining, trunk wound, PhytophthoraReason for Removal:Dying treeComments:Tree Tag 13-4\n\t\t\n\t\t\n\t\t\tTree number:5Species:SweetgumTree Size (DBH):14Tree location:right centerDescription of Tree:Top dieback, vinesReason for Removal:Dying treeComments:Tree Tag 13-5, #3255\n\t\t\n\t\t\n\t\t\tTree number:6Species:SweetgumTree Size (DBH):7Tree location:Rear middleDescription of Tree:Dead pole, poison ivyReason for Removal:Dead treeComments:Tree 13-6\n\t\t\n\t\n\t\n                                \n                            \n                        \n                    \n                        \n                            \n                                \n                                    \n                                        \n                                         Parcel Information\n                                \n                            \n                            \n                                \n                                    \n\t\tParcel Number:T14F0036  LL021 13 *Block:--Lot:--Subdivision:--",
        "tree_number": "1",
        "species": "Mimosa"
      },
      "geometry": {
        "type": "Point",
        "coordinates": [
          -84.521106635948,
          33.662447148186
        ]
      }
    },
    {
      "type": "Feature",
      "properties": {
        "record": "26TMP-060419",
        "address": "1676 FERNLEAF CIR NW, ATLANTA GA 30318",
        "status": "",
        "date": "09/13/2026",
        "description": null,
        "owner": null,
        "tree_dbh": null,
        "tree_location": null,
        "reason_removal": null,
        "tree_description": null,
        "tree_number": null,
        "species": null
      },
      "geometry": {
        "type": "Point",
        "coordinates": [
          -84.441041264906,
          33.820321461526
        ]
      }
    },
    {
      "type": "Feature",
      "properties": {
        "record": "BA-202604609",
        "address": "1307 BATTLE VIEW DR NW, ATLANTA GA 30327",
        "status": "Accepted",
        "date": "09/13/2026",
        "description": null,
        "owner": "Nicholas and Margaret Jefferies",
        "tree_dbh": "36",
        "tree_location": "rear left corner of home",
        "reason_removal": "Uncorrectable defect",
        "tree_description": "Within 5' of foundation, roots growing over walkway (trip hazard), Ganoderma conk, mistletoeReason for Removal:Uncorrectable defectComments:Multiple issues - moderate risk tree - see VTA report\n\t\t\n\t\n\t\n                                \n                            \n                        \n                    \n                        \n                            \n                                \n                                    \n                                        \n                                         Parcel Information\n                                \n                            \n                            \n                                \n                                    \n\t\tParcel Number:17 01950004021 *Block:--Lot:--Subdivision:--",
        "tree_number": "1",
        "species": "Water Oak"
      },
      "geometry": {
        "type": "Point",
        "coordinates": [
          -84.430436942118,
          33.824599636483
        ]
      }
    }
  ]
}