{
  "type": "FeatureCollection",
  "features": [
    {
      "type": "Feature",
      "properties": {
        "record": "BA-202604017",
        "address": "943 GATEWOOD CT NW, ATLANTA GA 30327",
        "status": "Accepted",
        "date": "08/17/2026",
        "description": null,
        "owner": null,
        "tree_dbh": "30",
        "tree_location": "front of home",
        "reason_removal": "Dead tree",
        "tree_description": "PicReason for Removal:Dead treeComments:DDH\n\t\t\n\t\n\t\n                                \n                            \n                        \n                    \n                        \n                            \n                                \n                                    \n                                        \n                                         Parcel Information\n                                \n                            \n                            \n                                \n                                    \n\t\tParcel Number:17 01810004044 *Block:--Lot:--Subdivision:--",
        "tree_number": "1",
        "species": "maple"
      },
      "geometry": {
        "type": "Point",
        "coordinates": [
          -84.418694190475,
          33.848904536098
        ]
      }
    },
    {
      "type": "Feature",
      "properties": {
        "record": "BA-202604009",
        "address": "153 BARKSDALE DR NE, ATLANTA GA 30309",
        "status": "Accepted",
        "date": "08/17/2026",
        "description": null,
        "owner": "Martha Spivey",
        "tree_dbh": "100",
        "tree_location": "Back left of lot",
        "reason_removal": "Significant cavity/area of decay",
        "tree_description": "Injured Poplar toward back left of lot.  Was already permitted a few years ago but now we have a tree removal company.Reason for Removal:Significant cavity/area of decay\n\t\t\n\t\n\t\n                                \n                            \n                        \n                    \n                        \n                            \n                                \n                                    \n                                        \n                                         Parcel Information\n                                \n                            \n                            \n                                \n                                    \n\t\tParcel Number:17 00550001049 *Block:--Lot:--Subdivision:--",
        "tree_number": "1",
        "species": "Poplar"
      },
      "geometry": {
        "type": "Point",
        "coordinates": [
          -84.377201330144,
          33.794404886655
        ]
      }
    },
    {
      "type": "Feature",
      "properties": {
        "record": "BA-202604030",
        "address": "2460 BAXTER RD SW, ATLANTA GA 30315",
        "status": "ACA Pending",
        "date": "08/17/2026",
        "description": null,
        "owner": null,
        "tree_dbh": null,
        "tree_location": null,
        "reason_removal": null,
        "tree_description": null,
        "tree_number": null,
        "species": null
      },
      "geometry": {
        "type": "Point",
        "coordinates": [
          -84.413141432606,
          33.687413964388
        ]
      }
    },
    {
      "type": "Feature",
      "properties": {
        "record": "26TMP-053815",
        "address": "370 BASS ST SW, ATLANTA GA 30310",
        "status": "",
        "date": "08/17/2026",
        "description": null,
        "owner": null,
        "tree_dbh": null,
        "tree_location": null,
        "reason_removal": null,
        "tree_description": null,
        "tree_number": null,
        "species": null
      },
      "geometry": {
        "type": "Point",
        "coordinates": [
          -84.400279591053,
          33.735593508271
        ]
      }
    },
    {
      "type": "Feature",
      "properties": {
        "record": "BA-202604016",
        "address": "591 ST CHARLES AVE NE, ATLANTA GA 30308",
        "status": "Accepted",
        "date": "08/17/2026",
        "description": null,
        "owner": null,
        "tree_dbh": "20",
        "tree_location": "Backyard",
        "reason_removal": "Diseased",
        "tree_description": "ganodermaReason for Removal:Diseased\n\t\t\n\t\n\t\n                                \n                            \n                        \n                    \n                        \n                            \n                                \n                                    \n                                        \n                                         Parcel Information\n                                \n                            \n                            \n                                \n                                    \n\t\tParcel Number:14 00480008066 *Block:--Lot:--Subdivision:--",
        "tree_number": "1",
        "species": "Mimosa"
      },
      "geometry": {
        "type": "Point",
        "coordinates": [
          -84.367994007094,
          33.77541294034
        ]
      }
    },
    {
      "type": "Feature",
      "properties": {
        "record": "BA-202604028",
        "address": "1391 JONESBORO RD SE, ATLANTA GA 30315",
        "status": "ACA Pending",
        "date": "08/17/2026",
        "description": null,
        "owner": null,
        "tree_dbh": null,
        "tree_location": null,
        "reason_removal": null,
        "tree_description": null,
        "tree_number": null,
        "species": null
      },
      "geometry": {
        "type": "Point",
        "coordinates": [
          -84.383961212047,
          33.716398906254
        ]
      }
    },
    {
      "type": "Feature",
      "properties": {
        "record": "BA-202604018",
        "address": "1221 CROSS CREEK PKWY NW, ATLANTA GA 30327",
        "status": "Accepted",
        "date": "08/17/2026",
        "description": null,
        "owner": "CROSS CREEK CONDOMINIUM ASSOC INC",
        "tree_dbh": "32",
        "tree_location": "19 Arpege",
        "reason_removal": "Uncorrectable defect",
        "tree_description": "32-in lightning struck poplar tree to the left and rear of number 19 arpege pictures show the lightning struck damage but also the tree has been infested by ambrosia beetles which will kill the tree. Reason for Removal:Uncorrectable defect\n\t\t\n\t\n\t\n                                \n                            \n                        \n                    \n                        \n                            \n                                \n                                    \n                                        \n                                         Parcel Information\n                                \n                            \n                            \n                                \n                                    \n\t\tParcel Number:17 0194  LL155 *Block:--Lot:--Subdivision:--",
        "tree_number": "1",
        "species": "Poplar"
      },
      "geometry": {
        "type": "Point",
        "coordinates": [
          -84.412344158611,
          33.814155076169
        ]
      }
    },
    {
      "type": "Feature",
      "properties": {
        "record": "BA-202604029",
        "address": "2840 ALPINE RD NE, ATLANTA GA 30305",
        "status": "ACA Pending",
        "date": "08/17/2026",
        "description": null,
        "owner": "Ashley Drumm",
        "tree_dbh": "16",
        "tree_location": "front left",
        "reason_removal": "Uncorrectable defect",
        "tree_description": "16in pine has extreme lean over adjacent property.Reason for Removal:Uncorrectable defect\n\t\t\n\t\t\n\t\t\tTree number:2Species:HackberryTree Size (DBH):15Tree location:front leftDescription of Tree:15in hackberry has extreme lean over adjacent property.Reason for Removal:Uncorrectable defect\n\t\t\n\t\n\t\n                                \n                            \n                        \n                    \n                        \n                            \n                                \n                                    \n                                        \n                                         Parcel Information\n                                \n                            \n                            \n                                \n                                    \n\t\tParcel Number:17 00600007080 *Block:--Lot:--Subdivision:--",
        "tree_number": "1",
        "species": "Hackberry"
      },
      "geometry": {
        "type": "Point",
        "coordinates": [
          -84.370345417178,
          33.832177842775
        ]
      }
    },
    {
      "type": "Feature",
      "properties": {
        "record": "BA-202604033",
        "address": "1792 WILLIS MILL RD SW, ATLANTA GA 30311",
        "status": "ACA Pending",
        "date": "08/17/2026",
        "description": null,
        "owner": null,
        "tree_dbh": "31",
        "tree_location": "back left",
        "reason_removal": "Dead tree",
        "tree_description": "deadReason for Removal:Dead tree\n\t\t\n\t\n\t\n                                \n                            \n                        \n                    \n                        \n                            \n                                \n                                    \n                                        \n                                         Parcel Information\n                                \n                            \n                            \n                                \n                                    \n\t\tParcel Number:14 02000001064 *Block:--Lot:--Subdivision:--",
        "tree_number": "1",
        "species": "poplar"
      },
      "geometry": {
        "type": "Point",
        "coordinates": [
          -84.468306388567,
          33.7063130308
        ]
      }
    },
    {
      "type": "Feature",
      "properties": {
        "record": "BA-202604005",
        "address": "2169 RANDO LN NW, ATLANTA GA 30318",
        "status": "Accepted",
        "date": "08/17/2026",
        "description": null,
        "owner": "Paco Trevino",
        "tree_dbh": "38",
        "tree_location": "Right side of driveway",
        "reason_removal": "Uncorrectable defect",
        "tree_description": "deemed destroyed by building permitReason for Removal:Uncorrectable defectComments:Orange paint\n\t\t\n\t\n\t\n                                \n                            \n                        \n                    \n                        \n                            \n                                \n                                    \n                                        \n                                         Parcel Information\n                                \n                            \n                            \n                                \n                                    \n\t\tParcel Number:17 02440007032 *Block:--Lot:--Subdivision:--",
        "tree_number": "1",
        "species": "Water Oak"
      },
      "geometry": {
        "type": "Point",
        "coordinates": [
          -84.456690843761,
          33.817660932681
        ]
      }
    },
    {
      "type": "Feature",
      "properties": {
        "record": "26TMP-053671",
        "address": "1436 LYNFORD DR SW, ATLANTA GA 30310",
        "status": "",
        "date": "08/17/2026",
        "description": null,
        "owner": null,
        "tree_dbh": null,
        "tree_location": null,
        "reason_removal": null,
        "tree_description": null,
        "tree_number": null,
        "species": null
      },
      "geometry": {
        "type": "Point",
        "coordinates": [
          -84.434674769205,
          33.723297994092
        ]
      }
    },
    {
      "type": "Feature",
      "properties": {
        "record": "BA-202604020",
        "address": "916 ROSEDALE RD NE, ATLANTA GA 30306",
        "status": "Accepted",
        "date": "08/17/2026",
        "description": null,
        "owner": "PAULSON MICHAEL SCOTT OR PAULSON MOLLY",
        "tree_dbh": "27",
        "tree_location": "Backyard",
        "reason_removal": "Dying tree",
        "tree_description": "left side backyardReason for Removal:Dying tree\n\t\t\n\t\n\t\n                                \n                            \n                        \n                    \n                        \n                            \n                                \n                                    \n                                        \n                                         Parcel Information\n                                \n                            \n                            \n                                \n                                    \n\t\tParcel Number:15 241 03 106 *Block:--Lot:--Subdivision:--",
        "tree_number": "1",
        "species": "Oak"
      },
      "geometry": {
        "type": "Point",
        "coordinates": [
          -84.348407890233,
          33.779628967909
        ]
      }
    },
    {
      "type": "Feature",
      "properties": {
        "record": "BA-202604034",
        "address": "1372 EASTGATE CT SE, ATLANTA GA 30316",
        "status": "ACA Pending",
        "date": "08/17/2026",
        "description": null,
        "owner": "WADE DONALD E OR FAKLA ILONA",
        "tree_dbh": "30",
        "tree_location": "back left",
        "reason_removal": "Uncorrectable defect",
        "tree_description": "Removal of the poplar located near the back left corner of the back yard. *Loss of leader from failure of tree from the neighbor’s property. Reason for Removal:Uncorrectable defect\n\t\t\n\t\n\t\n                                \n                            \n                        \n                    \n                        \n                            \n                                \n                                    \n                                        \n                                         Parcel Information\n                                \n                            \n                            \n                                \n                                    \n\t\tParcel Number:15 176 01 204 *Block:--Lot:--Subdivision:--",
        "tree_number": "2",
        "species": "poplar"
      },
      "geometry": {
        "type": "Point",
        "coordinates": [
          -84.343782985348,
          33.736398181715
        ]
      }
    },
    {
      "type": "Feature",
      "properties": {
        "record": "BA-202604027",
        "address": "2447 MAIN ST NW, ATLANTA GA 30318",
        "status": "ACA Pending",
        "date": "08/17/2026",
        "description": null,
        "owner": "GRANT JAMES CONLEY",
        "tree_dbh": "8",
        "tree_location": "Back of Home",
        "reason_removal": "Dying tree",
        "tree_description": "Hardwood TreeReason for Removal:Dying treeComments:This permit was approved on Friday 8/14/26 by Dylan. Adding here for record purposes.\n\t\t\n\t\t\n\t\t\tTree number:2Species:Box ElderTree Size (DBH):9.55Tree location:Back of HomeDescription of Tree:Hardwood TreeReason for Removal:Dying treeComments:This permit was approved on Friday 8/14/26 by Dylan. Adding here for record purposes.\n\t\t\n\t\t\n\t\t\tTree number:3Species:Box ElderTree Size (DBH):11.78Tree location:Back of HomeDescription of Tree:?Hardwood Tree",
        "tree_number": "1",
        "species": "Box Elder"
      },
      "geometry": {
        "type": "Point",
        "coordinates": [
          -84.468260864223,
          33.803643734602
        ]
      }
    },
    {
      "type": "Feature",
      "properties": {
        "record": "BA-202604011",
        "address": "1965 ROGERS AVE SW, ATLANTA GA 30310",
        "status": "Accepted",
        "date": "08/17/2026",
        "description": null,
        "owner": "JACKSON JOHN A",
        "tree_dbh": "42",
        "tree_location": "frt right corner",
        "reason_removal": "Diseased",
        "tree_description": null,
        "tree_number": "1",
        "species": "red oak"
      },
      "geometry": {
        "type": "Point",
        "coordinates": [
          -84.452086877009,
          33.737454682376
        ]
      }
    },
    {
      "type": "Feature",
      "properties": {
        "record": "BA-202604035",
        "address": "4115 PEACHTREE DUNWOODY RD NE, ATLANTA GA 30342",
        "status": "ACA Pending",
        "date": "08/17/2026",
        "description": null,
        "owner": null,
        "tree_dbh": "30",
        "tree_location": "NW corner of lot, next to driveway",
        "reason_removal": "Dying tree",
        "tree_description": "White oak on the northwestern corner of our property and next to our driveway that has multiple dead branches and appears to have been struck by lightning. Overhang's neighbor's driveway and is leaning toward their house.Reason for Removal:Dying tree\n\t\t\n\t\n\t\n                                \n                            \n                        \n                    \n                        \n                            \n                                \n                                    \n                                        \n                                         Parcel Information\n                                \n                            \n                            \n                                \n                                    \n\t\tParcel Number:17 00110001008 *Block:--Lot:--Subdivision:--",
        "tree_number": "1",
        "species": "White Oak"
      },
      "geometry": {
        "type": "Point",
        "coordinates": [
          -84.357839458573,
          33.867500131065
        ]
      }
    },
    {
      "type": "Feature",
      "properties": {
        "record": "BA-202604006",
        "address": "1577 SYLVAN RD SW, ATLANTA GA 30310",
        "status": "Accepted",
        "date": "08/17/2026",
        "description": null,
        "owner": "KAMANIA RAY",
        "tree_dbh": "50",
        "tree_location": "REAR YARD",
        "reason_removal": "Dying tree",
        "tree_description": "TALL OAK TREE IN REAR OF 1577 SYLVAN RD SWReason for Removal:Dying tree\n\t\t\n\t\n\t\n                                \n                            \n                        \n                    \n                        \n                            \n                                \n                                    \n                                        \n                                         Parcel Information\n                                \n                            \n                            \n                                \n                                    \n\t\tParcel Number:14 01210003117 *Block:--Lot:--Subdivision:--",
        "tree_number": "1",
        "species": "OAK"
      },
      "geometry": {
        "type": "Point",
        "coordinates": [
          -84.418225288579,
          33.711850561554
        ]
      }
    },
    {
      "type": "Feature",
      "properties": {
        "record": "BA-202604032",
        "address": "298 FERGUSON ST NE, ATLANTA GA 30307",
        "status": "ACA Pending",
        "date": "08/17/2026",
        "description": null,
        "owner": "SEIGEL MARK",
        "tree_dbh": "28",
        "tree_location": "back left",
        "reason_removal": "Dying tree",
        "tree_description": "** Remove 28 DBH Maple Tree – Rear Left Corner of Backyard",
        "tree_number": "1",
        "species": "maple"
      },
      "geometry": {
        "type": "Point",
        "coordinates": [
          -84.343316402916,
          33.762852971292
        ]
      }
    },
    {
      "type": "Feature",
      "properties": {
        "record": "BA-202604013",
        "address": "2134 MAIN ST NW, ATLANTA GA 30318",
        "status": "Accepted",
        "date": "08/17/2026",
        "description": null,
        "owner": "EARLE VICTOR R  ET AL",
        "tree_dbh": "38",
        "tree_location": "front yard",
        "reason_removal": "Dying tree",
        "tree_description": "Hypoxylon canker",
        "tree_number": "1",
        "species": "Hackberry"
      },
      "geometry": {
        "type": "Point",
        "coordinates": [
          -84.474169719134,
          33.813884292331
        ]
      }
    },
    {
      "type": "Feature",
      "properties": {
        "record": "26TMP-053631",
        "address": "681 YORKSHIRE RD NE, ATLANTA GA 30306",
        "status": "",
        "date": "08/17/2026",
        "description": null,
        "owner": null,
        "tree_dbh": null,
        "tree_location": null,
        "reason_removal": null,
        "tree_description": null,
        "tree_number": null,
        "species": null
      },
      "geometry": {
        "type": "Point",
        "coordinates": [
          -84.364651568871,
          33.795200222649
        ]
      }
    },
    {
      "type": "Feature",
      "properties": {
        "record": "BA-202604024",
        "address": "935 CUMBERLAND RD NE, ATLANTA GA 30306",
        "status": "ACA Pending",
        "date": "08/17/2026",
        "description": null,
        "owner": "D AMICO JENNIFER",
        "tree_dbh": "8",
        "tree_location": "front of house",
        "reason_removal": "Invasive/undesirable tree",
        "tree_description": "This tree is improperly placed causing severe crowding to the structure and utilities, also putting strain on the hardscape retaining wall at the root system.",
        "tree_number": "1",
        "species": "arborvitae"
      },
      "geometry": {
        "type": "Point",
        "coordinates": [
          -84.356246723275,
          33.795629258813
        ]
      }
    },
    {
      "type": "Feature",
      "properties": {
        "record": "BA-202604012",
        "address": "907 ARGONNE AVE NE, ATLANTA GA 30309",
        "status": "Accepted",
        "date": "08/17/2026",
        "description": null,
        "owner": "NINE ZERO SEVEN ARGONNE LLC",
        "tree_dbh": "30",
        "tree_location": "Back of BUilding",
        "reason_removal": "Dying tree",
        "tree_description": null,
        "tree_number": "3",
        "species": "IDK"
      },
      "geometry": {
        "type": "Point",
        "coordinates": [
          -84.377587207886,
          33.779309905251
        ]
      }
    },
    {
      "type": "Feature",
      "properties": {
        "record": "BA-202604000",
        "address": "504 PARKWAY DR NE, ATLANTA GA 30308",
        "status": "Issued",
        "date": "08/17/2026",
        "description": null,
        "owner": null,
        "tree_dbh": "36",
        "tree_location": "Front Courtyard",
        "reason_removal": "Significant cavity/area of decay",
        "tree_description": "36\" Water Oak, Front Courtyard, Greater than 30% Canopy Die-Back/Decay at BaseReason for Removal:Significant cavity/area of decay\n\t\t\n\t\n\t\n                                \n                            \n                        \n                    \n                        \n                            \n                                \n                                    \n                                        \n                                         Parcel Information\n                                \n                            \n                            \n                                \n                                    \n\t\tParcel Number:14 00470005005 *Block:--Lot:--Subdivision:--",
        "tree_number": "1",
        "species": "Water Oak"
      },
      "geometry": {
        "type": "Point",
        "coordinates": [
          -84.373210980124,
          33.768201479119
        ]
      }
    },
    {
      "type": "Feature",
      "properties": {
        "record": "BA-202604003",
        "address": "1448 MACKLONE ST NE, ATLANTA GA 30307",
        "status": "Accepted",
        "date": "08/17/2026",
        "description": null,
        "owner": "Cindy Caba",
        "tree_dbh": "10",
        "tree_location": "front yard near curb",
        "reason_removal": "Uncorrectable defect",
        "tree_description": "viny sweetgum growing alongside 2 other trees of the same species.Reason for Removal:Diseased\n\t\t\n\t\t\n\t\t\tTree number:2Species:sweetgumTree Size (DBH):8.78Tree location:right side yard Description of Tree:viny tree growing alongside 2 other trees same speciesReason for Removal:Diseased\n\t\t\n\t\t\n\t\t\tTree number:3Species:sweetgumTree Size (DBH):11.7Tree location:right side yardDescription of Tree:tree growing in a group with two of the same treesReason for Removal:Diseased\n\t\t\n\t\t\n\t\t\tTree number:4Species:sweetgumTree Size (DBH):11.7Tree location:front righ side yardDescription of Tree:tree is decayed and has damage to trunkReason for Removal:Significant cavity/area of decay\n\t\t\n\t\t\n\t\t\tTree number:5Species:sweetgumTree Size (DBH):6.44Tree location:front right yardDescription of Tree:tree covered in vines in conflict with house footprint.Reason for Removal:Invasive/undesirable tree\n\t\t\n\t\t\n\t\t\tTree number:6Species:PecanTree Size (DBH):5.85Tree location:front yard near curbDescription of Tree:tree is leaning and growing in a undesirable area of the yardReason for Removal:Uncorrectable defectComments:tree is a hazard due to it's location and potential to fall in a heavy storm\n\t\t\n\t\n\t\n                                \n                            \n                        \n                    \n                        \n                            \n                                \n                                    \n                                        \n                                         Parcel Information\n                                \n                            \n                            \n                                \n                                    \n\t\tParcel Number:15 209 02 007 *Block:--Lot:--Subdivision:--",
        "tree_number": "1",
        "species": "Pecan"
      },
      "geometry": {
        "type": "Point",
        "coordinates": [
          -84.340233505411,
          33.756040275779
        ]
      }
    },
    {
      "type": "Feature",
      "properties": {
        "record": "BA-202604025",
        "address": "1325 MONTE CARLO DR NW, ATLANTA GA 30327",
        "status": "ACA Pending",
        "date": "08/17/2026",
        "description": null,
        "owner": "Tom Fanning",
        "tree_dbh": "30",
        "tree_location": "Left side of driveway outside wall",
        "reason_removal": "Dead tree",
        "tree_description": "Dead Pine infested with pine bark beetleReason for Removal:Dead tree\n\t\t\n\t\n\t\n                                \n                            \n                        \n                    \n                        \n                            \n                                \n                                    \n                                        \n                                         Parcel Information\n                                \n                            \n                            \n                                \n                                    \n\t\tParcel Number:17 0201  LL030 *Block:--Lot:--Subdivision:--",
        "tree_number": "1",
        "species": "Pine"
      },
      "geometry": {
        "type": "Point",
        "coordinates": [
          -84.428187904482,
          33.873565669303
        ]
      }
    },
    {
      "type": "Feature",
      "properties": {
        "record": "BA-202604004",
        "address": "285 VALLEY RD NW, ATLANTA GA 30305",
        "status": "Accepted",
        "date": "08/17/2026",
        "description": null,
        "owner": null,
        "tree_dbh": null,
        "tree_location": null,
        "reason_removal": null,
        "tree_description": null,
        "tree_number": null,
        "species": null
      },
      "geometry": {
        "type": "Point",
        "coordinates": [
          -84.396731500574,
          33.856576585995
        ]
      }
    },
    {
      "type": "Feature",
      "properties": {
        "record": "BA-202604010",
        "address": "1455 HOSEA L WILLIAMS DR SE, ATLANTA GA 30317",
        "status": "Issued",
        "date": "08/17/2026",
        "description": null,
        "owner": "William and Judith keating",
        "tree_dbh": "38",
        "tree_location": "Front left next to sidewalk",
        "reason_removal": "Dead tree",
        "tree_description": null,
        "tree_number": "1",
        "species": "Oak"
      },
      "geometry": {
        "type": "Point",
        "coordinates": [
          -84.340286221127,
          33.753362993535
        ]
      }
    },
    {
      "type": "Feature",
      "properties": {
        "record": "BA-202604036",
        "address": "412 JAMES P BRAWLEY DR NW, ATLANTA GA 30314",
        "status": "ACA Pending",
        "date": "08/17/2026",
        "description": null,
        "owner": "The Park Brawley LLC",
        "tree_dbh": "12",
        "tree_location": "Rear Boundary of building",
        "reason_removal": "Dying tree",
        "tree_description": "Tree is on West boundary interlocked with a 26 in Hackberry both covered in vines and decayingReason for Removal:DiseasedComments:Invaded and Declining\n\t\t\n\t\t\n\t\t\tTree number:3Species:HackberryTree Size (DBH):26Tree location:West BoundaryDescription of Tree:Tree is on West boundary interlocked with a 12 in Hackberry both covered in vines and decayingReason for Removal:Invasive/undesirable treeComments:Tree is interlocked and covered in posion ivey vines and dead branches\n\t\t\n\t\t\n\t\t\tTree number:4Species:PeacnTree Size (DBH):36Tree location:Rear Boundary of buildingDescription of Tree:Tree has moss and ivey within canopy and branches falling off with termites in wood. Tree has signs of declineReason for Removal:Dying treeComments:Tree has moss and ivey within canopy and branches falling off with termites in wood. Tree has signd of decline\n\t\t\n\t\n\t\n                                \n                            \n                        \n                    \n                        \n                            \n                                \n                                    \n                                        \n                                         Parcel Information\n                                \n                            \n                            \n                                \n                                    \n\t\tParcel Number:14 01110008008 *Block:--Lot:--Subdivision:--",
        "tree_number": "2",
        "species": "Hackberry"
      },
      "geometry": {
        "type": "Point",
        "coordinates": [
          -84.412660651792,
          33.765319783319
        ]
      }
    },
    {
      "type": "Feature",
      "properties": {
        "record": "BA-202604031",
        "address": "1629 WELLSWOOD DR SE, ATLANTA GA 30315",
        "status": "ACA Pending",
        "date": "08/17/2026",
        "description": null,
        "owner": null,
        "tree_dbh": null,
        "tree_location": null,
        "reason_removal": null,
        "tree_description": null,
        "tree_number": null,
        "species": null
      },
      "geometry": {
        "type": "Point",
        "coordinates": [
          -84.356109280891,
          33.70994801502
        ]
      }
    },
    {
      "type": "Feature",
      "properties": {
        "record": "BA-202604002",
        "address": "2696 MEMORIAL DR SE, ATLANTA GA 30317",
        "status": "Accepted",
        "date": "08/17/2026",
        "description": null,
        "owner": "GORDON LOLA U",
        "tree_dbh": "30",
        "tree_location": "left side of the house",
        "reason_removal": "Significant cavity/area of decay",
        "tree_description": "apparant hollow and obvious torsion cracking Reason for Removal:Significant cavity/area of decay\n\t\t\n\t\n\t\n                                \n                            \n                        \n                    \n                        \n                            \n                                \n                                    \n                                        \n                                         Parcel Information\n                                \n                            \n                            \n                                \n                                    \n\t\tParcel Number:15 203 04 136 *Block:--Lot:--Subdivision:--",
        "tree_number": "1",
        "species": "Post Oak"
      },
      "geometry": {
        "type": "Point",
        "coordinates": [
          -84.298609362078,
          33.747199530127
        ]
      }
    },
    {
      "type": "Feature",
      "properties": {
        "record": "BA-202604026",
        "address": "18 WYMAN ST NE, ATLANTA GA 30317",
        "status": "ACA Pending",
        "date": "08/17/2026",
        "description": null,
        "owner": "MAPP SARAH",
        "tree_dbh": "26",
        "tree_location": "See site map",
        "reason_removal": "Uncorrectable defect",
        "tree_description": "None Reason for Removal:Uncorrectable defectComments:The tree has poor overall form and an asymmetrical canopy primarily supported by one dominant leader. A secondary leader contains multiple broken branches and breakouts in the upper canopy. Epicormic growth obscures an additional area of apparent damage or previous branch loss. An overextended scaffold branch extends toward the neighboring property, contributing to the uneven canopy distribution. A large, older mechanical wound and associated scarring are present beneath an old pruning site.\n\t\t\n\t\t\n\t\t\tTree number:11Species:Pecan Tree Size (DBH):28Tree location:See site map Description of Tree:None Reason for Removal:Uncorrectable defectComments:The tree has sustained the failure of a large competing leader, resulting in an extensive rip-out wound extending along the remaining stem. A separate leader in the upper canopy has also died or previously failed, leaving an additional area of exposed and deteriorating wood. These defects indicate a history of significant canopy breakage and reduced structural integrity.\n\t\t\n\t\n\t\n                                \n                            \n                        \n                    \n                        \n                            \n                                \n                                    \n                                        \n                                         Parcel Information\n                                \n                            \n                            \n                                \n                                    \n\t\tParcel Number:15 207 01 071 *Block:--Lot:--Subdivision:--",
        "tree_number": "10",
        "species": "Pecan"
      },
      "geometry": {
        "type": "Point",
        "coordinates": [
          -84.333179048971,
          33.753728285085
        ]
      }
    },
    {
      "type": "Feature",
      "properties": {
        "record": "BA-202604021",
        "address": "2983 BAKER RIDGE DR NW, ATLANTA GA 30318",
        "status": "Accepted",
        "date": "08/17/2026",
        "description": null,
        "owner": "Xiaotian Gu",
        "tree_dbh": "75",
        "tree_location": "back drive way",
        "reason_removal": "Dead tree",
        "tree_description": "deadReason for Removal:Dead tree\n\t\t\n\t\n\t\n                                \n                            \n                        \n                    \n                        \n                            \n                                \n                                    \n                                        \n                                         Parcel Information\n                                \n                            \n                            \n                                \n                                    \n\t\tParcel Number:14 02390001012 *Block:--Lot:--Subdivision:--",
        "tree_number": "1",
        "species": "oak"
      },
      "geometry": {
        "type": "Point",
        "coordinates": [
          -84.485492074113,
          33.765726575279
        ]
      }
    },
    {
      "type": "Feature",
      "properties": {
        "record": "BA-202603999",
        "address": "682 CATHERINE ST SW, ATLANTA GA 30310",
        "status": "Accepted",
        "date": "08/17/2026",
        "description": null,
        "owner": "ALEXANDRE GLADYS HISTORICAL DISTRICT",
        "tree_dbh": "36",
        "tree_location": "Back yard, right, by fence.",
        "reason_removal": "Uncorrectable defect",
        "tree_description": "This elm has codominant stems with included bark and poor structural form that cannot be effectively corrected. Due to the unbalanced canopy and elevated risk of stem splitting, the tree presents a significant hazard to adjacent homes, the deck, backyard, and neighboring property.Reason for Removal:Uncorrectable defect\n\t\t\n\t\n\t\n                                \n                            \n                        \n                    \n                        \n                            \n                                \n                                    \n                                        \n                                         Parcel Information\n                                \n                            \n                            \n                                \n                                    \n\t\tParcel Number:14 01060013008 *Block:--Lot:--Subdivision:--",
        "tree_number": "1",
        "species": "Elm"
      },
      "geometry": {
        "type": "Point",
        "coordinates": [
          -84.409288940221,
          33.72585148511
        ]
      }
    },
    {
      "type": "Feature",
      "properties": {
        "record": "BA-202604014",
        "address": "650 WEST PACES FERRY RD NW, ATLANTA GA 30327",
        "status": "Accepted",
        "date": "08/17/2026",
        "description": null,
        "owner": "David D Marvin Revocable Trust",
        "tree_dbh": "12",
        "tree_location": "Near Northside WPF intersection",
        "reason_removal": "Dead tree",
        "tree_description": null,
        "tree_number": "1",
        "species": "pine"
      },
      "geometry": {
        "type": "Point",
        "coordinates": [
          -84.408820065815,
          33.847826971385
        ]
      }
    },
    {
      "type": "Feature",
      "properties": {
        "record": "BA-202604022",
        "address": "353 ELMIRA PL NE, ATLANTA GA 30307",
        "status": "Issued",
        "date": "08/17/2026",
        "description": null,
        "owner": null,
        "tree_dbh": null,
        "tree_location": null,
        "reason_removal": null,
        "tree_description": null,
        "tree_number": null,
        "species": null
      },
      "geometry": {
        "type": "Point",
        "coordinates": [
          -84.346799184333,
          33.763957911936
        ]
      }
    },
    {
      "type": "Feature",
      "properties": {
        "record": "BA-202604019",
        "address": "630 TUXEDO PL NW, ATLANTA GA 30342",
        "status": "Accepted",
        "date": "08/17/2026",
        "description": null,
        "owner": null,
        "tree_dbh": "12",
        "tree_location": "far back end of back yard",
        "reason_removal": "Dead tree",
        "tree_description": "Picture of treeReason for Removal:Dead tree\n\t\t\n\t\n\t\n                                \n                            \n                        \n                    \n                        \n                            \n                                \n                                    \n                                        \n                                         Parcel Information\n                                \n                            \n                            \n                                \n                                    \n\t\tParcel Number:17 0160  LL092 *Block:--Lot:--Subdivision:--",
        "tree_number": "1",
        "species": "Elm"
      },
      "geometry": {
        "type": "Point",
        "coordinates": [
          -84.40764543055,
          33.868318724611
        ]
      }
    },
    {
      "type": "Feature",
      "properties": {
        "record": "BA-202604008",
        "address": "1800 GARRAUX RD NW, ATLANTA GA 30327",
        "status": "Accepted",
        "date": "08/17/2026",
        "description": null,
        "owner": "Thaddeus Wilson",
        "tree_dbh": "12",
        "tree_location": "Front Yard",
        "reason_removal": "Other",
        "tree_description": "Maple was planted when house was built.  Ornamental Reason for Removal:OtherComments:Needs to be removed because emergency repairs and new septic system installation given failure of existing septic system.\n\t\t\n\t\t\n\t\t\tTree number:2Species:UnknownTree Size (DBH):6Tree location:Front yardDescription of Tree:Skinny tree in picturesReason for Removal:OtherComments:Needs to be removed because emergency repairs and new septic system installation given failure of existing septic system.\n\t\t\n\t\t\n\t\t\tTree number:3Species:Holly bushTree Size (DBH):0Tree location:Front yardDescription of Tree:Don't think permit is needed on this but adding out of an abundance of caution.Reason for Removal:OtherComments:Needs to be partially removed because emergency repairs and new septic system installation given failure of existing septic system.\n\t\t\n\t\t\n\t\t\tTree number:4Species:UnknownTree Size (DBH):10Tree location:Front yardDescription of Tree:ivy growing up trunk. curved at about 8 ft off the groundReason for Removal:OtherComments:Needs to be removed because emergency repairs and new septic system installation given failure of existing septic system.\n\t\t\n\t\t\n\t\t\tTree number:5Species:unknownTree Size (DBH):20Tree location:Front YardDescription of Tree:next to yellow flag in picture (ending 9914).  largest girth of trees that will need to be removed.Reason for Removal:OtherComments:Needs to be removed because emergency repairs and new septic system installation given failure of existing septic system.\n\t\t\n\t\n\t\n                                \n                            \n                        \n                    \n                        \n                            \n                                \n                                    \n                                        \n                                         Parcel Information\n                                \n                            \n                            \n                                \n                                    \n\t\tParcel Number:17 0217  LL118 *Block:--Lot:--Subdivision:--",
        "tree_number": "1",
        "species": "Maple"
      },
      "geometry": {
        "type": "Point",
        "coordinates": [
          -84.447314605075,
          33.853840574109
        ]
      }
    },
    {
      "type": "Feature",
      "properties": {
        "record": "BA-202604001",
        "address": "892 AMSTERDAM AVE NE, ATLANTA GA 30306",
        "status": "Accepted",
        "date": "08/17/2026",
        "description": null,
        "owner": "FENNELL VALERIE I",
        "tree_dbh": "44",
        "tree_location": "Rear center",
        "reason_removal": "Other",
        "tree_description": "Tree is in close proximity to home and majority of scaffold limbs extend over roof. Limbs have fallen in the past. Tree has been maintained with pruning and raising the canopy, but not viable to continue due to amount of canopy that would be lost.",
        "tree_number": "1",
        "species": "Tulip poplar"
      },
      "geometry": {
        "type": "Point",
        "coordinates": [
          -84.357794128623,
          33.787657995212
        ]
      }
    }
  ]
}