{
  "type": "FeatureCollection",
  "features": [
    {
      "type": "Feature",
      "properties": {
        "record": "26TMP-049469",
        "address": "4438 KIMBALL RD SW, ATLANTA GA 30331",
        "status": "",
        "date": "07/30/2026",
        "description": null,
        "owner": null,
        "tree_dbh": null,
        "tree_location": null,
        "reason_removal": null,
        "tree_description": null,
        "tree_number": null,
        "species": null
      },
      "geometry": {
        "type": "Point",
        "coordinates": [
          -84.53253315882,
          33.68904005071
        ]
      }
    },
    {
      "type": "Feature",
      "properties": {
        "record": "26TMP-035355",
        "address": "659 HAMILTON E HOLMES DR NW, ATLANTA GA 30318",
        "status": "",
        "date": "07/30/2026",
        "description": null,
        "owner": null,
        "tree_dbh": null,
        "tree_location": null,
        "reason_removal": null,
        "tree_description": null,
        "tree_number": null,
        "species": null
      },
      "geometry": {
        "type": "Point",
        "coordinates": [
          -84.47349942144,
          33.773033294461
        ]
      }
    },
    {
      "type": "Feature",
      "properties": {
        "record": "BA-202603616",
        "address": "1125 PONCE DE LEON AVE NE, ATLANTA GA 30306",
        "status": "Accepted",
        "date": "07/30/2026",
        "description": null,
        "owner": "SALVATION ARMY U M BOOTH TOWER THE",
        "tree_dbh": "18",
        "tree_location": "The tree is located directly to the east of an existing multifamily residential structure, and is bordered on its other side by an additional structure.",
        "reason_removal": "Diseased",
        "tree_description": "The tree meets the DDH criteria with extensive decay and trunk structural instability. The tree has a major split with included bark with the northern leader having been previously broken, the leader has decayed and there is no evidence that the tree has successfully contained said decay from spreading through the tree. In addition there are fruiting bodies emerging from the tree’s root base indicating that there is a high likelihood that decay has spread to the root base. Reason for Removal:DiseasedComments:The tree description in combination with the trees proximity to the building in a high traffic area structure increases the trees risk factor and warrants DDH status.\n\t\t\n\t\n\t\n                                \n                            \n                        \n                    \n                        \n                            \n                                \n                                    \n                                        \n                                         Parcel Information\n                                \n                            \n                            \n                                \n                                    \n\t\tParcel Number:14 00160013080 *Block:--Lot:--Subdivision:--",
        "tree_number": "17",
        "species": "Acer rubrum"
      },
      "geometry": {
        "type": "Point",
        "coordinates": [
          -84.350595916097,
          33.773778037491
        ]
      }
    },
    {
      "type": "Feature",
      "properties": {
        "record": "BA-202603605",
        "address": "196 MONTGOMERY FERRY DR NE, ATLANTA GA 30309",
        "status": "Accepted",
        "date": "07/30/2026",
        "description": null,
        "owner": null,
        "tree_dbh": null,
        "tree_location": null,
        "reason_removal": null,
        "tree_description": null,
        "tree_number": null,
        "species": null
      },
      "geometry": {
        "type": "Point",
        "coordinates": [
          -84.375375249922,
          33.800294415488
        ]
      }
    },
    {
      "type": "Feature",
      "properties": {
        "record": "BA-202603608",
        "address": "1870 SPRING AVE NW, ATLANTA GA 30318",
        "status": "Accepted",
        "date": "07/30/2026",
        "description": null,
        "owner": null,
        "tree_dbh": null,
        "tree_location": null,
        "reason_removal": null,
        "tree_description": null,
        "tree_number": null,
        "species": null
      },
      "geometry": {
        "type": "Point",
        "coordinates": [
          -84.449129641604,
          33.806234098405
        ]
      }
    },
    {
      "type": "Feature",
      "properties": {
        "record": "BA-202603625",
        "address": "450 LANGHORN ST SW, ATLANTA GA 30310",
        "status": "Accepted",
        "date": "07/30/2026",
        "description": null,
        "owner": null,
        "tree_dbh": null,
        "tree_location": null,
        "reason_removal": null,
        "tree_description": null,
        "tree_number": null,
        "species": null
      },
      "geometry": {
        "type": "Point",
        "coordinates": [
          -84.432314293673,
          33.742345946101
        ]
      }
    },
    {
      "type": "Feature",
      "properties": {
        "record": "BA-202603615",
        "address": "2840 CAREYGATE NW, ATLANTA GA 30305",
        "status": "Accepted",
        "date": "07/30/2026",
        "description": null,
        "owner": null,
        "tree_dbh": null,
        "tree_location": null,
        "reason_removal": null,
        "tree_description": null,
        "tree_number": null,
        "species": null
      },
      "geometry": {
        "type": "Point",
        "coordinates": [
          -84.398667073022,
          33.831811890848
        ]
      }
    },
    {
      "type": "Feature",
      "properties": {
        "record": "BA-202603606",
        "address": "3575 PIEDMONT RD NE, ATLANTA GA 30305",
        "status": "Accepted",
        "date": "07/30/2026",
        "description": null,
        "owner": null,
        "tree_dbh": null,
        "tree_location": null,
        "reason_removal": null,
        "tree_description": null,
        "tree_number": null,
        "species": null
      },
      "geometry": {
        "type": "Point",
        "coordinates": [
          -84.381308232278,
          33.853151439824
        ]
      }
    },
    {
      "type": "Feature",
      "properties": {
        "record": "BA-202603623",
        "address": "611 ATLANTA AVE SE, ATLANTA GA 30312",
        "status": "Accepted",
        "date": "07/30/2026",
        "description": null,
        "owner": null,
        "tree_dbh": null,
        "tree_location": null,
        "reason_removal": null,
        "tree_description": null,
        "tree_number": null,
        "species": null
      },
      "geometry": {
        "type": "Point",
        "coordinates": [
          -84.367465197792,
          33.730360651176
        ]
      }
    },
    {
      "type": "Feature",
      "properties": {
        "record": "BA-202603600",
        "address": "690 PARK DR NE, ATLANTA GA 30306",
        "status": "Accepted",
        "date": "07/30/2026",
        "description": null,
        "owner": null,
        "tree_dbh": null,
        "tree_location": null,
        "reason_removal": null,
        "tree_description": null,
        "tree_number": null,
        "species": null
      },
      "geometry": {
        "type": "Point",
        "coordinates": [
          -84.364054293638,
          33.784549019582
        ]
      }
    },
    {
      "type": "Feature",
      "properties": {
        "record": "BA-202603622",
        "address": "3838 BAKERS FERRY RD SW, ATLANTA GA 30331",
        "status": "Accepted",
        "date": "07/30/2026",
        "description": null,
        "owner": null,
        "tree_dbh": null,
        "tree_location": null,
        "reason_removal": null,
        "tree_description": null,
        "tree_number": null,
        "species": null
      },
      "geometry": {
        "type": "Point",
        "coordinates": [
          -84.514788365627,
          33.758285502323
        ]
      }
    },
    {
      "type": "Feature",
      "properties": {
        "record": "BA-202603611",
        "address": "1278 DANNER ST SE, ATLANTA GA 30316",
        "status": "Accepted",
        "date": "07/30/2026",
        "description": null,
        "owner": null,
        "tree_dbh": null,
        "tree_location": null,
        "reason_removal": null,
        "tree_description": null,
        "tree_number": null,
        "species": null
      },
      "geometry": {
        "type": "Point",
        "coordinates": [
          -84.352209580256,
          33.719410634895
        ]
      }
    },
    {
      "type": "Feature",
      "properties": {
        "record": "BA-202603626",
        "address": "1310 MONROE DR NE, ATLANTA GA 30306",
        "status": "Accepted",
        "date": "07/30/2026",
        "description": null,
        "owner": null,
        "tree_dbh": null,
        "tree_location": null,
        "reason_removal": null,
        "tree_description": null,
        "tree_number": null,
        "species": null
      },
      "geometry": {
        "type": "Point",
        "coordinates": [
          -84.367224186701,
          33.790539334802
        ]
      }
    },
    {
      "type": "Feature",
      "properties": {
        "record": "BA-202603603",
        "address": "804 SHADOWRIDGE DR SE, ATLANTA GA 30316",
        "status": "Accepted",
        "date": "07/30/2026",
        "description": null,
        "owner": null,
        "tree_dbh": null,
        "tree_location": null,
        "reason_removal": null,
        "tree_description": null,
        "tree_number": null,
        "species": null
      },
      "geometry": {
        "type": "Point",
        "coordinates": [
          -84.343515361268,
          33.732549259531
        ]
      }
    },
    {
      "type": "Feature",
      "properties": {
        "record": "BA-202603624",
        "address": "450 LANGHORN ST SW, ATLANTA GA 30310",
        "status": "Accepted",
        "date": "07/30/2026",
        "description": null,
        "owner": null,
        "tree_dbh": null,
        "tree_location": null,
        "reason_removal": null,
        "tree_description": null,
        "tree_number": null,
        "species": null
      },
      "geometry": {
        "type": "Point",
        "coordinates": [
          -84.432314293673,
          33.742345946101
        ]
      }
    },
    {
      "type": "Feature",
      "properties": {
        "record": "BA-202603629",
        "address": "3100 ATLANTA INDUSTRIAL PKWY NW, ATLANTA GA 30331",
        "status": "Accepted",
        "date": "07/30/2026",
        "description": null,
        "owner": null,
        "tree_dbh": null,
        "tree_location": null,
        "reason_removal": null,
        "tree_description": null,
        "tree_number": null,
        "species": null
      },
      "geometry": {
        "type": "Point",
        "coordinates": [
          -84.496789241558,
          33.790967649826
        ]
      }
    },
    {
      "type": "Feature",
      "properties": {
        "record": "BA-202603613",
        "address": "4234 HARROGATE DR NW, ATLANTA GA 30327",
        "status": "Accepted",
        "date": "07/30/2026",
        "description": null,
        "owner": null,
        "tree_dbh": null,
        "tree_location": null,
        "reason_removal": null,
        "tree_description": null,
        "tree_number": null,
        "species": null
      },
      "geometry": {
        "type": "Point",
        "coordinates": [
          -84.415497683303,
          33.870741847068
        ]
      }
    },
    {
      "type": "Feature",
      "properties": {
        "record": "BA-202603610",
        "address": "69 HONOUR CIR NW, ATLANTA GA 0",
        "status": "Accepted",
        "date": "07/30/2026",
        "description": null,
        "owner": null,
        "tree_dbh": null,
        "tree_location": null,
        "reason_removal": null,
        "tree_description": null,
        "tree_number": null,
        "species": null
      },
      "geometry": {
        "type": "Point",
        "coordinates": [
          -84.386288123887,
          33.852807776941
        ]
      }
    },
    {
      "type": "Feature",
      "properties": {
        "record": "26TMP-049632",
        "address": "606 WEST WESLEY RD NW, ATLANTA GA 30327",
        "status": "",
        "date": "07/30/2026",
        "description": null,
        "owner": null,
        "tree_dbh": null,
        "tree_location": null,
        "reason_removal": null,
        "tree_description": null,
        "tree_number": null,
        "species": null
      },
      "geometry": {
        "type": "Point",
        "coordinates": [
          -84.40769022536,
          33.828650253666
        ]
      }
    },
    {
      "type": "Feature",
      "properties": {
        "record": "BA-202603627",
        "address": "538 MORGAN ST NE, ATLANTA GA 30308",
        "status": "Accepted",
        "date": "07/30/2026",
        "description": null,
        "owner": null,
        "tree_dbh": null,
        "tree_location": null,
        "reason_removal": null,
        "tree_description": null,
        "tree_number": null,
        "species": null
      },
      "geometry": {
        "type": "Point",
        "coordinates": [
          -84.369018462773,
          33.769197423991
        ]
      }
    },
    {
      "type": "Feature",
      "properties": {
        "record": "BA-202603612",
        "address": "2011 SPRINGLAKE DR NW, ATLANTA GA 30305",
        "status": "Accepted",
        "date": "07/30/2026",
        "description": null,
        "owner": null,
        "tree_dbh": null,
        "tree_location": null,
        "reason_removal": null,
        "tree_description": null,
        "tree_number": null,
        "species": null
      },
      "geometry": {
        "type": "Point",
        "coordinates": [
          -84.411064563523,
          33.810307370014
        ]
      }
    },
    {
      "type": "Feature",
      "properties": {
        "record": "BA-202603601",
        "address": "4045 ARDEN WAY NE, ATLANTA GA 30342",
        "status": "Accepted",
        "date": "07/30/2026",
        "description": null,
        "owner": null,
        "tree_dbh": null,
        "tree_location": null,
        "reason_removal": null,
        "tree_description": null,
        "tree_number": null,
        "species": null
      },
      "geometry": {
        "type": "Point",
        "coordinates": [
          -84.364324713157,
          33.866195889736
        ]
      }
    },
    {
      "type": "Feature",
      "properties": {
        "record": "BA-202603614",
        "address": "2246 POLAR ROCK TER SW, ATLANTA GA 30315",
        "status": "Accepted",
        "date": "07/30/2026",
        "description": null,
        "owner": "MALANGA ALBERT A JR",
        "tree_dbh": "23",
        "tree_location": "back right",
        "reason_removal": "Other",
        "tree_description": "1 double trunked Cherry tree covered in ivy that is leaning towards the neighbor's propertyReason for Removal:OtherComments:Homeowner wants to remove the tree to avoid issues with the neighbor\n\t\t\n\t\n\t\n                                \n                            \n                        \n                    \n                        \n                            \n                                \n                                    \n                                        \n                                         Parcel Information\n                                \n                            \n                            \n                                \n                                    \n\t\tParcel Number:14 00700007053 *Block:--Lot:--Subdivision:--",
        "tree_number": "1",
        "species": "Cherry"
      },
      "geometry": {
        "type": "Point",
        "coordinates": [
          -84.394718362672,
          33.692930529644
        ]
      }
    },
    {
      "type": "Feature",
      "properties": {
        "record": "BA-202603609",
        "address": "199 EAST LAKE DR SE, ATLANTA GA 30317",
        "status": "Accepted",
        "date": "07/30/2026",
        "description": null,
        "owner": "BERNARD IVY MAY OR BROWN KESIME",
        "tree_dbh": "40",
        "tree_location": "right front of entranceway",
        "reason_removal": "Unpermitted destruction",
        "tree_description": "old saying and covered with ivyReason for Removal:Dead tree\n\t\t\n\t\t\n\t\t\tTree number:2Species:oakTree Size (DBH):100Tree location:right front of entrancewayDescription of Tree:roots exposed by city of Atlanta workers doing sidewalk; tree now very dangerousReason for Removal:Unpermitted destruction\n\t\t\n\t\n\t\n                                \n                            \n                        \n                    \n                        \n                            \n                                \n                                    \n                                        \n                                         Parcel Information\n                                \n                            \n                            \n                                \n                                    \n\t\tParcel Number:15 204 04 117 *Block:--Lot:--Subdivision:--",
        "tree_number": "1",
        "species": "old oak"
      },
      "geometry": {
        "type": "Point",
        "coordinates": [
          -84.302646775455,
          33.747252666997
        ]
      }
    },
    {
      "type": "Feature",
      "properties": {
        "record": "BA-202603628",
        "address": "1374 PASADENA AVE NE, ATLANTA GA 30306",
        "status": "Accepted",
        "date": "07/30/2026",
        "description": null,
        "owner": "Kristen Starbuck",
        "tree_dbh": "28",
        "tree_location": "Back left close to left fence line.",
        "reason_removal": "Significant cavity/area of decay",
        "tree_description": "Tree canopy is dying back.Reason for Removal:Dying tree\n\t\t\n\t\t\n\t\t\tTree number:2Species:Loblolly PineTree Size (DBH):25Tree location:Back left close to left fence line.Description of Tree:Tree has extensive basal decay with fungal bracket present and ooze.Reason for Removal:Significant cavity/area of decay\n\t\t\n\t\n\t\n                                \n                            \n                        \n                    \n                        \n                            \n                                \n                                    \n                                        \n                                         Parcel Information\n                                \n                            \n                            \n                                \n                                    \n\t\tParcel Number:18 056 01 058 *Block:--Lot:--Subdivision:--",
        "tree_number": "1",
        "species": "Poplar"
      },
      "geometry": {
        "type": "Point",
        "coordinates": [
          -84.342398302492,
          33.799567701383
        ]
      }
    },
    {
      "type": "Feature",
      "properties": {
        "record": "BA-202603602",
        "address": "996 WYLIE ST SE, ATLANTA GA 30316",
        "status": "Accepted",
        "date": "07/30/2026",
        "description": null,
        "owner": "Liam Homes",
        "tree_dbh": "20",
        "tree_location": "Back",
        "reason_removal": "Dying tree",
        "tree_description": "Sapwood decay in main trunksReason for Removal:Significant cavity/area of decayComments:Orange paint\n\t\t\n\t\t\n\t\t\tTree number:2Species:PhotiniaTree Size (DBH):21Tree location:Back rightDescription of Tree:Sapwood decay in main trunksReason for Removal:Significant cavity/area of decayComments:Orange paint\n\t\t\n\t\t\n\t\t\tTree number:3Species:PhotiniaTree Size (DBH):21Tree location:Back Description of Tree:Sapwood decay in main trunksReason for Removal:Significant cavity/area of decayComments:Orange paint\n\t\t\n\t\t\n\t\t\tTree number:4Species:Tree of HeavanTree Size (DBH):26Tree location:Back leftDescription of Tree:Undesirable speciesReason for Removal:Invasive/undesirable treeComments:Orange paint\n\t\t\n\t\t\n\t\t\tTree number:5Species:Flowering cherryTree Size (DBH):15Tree location:Back Description of Tree:Damage and infection in main trunk, tip dieback in upper canopy, poor healthReason for Removal:Dying treeComments:Orange paint\n\t\t\n\t\n\t\n                                \n                            \n                        \n                    \n                        \n                            \n                                \n                                    \n                                        \n                                         Parcel Information\n                                \n                            \n                            \n                                \n                                    \n\t\tParcel Number:14 00130002044 *Block:--Lot:--Subdivision:--",
        "tree_number": "1",
        "species": "Flowering cherry"
      },
      "geometry": {
        "type": "Point",
        "coordinates": [
          -84.354534740181,
          33.752533768061
        ]
      }
    },
    {
      "type": "Feature",
      "properties": {
        "record": "BA-202603607",
        "address": "4770 PARAN VALLEY NW, ATLANTA GA 30327",
        "status": "Accepted",
        "date": "07/30/2026",
        "description": null,
        "owner": "Eric and Allender Durden",
        "tree_dbh": "40",
        "tree_location": "by the driveway close to the street",
        "reason_removal": "Dead tree",
        "tree_description": "An arborist came out and said there was an insect that had infested the tree , the smooth spots on the bark showed a disease, and that the tree is completely dead.  Reason for Removal:Dead treeComments:A very large tree also got uprooted next to it two summers ago.  \n\t\t\n\t\n\t\n                                \n                            \n                        \n                    \n                        \n                            \n                                \n                                    \n                                        \n                                         Parcel Information\n                                \n                            \n                            \n                                \n                                    \n\t\tParcel Number:17 01370006003 *Block:--Lot:--Subdivision:--",
        "tree_number": "1",
        "species": "oak?"
      },
      "geometry": {
        "type": "Point",
        "coordinates": [
          -84.402354883999,
          33.885112279186
        ]
      }
    },
    {
      "type": "Feature",
      "properties": {
        "record": "BA-202603604",
        "address": "1025 REEDER CIR NE, ATLANTA GA 30306",
        "status": "Accepted",
        "date": "07/30/2026",
        "description": null,
        "owner": null,
        "tree_dbh": "31",
        "tree_location": "front of home",
        "reason_removal": "Dying tree",
        "tree_description": "Decline in excess of 40%Reason for Removal:Dying tree\n\t\t\n\t\n\t\n                                \n                            \n                        \n                    \n                        \n                            \n                                \n                                    \n                                        \n                                         Parcel Information\n                                \n                            \n                            \n                                \n                                    \n\t\tParcel Number:17 00020003006 *Block:--Lot:--Subdivision:--",
        "tree_number": "1",
        "species": "white oak"
      },
      "geometry": {
        "type": "Point",
        "coordinates": [
          -84.353193735263,
          33.795052095142
        ]
      }
    },
    {
      "type": "Feature",
      "properties": {
        "record": "BA-202603621",
        "address": "630 BROADLAND RD NW, ATLANTA GA 30327",
        "status": "Issued",
        "date": "07/30/2026",
        "description": "DDH approval of cherrylaurels",
        "owner": null,
        "tree_dbh": null,
        "tree_location": null,
        "reason_removal": null,
        "tree_description": null,
        "tree_number": null,
        "species": null
      },
      "geometry": {
        "type": "Point",
        "coordinates": [
          -84.408990322746,
          33.863170165718
        ]
      }
    },
    {
      "type": "Feature",
      "properties": {
        "record": "BA-202603620",
        "address": "207 LAKE FORREST LN NE, ATLANTA GA 30342",
        "status": "Issued",
        "date": "07/30/2026",
        "description": "DDH approval of Leyland cypress",
        "owner": null,
        "tree_dbh": "8",
        "tree_location": "Left of drive",
        "reason_removal": "Invasive/undesirable tree",
        "tree_description": null,
        "tree_number": "1",
        "species": "Leyland cypress"
      },
      "geometry": {
        "type": "Point",
        "coordinates": [
          -84.382833199748,
          33.873641656606
        ]
      }
    }
  ]
}