{
  "type": "FeatureCollection",
  "features": [
    {
      "type": "Feature",
      "properties": {
        "record": "BA-202604822",
        "address": "1344 OAKCREST DR SW, ATLANTA GA 30311",
        "status": "Accepted",
        "date": "09/21/2026",
        "description": null,
        "owner": "Terri McCoy",
        "tree_dbh": "18",
        "tree_location": "left side of the driveway in the front yard",
        "reason_removal": "Dying tree",
        "tree_description": "Dying tree",
        "tree_number": "1",
        "species": "pine",
        "comments": null,
        "tree_count": 6,
        "trees": [
          {
            "tree_number": "1",
            "species": "pine",
            "tree_dbh": "18",
            "tree_location": "left side of the driveway in the front yard",
            "tree_description": "Dying tree",
            "reason_removal": "Dying tree",
            "comments": null
          },
          {
            "tree_number": "2",
            "species": "sweetgum",
            "tree_dbh": "20.5",
            "tree_location": "right rear",
            "tree_description": "Dying tree",
            "reason_removal": "Dying tree",
            "comments": null
          },
          {
            "tree_number": "3",
            "species": "Pine",
            "tree_dbh": "24.5",
            "tree_location": "right rear close to house",
            "tree_description": "Dying tree/dangerous tree near the house",
            "reason_removal": "Dying tree",
            "comments": null
          },
          {
            "tree_number": "4",
            "species": "Pine",
            "tree_dbh": "27.5",
            "tree_location": "center of the front yard",
            "tree_description": "Dying tree/dangerous tree near the house",
            "reason_removal": "Other",
            "comments": null
          },
          {
            "tree_number": "5",
            "species": "pine",
            "tree_dbh": "35",
            "tree_location": "left rear close to the house",
            "tree_description": "Dying tree",
            "reason_removal": "Dying tree",
            "comments": null
          },
          {
            "tree_number": "6",
            "species": "Pine",
            "tree_dbh": "15.9",
            "tree_location": "left rear",
            "tree_description": "Leaning tree",
            "reason_removal": "Uncorrectable defect",
            "comments": null
          }
        ]
      },
      "geometry": {
        "type": "Point",
        "coordinates": [
          -84.495208114071,
          33.723460235596
        ]
      }
    },
    {
      "type": "Feature",
      "properties": {
        "record": "BA-202604800",
        "address": "1095 SIMS ST SW, ATLANTA GA 30310",
        "status": "Accepted",
        "date": "09/21/2026",
        "description": null,
        "owner": "Zachary Ryan",
        "tree_dbh": "50.5",
        "tree_location": "backyard",
        "reason_removal": "Other",
        "tree_description": null,
        "tree_number": "1",
        "species": "unsure",
        "comments": "For both of these trees just want them checked to ensure healthy and not a risk to my home",
        "tree_count": 2,
        "trees": [
          {
            "tree_number": "1",
            "species": "unsure",
            "tree_dbh": "50.5",
            "tree_location": "backyard",
            "tree_description": null,
            "reason_removal": "Other",
            "comments": "For both of these trees just want them checked to ensure healthy and not a risk to my home"
          },
          {
            "tree_number": "2",
            "species": "unsure",
            "tree_dbh": "73.75",
            "tree_location": "backyard",
            "tree_description": null,
            "reason_removal": "Dying tree",
            "comments": "For both of these trees just want them checked to ensure healthy and not a risk to my home"
          }
        ]
      },
      "geometry": {
        "type": "Point",
        "coordinates": [
          -84.403252836318,
          33.724930650653
        ]
      }
    },
    {
      "type": "Feature",
      "properties": {
        "record": "BA-202604830",
        "address": "176 BOLLING RD NE, ATLANTA GA 30305",
        "status": "Accepted",
        "date": "09/21/2026",
        "description": null,
        "owner": null,
        "tree_dbh": "55",
        "tree_location": "Front yard, right side of residence facing street, adjacent to sidewalk and street",
        "reason_removal": "Significant cavity/area of decay",
        "tree_description": "Mature water oak, 59\" DBH, approx. 65' tall, leaning ~10 degrees toward street. Level 3 risk assessment with resistograph drilling (Atlanta Arbor, Dec 2025, report attached) found decay at large trunk wound and rated the tree HIGH risk, likelihood of failure Probable, with whole-tree failure likely within two years under normal weather; removal recommended. Multiple fungal fruiting bodies (consistent with root/butt rot) currently present at root flare (photos attached). Trunk cavities and epicormic sprouting present. In Sept 2026, tree contacted power lines across street, smoked and caught fire during rain, causing line outage; Georgia Power trimmed lines. Targets: residence, neighboring residence across street, public street, sidewalk, overhead utilities.",
        "tree_number": "1",
        "species": "Water Oak (Quercus nigra)",
        "comments": "Requesting expedited inspection given documented probable-failure condition and recent fire event. Attachments: Atlanta Arbor Level 3 assessment report (Tyrell Phillips, ISA SO-6049A, TRAQ) and 9 photos documenting lean, trunk wound, cavities, fungal conks at root flare, and fire-damaged limb. Owner contact: 202-246-1192",
        "tree_count": 1,
        "trees": [
          {
            "tree_number": "1",
            "species": "Water Oak (Quercus nigra)",
            "tree_dbh": "55",
            "tree_location": "Front yard, right side of residence facing street, adjacent to sidewalk and street",
            "tree_description": "Mature water oak, 59\" DBH, approx. 65' tall, leaning ~10 degrees toward street. Level 3 risk assessment with resistograph drilling (Atlanta Arbor, Dec 2025, report attached) found decay at large trunk wound and rated the tree HIGH risk, likelihood of failure Probable, with whole-tree failure likely within two years under normal weather; removal recommended. Multiple fungal fruiting bodies (consistent with root/butt rot) currently present at root flare (photos attached). Trunk cavities and epicormic sprouting present. In Sept 2026, tree contacted power lines across street, smoked and caught fire during rain, causing line outage; Georgia Power trimmed lines. Targets: residence, neighboring residence across street, public street, sidewalk, overhead utilities.",
            "reason_removal": "Significant cavity/area of decay",
            "comments": "Requesting expedited inspection given documented probable-failure condition and recent fire event. Attachments: Atlanta Arbor Level 3 assessment report (Tyrell Phillips, ISA SO-6049A, TRAQ) and 9 photos documenting lean, trunk wound, cavities, fungal conks at root flare, and fire-damaged limb. Owner contact: 202-246-1192"
          }
        ]
      },
      "geometry": {
        "type": "Point",
        "coordinates": [
          -84.38035566656,
          33.829724685466
        ]
      }
    },
    {
      "type": "Feature",
      "properties": {
        "record": "BA-202604825",
        "address": "175 KLONDIKE ST SW, ATLANTA GA 30331",
        "status": "ACA Pending",
        "date": "09/21/2026",
        "description": null,
        "owner": null,
        "tree_dbh": "44",
        "tree_location": "back",
        "reason_removal": "Dying tree",
        "tree_description": "House facing fungal fruiting bodies on base, previous improper pruning.",
        "tree_number": "1",
        "species": "water oak",
        "comments": null,
        "tree_count": 1,
        "trees": [
          {
            "tree_number": "1",
            "species": "water oak",
            "tree_dbh": "44",
            "tree_location": "back",
            "tree_description": "House facing fungal fruiting bodies on base, previous improper pruning.",
            "reason_removal": "Dying tree",
            "comments": null
          }
        ]
      },
      "geometry": {
        "type": "Point",
        "coordinates": [
          -84.510297568069,
          33.718788569956
        ]
      }
    },
    {
      "type": "Feature",
      "properties": {
        "record": "BA-202604831",
        "address": "427 PEYTON RD SW, ATLANTA GA 30311",
        "status": "ACA Pending",
        "date": "09/21/2026",
        "description": null,
        "owner": null,
        "tree_dbh": null,
        "tree_location": null,
        "reason_removal": null,
        "tree_description": null,
        "tree_number": null,
        "species": null,
        "comments": null,
        "tree_count": null,
        "trees": null
      },
      "geometry": {
        "type": "Point",
        "coordinates": [
          -84.479081174837,
          33.743793095575
        ]
      }
    },
    {
      "type": "Feature",
      "properties": {
        "record": "BA-202604820",
        "address": "1344 OAKCREST DR SW, ATLANTA GA 30311",
        "status": "ACA Pending",
        "date": "09/21/2026",
        "description": null,
        "owner": null,
        "tree_dbh": null,
        "tree_location": null,
        "reason_removal": null,
        "tree_description": null,
        "tree_number": null,
        "species": null,
        "comments": null,
        "tree_count": null,
        "trees": null
      },
      "geometry": {
        "type": "Point",
        "coordinates": [
          -84.495208114071,
          33.723460235596
        ]
      }
    },
    {
      "type": "Feature",
      "properties": {
        "record": "BA-202604838",
        "address": "3061 NANCY CREEK DR NW, ATLANTA GA 30327",
        "status": "ACA Pending",
        "date": "09/21/2026",
        "description": null,
        "owner": null,
        "tree_dbh": null,
        "tree_location": null,
        "reason_removal": null,
        "tree_description": null,
        "tree_number": null,
        "species": null,
        "comments": null,
        "tree_count": null,
        "trees": null
      },
      "geometry": {
        "type": "Point",
        "coordinates": [
          -84.440103105885,
          33.850182310136
        ]
      }
    },
    {
      "type": "Feature",
      "properties": {
        "record": "BA-202604836",
        "address": "1236 WOODLAND AVE SE, ATLANTA GA 30316",
        "status": "ACA Pending",
        "date": "09/21/2026",
        "description": null,
        "owner": null,
        "tree_dbh": null,
        "tree_location": null,
        "reason_removal": null,
        "tree_description": null,
        "tree_number": null,
        "species": null,
        "comments": null,
        "tree_count": null,
        "trees": null
      },
      "geometry": {
        "type": "Point",
        "coordinates": [
          -84.353459852122,
          33.720830328585
        ]
      }
    },
    {
      "type": "Feature",
      "properties": {
        "record": "BA-202604843",
        "address": "2281 PERKERSON RD SW, ATLANTA GA 30315",
        "status": "ACA Pending",
        "date": "09/21/2026",
        "description": null,
        "owner": null,
        "tree_dbh": null,
        "tree_location": null,
        "reason_removal": null,
        "tree_description": null,
        "tree_number": null,
        "species": null,
        "comments": null,
        "tree_count": null,
        "trees": null
      },
      "geometry": {
        "type": "Point",
        "coordinates": [
          -84.41145664542,
          33.692185637521
        ]
      }
    },
    {
      "type": "Feature",
      "properties": {
        "record": "BA-202604839",
        "address": "1680 VENETIAN DR SW, ATLANTA GA 30311",
        "status": "ACA Pending",
        "date": "09/21/2026",
        "description": null,
        "owner": "KIM SNIDER",
        "tree_dbh": "40",
        "tree_location": "In front of home",
        "reason_removal": "Other",
        "tree_description": "Tree is splitting, causing major threat to the house.",
        "tree_number": "1",
        "species": "Walnut",
        "comments": "Removal of tree highly recommended.",
        "tree_count": 2,
        "trees": [
          {
            "tree_number": "1",
            "species": "Walnut",
            "tree_dbh": "40",
            "tree_location": "In front of home",
            "tree_description": "Tree is splitting, causing major threat to the house.",
            "reason_removal": "Other",
            "comments": "Removal of tree highly recommended."
          },
          {
            "tree_number": "2",
            "species": "Walnut",
            "tree_dbh": "35",
            "tree_location": "Back yard",
            "tree_description": "Hazardous to the house, multiple tree limb breaking falling onto fence and house. Already caused damages to the roof gutters, and fence.",
            "reason_removal": "Dying tree",
            "comments": "Removal of tree highly recommended."
          }
        ]
      },
      "geometry": {
        "type": "Point",
        "coordinates": [
          -84.442582415302,
          33.714569859717
        ]
      }
    },
    {
      "type": "Feature",
      "properties": {
        "record": "BA-202604813",
        "address": "1624 SANDTOWN RD SW, ATLANTA GA 30311",
        "status": "ACA Pending",
        "date": "09/21/2026",
        "description": null,
        "owner": "JOHNSON LOIS",
        "tree_dbh": "38",
        "tree_location": "Left Corner behind the house",
        "reason_removal": "Other",
        "tree_description": "Remove a large, dangerous, leaning oak tree on the left corner behind the house",
        "tree_number": "1",
        "species": "Oak Tree",
        "comments": "Remove a large, dangerous, leaning oak tree on the left corner behind the house",
        "tree_count": 1,
        "trees": [
          {
            "tree_number": "1",
            "species": "Oak Tree",
            "tree_dbh": "38",
            "tree_location": "Left Corner behind the house",
            "tree_description": "Remove a large, dangerous, leaning oak tree on the left corner behind the house",
            "reason_removal": "Other",
            "comments": "Remove a large, dangerous, leaning oak tree on the left corner behind the house"
          }
        ]
      },
      "geometry": {
        "type": "Point",
        "coordinates": [
          -84.441804668228,
          33.715475435905
        ]
      }
    },
    {
      "type": "Feature",
      "properties": {
        "record": "BA-202604835",
        "address": "1088 SANDERS AVE SE, ATLANTA GA 30316",
        "status": "ACA Pending",
        "date": "09/21/2026",
        "description": null,
        "owner": "NORMAN STEPHEN S",
        "tree_dbh": "24",
        "tree_location": "back yard fence line",
        "reason_removal": "Significant cavity/area of decay",
        "tree_description": "Top part of tree has cracked and is resting on other trees",
        "tree_number": "1",
        "species": "Unknown",
        "comments": "I am not sure of the exact type or size of the tree; I am not currently in Georgia, but I can get a neighbor to meet",
        "tree_count": 1,
        "trees": [
          {
            "tree_number": "1",
            "species": "Unknown",
            "tree_dbh": "24",
            "tree_location": "back yard fence line",
            "tree_description": "Top part of tree has cracked and is resting on other trees",
            "reason_removal": "Significant cavity/area of decay",
            "comments": "I am not sure of the exact type or size of the tree; I am not currently in Georgia, but I can get a neighbor to meet"
          }
        ]
      },
      "geometry": {
        "type": "Point",
        "coordinates": [
          -84.35173349802,
          33.742096672358
        ]
      }
    },
    {
      "type": "Feature",
      "properties": {
        "record": "BA-202604799",
        "address": "1165 EAST BEECHWOOD DR NW, ATLANTA GA 30327",
        "status": "ACA Pending",
        "date": "09/21/2026",
        "description": null,
        "owner": "HOSTETLER SCOTT A",
        "tree_dbh": "22",
        "tree_location": "left side",
        "reason_removal": "Dead tree",
        "tree_description": "dead white oak tree located on the left side of driveway by the street",
        "tree_number": "1",
        "species": "white oak",
        "comments": "dead white oak tree located on the left side of driveway by the street",
        "tree_count": 1,
        "trees": [
          {
            "tree_number": "1",
            "species": "white oak",
            "tree_dbh": "22",
            "tree_location": "left side",
            "tree_description": "dead white oak tree located on the left side of driveway by the street",
            "reason_removal": "Dead tree",
            "comments": "dead white oak tree located on the left side of driveway by the street"
          }
        ]
      },
      "geometry": {
        "type": "Point",
        "coordinates": [
          -84.425555289482,
          33.853786235512
        ]
      }
    },
    {
      "type": "Feature",
      "properties": {
        "record": "BA-202604818",
        "address": "317 ENGLEWOOD AVE SE, ATLANTA GA 30315",
        "status": "Issued",
        "date": "09/21/2026",
        "description": null,
        "owner": "HARRIEL MARIO",
        "tree_dbh": "20",
        "tree_location": "Front right",
        "reason_removal": "Uncorrectable defect",
        "tree_description": "Split at main lead",
        "tree_number": "1",
        "species": "Silver Maple",
        "comments": null,
        "tree_count": 1,
        "trees": [
          {
            "tree_number": "1",
            "species": "Silver Maple",
            "tree_dbh": "20",
            "tree_location": "Front right",
            "tree_description": "Split at main lead",
            "reason_removal": "Uncorrectable defect",
            "comments": null
          }
        ]
      },
      "geometry": {
        "type": "Point",
        "coordinates": [
          -84.378206422796,
          33.721966376787
        ]
      }
    },
    {
      "type": "Feature",
      "properties": {
        "record": "BA-202604809",
        "address": "1680 WESTVIEW DR SW, ATLANTA GA 30310",
        "status": "ACA Pending",
        "date": "09/21/2026",
        "description": null,
        "owner": "WESTVIEW CEMETERY INC",
        "tree_dbh": "40",
        "tree_location": "Section 36",
        "reason_removal": "Uncorrectable defect",
        "tree_description": "significant root and stem decay throughout, significant canopy failures, dieback/decline exceeding 1/3 total canopy of tree",
        "tree_number": "1",
        "species": "Water Oak",
        "comments": "Ribbon",
        "tree_count": 2,
        "trees": [
          {
            "tree_number": "1",
            "species": "Water Oak",
            "tree_dbh": "40",
            "tree_location": "Section 36",
            "tree_description": "significant root and stem decay throughout, significant canopy failures, dieback/decline exceeding 1/3 total canopy of tree",
            "reason_removal": "Uncorrectable defect",
            "comments": "Ribbon"
          },
          {
            "tree_number": "2",
            "species": "Water Oak",
            "tree_dbh": "30",
            "tree_location": "section 41A, NW corner of property",
            "tree_description": "Dead",
            "reason_removal": "Dead tree",
            "comments": "Ribbon"
          }
        ]
      },
      "geometry": {
        "type": "Point",
        "coordinates": [
          -84.431747305036,
          33.747298300307
        ]
      }
    },
    {
      "type": "Feature",
      "properties": {
        "record": "BA-202604802",
        "address": "4370 EAST BROOKHAVEN DR NE, ATLANTA GA 30319",
        "status": "ACA Pending",
        "date": "09/21/2026",
        "description": null,
        "owner": null,
        "tree_dbh": "32",
        "tree_location": "front yard near turn around",
        "reason_removal": "Uncorrectable defect",
        "tree_description": "Mature 32-inch DBH pine exhibiting a pronounced directional lean toward the residence, placing the home within the tree’s potential failure zone. The tree also exhibits multiple resinous wound areas along the main trunk, consistent with previous injury and localized disruption of the protective bark and underlying woody tissue. Within the upper crown, the main stem transitions into multiple large codominant leaders with narrow attachment unions. These stems constitute a substantial portion of the crown and carry considerable end weight. The overall lean of the tree, combined with the orientation and loading of the upper leaders toward the residence, creates an unfavorable structural configuration and increases concern for leader, stem, or whole-tree failure. The identified defects affect major structural components and cannot be reasonably corrected through conventional pruning without substantially altering the tree's form and canopy. Given the tree's significant lean toward an occupied residence, mature size, trunk wounds, codominant upper-stem architecture, and concentrated loading toward the target, removal is recommended due to the increased potential for significant structural failure and the associated consequences to the adjacent residence.",
        "tree_number": "1",
        "species": "Pinus taeda",
        "comments": null,
        "tree_count": 2,
        "trees": [
          {
            "tree_number": "1",
            "species": "Pinus taeda",
            "tree_dbh": "32",
            "tree_location": "front yard near turn around",
            "tree_description": "Mature 32-inch DBH pine exhibiting a pronounced directional lean toward the residence, placing the home within the tree’s potential failure zone. The tree also exhibits multiple resinous wound areas along the main trunk, consistent with previous injury and localized disruption of the protective bark and underlying woody tissue. Within the upper crown, the main stem transitions into multiple large codominant leaders with narrow attachment unions. These stems constitute a substantial portion of the crown and carry considerable end weight. The overall lean of the tree, combined with the orientation and loading of the upper leaders toward the residence, creates an unfavorable structural configuration and increases concern for leader, stem, or whole-tree failure. The identified defects affect major structural components and cannot be reasonably corrected through conventional pruning without substantially altering the tree's form and canopy. Given the tree's significant lean toward an occupied residence, mature size, trunk wounds, codominant upper-stem architecture, and concentrated loading toward the target, removal is recommended due to the increased potential for significant structural failure and the associated consequences to the adjacent residence.",
            "reason_removal": "Uncorrectable defect",
            "comments": null
          },
          {
            "tree_number": "2",
            "species": "Pinus taeda",
            "tree_dbh": "29",
            "tree_location": "front yard behind azaleas",
            "tree_description": "Mature 29-inch DBH pine exhibiting a pronounced directional lean toward the adjacent roadway, placing the roadway and its users within the tree’s potential failure zone. Inspection of the lower trunk and root flare identified a basal canker/wound with localized deterioration of the affected woody tissue, as well as an abnormal girdling/surface root condition at the base of the tree. The location of these defects is particularly significant because the lower trunk and root flare are critical structural components responsible for transferring loads from the stem into the supporting root system. The tree's directional lean creates additional loading toward the roadway, while the basal defect and compromised root-flare configuration raise concern regarding the tree's ability to adequately support those loads over time. Because the primary defects are located at or immediately adjacent to the base of the tree, they cannot be effectively corrected through pruning or other conventional arboricultural treatment. Given the tree's mature size, basal canker/wound, abnormal root condition, and pronounced lean toward a frequently occupied roadway, removal is recommended due to the increased potential for basal or whole-tree failure and the associated consequences to vehicles, pedestrians, and adjacent property.",
            "reason_removal": "Uncorrectable defect",
            "comments": null
          }
        ]
      },
      "geometry": {
        "type": "Point",
        "coordinates": [
          -84.350427310141,
          33.873899833263
        ]
      }
    },
    {
      "type": "Feature",
      "properties": {
        "record": "BA-202604803",
        "address": "1767 DEFOOR AVE NW, A, ATLANTA GA 30318",
        "status": "ACA Pending",
        "date": "09/21/2026",
        "description": null,
        "owner": "Annika Orich",
        "tree_dbh": "8",
        "tree_location": "Right side parking lot",
        "reason_removal": "Uncorrectable defect",
        "tree_description": "Lean and unbalanced crown",
        "tree_number": "1",
        "species": "Boxelder",
        "comments": "Orange dot",
        "tree_count": 1,
        "trees": [
          {
            "tree_number": "1",
            "species": "Boxelder",
            "tree_dbh": "8",
            "tree_location": "Right side parking lot",
            "tree_description": "Lean and unbalanced crown",
            "reason_removal": "Uncorrectable defect",
            "comments": "Orange dot"
          }
        ]
      },
      "geometry": {
        "type": "Point",
        "coordinates": [
          -84.421221181363,
          33.803617449488
        ]
      }
    },
    {
      "type": "Feature",
      "properties": {
        "record": "BA-202604806",
        "address": "4431 GLENGARY DR NE, ATLANTA GA 30342",
        "status": "ACA Pending",
        "date": "09/21/2026",
        "description": null,
        "owner": null,
        "tree_dbh": "10",
        "tree_location": "left side of driveway",
        "reason_removal": "Dying tree",
        "tree_description": "Tree exhibits significant canopy decline and dieback, with sparse live foliage remaining throughout the crown. A pronounced longitudinal opening/cavity is present along the lower main stem, indicating compromised woody tissue and structural deterioration. The combination of advanced canopy decline and the basal/lower-stem defect indicates poor biological and structural condition. Due to the extent of decline and structural defect, recovery through reasonable arboricultural treatment is unlikely.",
        "tree_number": "1",
        "species": "Leyland Cypress",
        "comments": null,
        "tree_count": 5,
        "trees": [
          {
            "tree_number": "1",
            "species": "Leyland Cypress",
            "tree_dbh": "10",
            "tree_location": "left side of driveway",
            "tree_description": "Tree exhibits significant canopy decline and dieback, with sparse live foliage remaining throughout the crown. A pronounced longitudinal opening/cavity is present along the lower main stem, indicating compromised woody tissue and structural deterioration. The combination of advanced canopy decline and the basal/lower-stem defect indicates poor biological and structural condition. Due to the extent of decline and structural defect, recovery through reasonable arboricultural treatment is unlikely.",
            "reason_removal": "Dying tree",
            "comments": null
          },
          {
            "tree_number": "2",
            "species": "Leyland Cypress",
            "tree_dbh": "13",
            "tree_location": "left side of driveway",
            "tree_description": "Tree is dead with no live canopy remaining. Extensive branch and foliage loss is present throughout the crown, indicating complete mortality. The dead tree is located immediately adjacent to the neighbor's residence, placing the structure within potential striking distance of falling limbs or stem failure. The tree has no reasonable potential for recovery or preservation.",
            "reason_removal": "Dying tree",
            "comments": null
          },
          {
            "tree_number": "3",
            "species": "Leyland Cypress",
            "tree_dbh": "14",
            "tree_location": "left side of driveway",
            "tree_description": "Tree is dead with no live canopy remaining. Complete canopy mortality and extensive dead branching are present throughout the crown. The tree is located in close proximity to the residence, with portions of the crown extending toward the structure. As a dead tree, continued deterioration of the stem and branches is expected, increasing the potential for branch or whole-tree failure. The tree has no potential for recovery or preservation.",
            "reason_removal": "Dying tree",
            "comments": null
          },
          {
            "tree_number": "4",
            "species": "Leyland Cypress",
            "tree_dbh": "11",
            "tree_location": "Left side of driveway",
            "tree_description": "ree exhibits substantial canopy decline and dieback, with limited live foliage remaining. A pronounced longitudinal seam/open cavity is present along the main stem with exposed and deteriorated woody tissue, indicating a significant structural defect. The tree is also heavily colonized by English ivy, which partially obscures the trunk and limits visual inspection of additional defects. Given the advanced canopy decline, stem cavity/seam, and compromised structural condition, the tree has poor long-term viability and an increased potential for stem or branch failure.",
            "reason_removal": "Dying tree",
            "comments": null
          },
          {
            "tree_number": "5",
            "species": "Leyland Cypress",
            "tree_dbh": "15",
            "tree_location": "Left side of driveway",
            "tree_description": "Tree exhibits significant canopy decline and dieback in conjunction with substantial structural defects in the main stem. An open basal cavity with visible deterioration of woody tissue is present, along with a pronounced longitudinal seam extending vertically along the trunk. The stem defects indicate compromised structural integrity and reduced load-bearing capacity. Heavy ivy growth also obscures portions of the trunk, limiting complete visual assessment. Given the combination of progressive canopy decline, basal cavity, longitudinal seam, and deteriorated stem tissue, the tree is in poor biological and structural condition with an increased potential for stem failure.",
            "reason_removal": "Dying tree",
            "comments": null
          }
        ]
      },
      "geometry": {
        "type": "Point",
        "coordinates": [
          -84.362701450353,
          33.874310916044
        ]
      }
    },
    {
      "type": "Feature",
      "properties": {
        "record": "26TMP-062192",
        "address": "715 EMILY PL NW, ATLANTA GA 30318",
        "status": "",
        "date": "09/21/2026",
        "description": null,
        "owner": null,
        "tree_dbh": null,
        "tree_location": null,
        "reason_removal": null,
        "tree_description": null,
        "tree_number": null,
        "species": null,
        "comments": null,
        "tree_count": null,
        "trees": null
      },
      "geometry": {
        "type": "Point",
        "coordinates": [
          -84.452170707298,
          33.77395260795
        ]
      }
    },
    {
      "type": "Feature",
      "properties": {
        "record": "BA-202604814",
        "address": "87 PEACHTREE WAY NE, ATLANTA GA 30305",
        "status": "ACA Pending",
        "date": "09/21/2026",
        "description": null,
        "owner": null,
        "tree_dbh": "30",
        "tree_location": "Front Yard",
        "reason_removal": "Dying tree",
        "tree_description": "Tall oak. It has been dropping limbs.",
        "tree_number": "1",
        "species": "oak",
        "comments": "Tree has been dropping limbs.",
        "tree_count": 1,
        "trees": [
          {
            "tree_number": "1",
            "species": "oak",
            "tree_dbh": "30",
            "tree_location": "Front Yard",
            "tree_description": "Tall oak. It has been dropping limbs.",
            "reason_removal": "Dying tree",
            "comments": "Tree has been dropping limbs."
          }
        ]
      },
      "geometry": {
        "type": "Point",
        "coordinates": [
          -84.384786558319,
          33.827498972723
        ]
      }
    },
    {
      "type": "Feature",
      "properties": {
        "record": "BA-202604808",
        "address": "836 TIFT AVE SW, ATLANTA GA 30310",
        "status": "ACA Pending",
        "date": "09/21/2026",
        "description": null,
        "owner": "Francisco Sastre",
        "tree_dbh": "30",
        "tree_location": "front yard of house",
        "reason_removal": "Diseased",
        "tree_description": "not applying for removal, just for assessment. Hazardous tree",
        "tree_number": "1",
        "species": "not sure",
        "comments": "not applying for removal, just for assessment. Hazardous tree",
        "tree_count": 1,
        "trees": [
          {
            "tree_number": "1",
            "species": "not sure",
            "tree_dbh": "30",
            "tree_location": "front yard of house",
            "tree_description": "not applying for removal, just for assessment. Hazardous tree",
            "reason_removal": "Diseased",
            "comments": "not applying for removal, just for assessment. Hazardous tree"
          }
        ]
      },
      "geometry": {
        "type": "Point",
        "coordinates": [
          -84.410400402554,
          33.732007834493
        ]
      }
    },
    {
      "type": "Feature",
      "properties": {
        "record": "BA-202604805",
        "address": "2006 MCLENDON AVE NE, ATLANTA GA 30307",
        "status": "ACA Pending",
        "date": "09/21/2026",
        "description": null,
        "owner": "Jenny McBride",
        "tree_dbh": "39",
        "tree_location": "Right side of house",
        "reason_removal": "Significant cavity/area of decay",
        "tree_description": "Cavity at base - TRA attached",
        "tree_number": "1",
        "species": "White Oak",
        "comments": null,
        "tree_count": 1,
        "trees": [
          {
            "tree_number": "1",
            "species": "White Oak",
            "tree_dbh": "39",
            "tree_location": "Right side of house",
            "tree_description": "Cavity at base - TRA attached",
            "reason_removal": "Significant cavity/area of decay",
            "comments": null
          }
        ]
      },
      "geometry": {
        "type": "Point",
        "coordinates": [
          -84.321809339482,
          33.764688087287
        ]
      }
    },
    {
      "type": "Feature",
      "properties": {
        "record": "BA-202604817",
        "address": "1051 TUMLIN ST NW, ATLANTA GA 30318",
        "status": "ACA Pending",
        "date": "09/21/2026",
        "description": null,
        "owner": null,
        "tree_dbh": "40",
        "tree_location": "Left Corner of the House",
        "reason_removal": "Dead tree",
        "tree_description": "Dead old Poplar",
        "tree_number": "1",
        "species": "poplar",
        "comments": null,
        "tree_count": 1,
        "trees": [
          {
            "tree_number": "1",
            "species": "poplar",
            "tree_dbh": "40",
            "tree_location": "Left Corner of the House",
            "tree_description": "Dead old Poplar",
            "reason_removal": "Dead tree",
            "comments": null
          }
        ]
      },
      "geometry": {
        "type": "Point",
        "coordinates": [
          -84.400513856344,
          33.783561417957
        ]
      }
    },
    {
      "type": "Feature",
      "properties": {
        "record": "BA-202604811",
        "address": "1265 OAK GROVE AVE SE, ATLANTA GA 30316",
        "status": "ACA Pending",
        "date": "09/21/2026",
        "description": null,
        "owner": "Emily Tomczak",
        "tree_dbh": "23",
        "tree_location": "Rear of home",
        "reason_removal": "Invasive/undesirable tree",
        "tree_description": "Undesirable",
        "tree_number": "1",
        "species": "Ailanthus",
        "comments": "Ribbon",
        "tree_count": 2,
        "trees": [
          {
            "tree_number": "1",
            "species": "Ailanthus",
            "tree_dbh": "23",
            "tree_location": "Rear of home",
            "tree_description": "Undesirable",
            "reason_removal": "Invasive/undesirable tree",
            "comments": "Ribbon"
          },
          {
            "tree_number": "2",
            "species": "Ailanthus",
            "tree_dbh": "10",
            "tree_location": "Rear of home",
            "tree_description": "Undesirable",
            "reason_removal": "Invasive/undesirable tree",
            "comments": "Ribbon"
          }
        ]
      },
      "geometry": {
        "type": "Point",
        "coordinates": [
          -84.346666223389,
          33.742871527464
        ]
      }
    },
    {
      "type": "Feature",
      "properties": {
        "record": "BA-202604837",
        "address": "712 FRANCIS AVE SE, ATLANTA GA 30312",
        "status": "ACA Pending",
        "date": "09/21/2026",
        "description": null,
        "owner": "Hannah Huston",
        "tree_dbh": "21",
        "tree_location": "back left side of house",
        "reason_removal": "Diseased",
        "tree_description": "the tree exhibits extensive fungal fruiting bodies/conks along the main trunk, indicating significant internal fungal decay and deterioration of the tree’s structural wood. The widespread presence of these conks, particularly along the main stem, is consistent with advanced decay and compromised structural integrity. Due to the extent of the apparent decay, the tree has an increased risk of structural failure and presents a potential safety hazard to the surrounding property and occupants. Removal is recommended to eliminate the hazard, as pruning or other routine maintenance would not adequately address the internal structural deterioration.",
        "tree_number": "1",
        "species": "Oak",
        "comments": null,
        "tree_count": 2,
        "trees": [
          {
            "tree_number": "1",
            "species": "Oak",
            "tree_dbh": "21",
            "tree_location": "back left side of house",
            "tree_description": "the tree exhibits extensive fungal fruiting bodies/conks along the main trunk, indicating significant internal fungal decay and deterioration of the tree’s structural wood. The widespread presence of these conks, particularly along the main stem, is consistent with advanced decay and compromised structural integrity. Due to the extent of the apparent decay, the tree has an increased risk of structural failure and presents a potential safety hazard to the surrounding property and occupants. Removal is recommended to eliminate the hazard, as pruning or other routine maintenance would not adequately address the internal structural deterioration.",
            "reason_removal": "Diseased",
            "comments": null
          },
          {
            "tree_number": "2",
            "species": "Oak",
            "tree_dbh": "27",
            "tree_location": "back left side of house",
            "tree_description": "the tree exhibits extensive fungal fruiting bodies/conks along the main trunk, indicating significant internal fungal decay and deterioration of the tree’s structural wood. The widespread presence of these conks, particularly along the main stem, is consistent with advanced decay and compromised structural integrity. Due to the extent of the apparent decay, the tree has an increased risk of structural failure and presents a potential safety hazard to the surrounding property and occupants. Removal is recommended to eliminate the hazard, as pruning or other routine maintenance would not adequately address the internal structural deterioration.",
            "reason_removal": "Diseased",
            "comments": null
          }
        ]
      },
      "geometry": {
        "type": "Point",
        "coordinates": [
          -84.365171032708,
          33.723435643217
        ]
      }
    },
    {
      "type": "Feature",
      "properties": {
        "record": "BA-202604819",
        "address": "98 FOURTEENTH ST NE, ATLANTA GA 30309",
        "status": "ACA Pending",
        "date": "09/21/2026",
        "description": null,
        "owner": null,
        "tree_dbh": "28",
        "tree_location": "SW area of site near 14th Street",
        "reason_removal": "Dying tree",
        "tree_description": "Water oak in center of grouping with recent dieback visible throughout canopy",
        "tree_number": "1",
        "species": "Quercus nigra",
        "comments": "Tree has recently declined in last three weeks with rapid browning throughout canopy",
        "tree_count": 1,
        "trees": [
          {
            "tree_number": "1",
            "species": "Quercus nigra",
            "tree_dbh": "28",
            "tree_location": "SW area of site near 14th Street",
            "tree_description": "Water oak in center of grouping with recent dieback visible throughout canopy",
            "reason_removal": "Dying tree",
            "comments": "Tree has recently declined in last three weeks with rapid browning throughout canopy"
          }
        ]
      },
      "geometry": {
        "type": "Point",
        "coordinates": [
          -84.383149666565,
          33.786650585692
        ]
      }
    },
    {
      "type": "Feature",
      "properties": {
        "record": "BA-202604842",
        "address": "2291 PERKERSON RD SW, ATLANTA GA 30315",
        "status": "ACA Pending",
        "date": "09/21/2026",
        "description": null,
        "owner": null,
        "tree_dbh": "17",
        "tree_location": "back yard",
        "reason_removal": "Dying tree",
        "tree_description": "white oak dying with root rot and hazardous",
        "tree_number": "1",
        "species": "White Oak",
        "comments": null,
        "tree_count": 3,
        "trees": [
          {
            "tree_number": "1",
            "species": "White Oak",
            "tree_dbh": "17",
            "tree_location": "back yard",
            "tree_description": "white oak dying with root rot and hazardous",
            "reason_removal": "Dying tree",
            "comments": null
          },
          {
            "tree_number": "2",
            "species": "Live Oak",
            "tree_dbh": "23",
            "tree_location": "back yard",
            "tree_description": "Live oak tree is dying and hazardous",
            "reason_removal": "Dying tree",
            "comments": null
          },
          {
            "tree_number": "3",
            "species": "White Oak",
            "tree_dbh": "39.5",
            "tree_location": "back yard",
            "tree_description": "White Oak is dying and hazardous",
            "reason_removal": "Dying tree",
            "comments": null
          }
        ]
      },
      "geometry": {
        "type": "Point",
        "coordinates": [
          -84.411460655853,
          33.691957978058
        ]
      }
    },
    {
      "type": "Feature",
      "properties": {
        "record": "BA-202604823",
        "address": "277 LITTLE ST SE, ATLANTA GA 30315",
        "status": "ACA Pending",
        "date": "09/21/2026",
        "description": null,
        "owner": "Michael Saxon",
        "tree_dbh": "20",
        "tree_location": "Left side of front yard",
        "reason_removal": "Uncorrectable defect",
        "tree_description": "several girdling roots, root intrusion has caused damage to sewer cleanout and water lines",
        "tree_number": "1",
        "species": "Red Maple",
        "comments": "Orange paint",
        "tree_count": 1,
        "trees": [
          {
            "tree_number": "1",
            "species": "Red Maple",
            "tree_dbh": "20",
            "tree_location": "Left side of front yard",
            "tree_description": "several girdling roots, root intrusion has caused damage to sewer cleanout and water lines",
            "reason_removal": "Uncorrectable defect",
            "comments": "Orange paint"
          }
        ]
      },
      "geometry": {
        "type": "Point",
        "coordinates": [
          -84.379147905176,
          33.733061273054
        ]
      }
    },
    {
      "type": "Feature",
      "properties": {
        "record": "BA-202604834",
        "address": "112 MOBILE AVE NE, ATLANTA GA 30305",
        "status": "ACA Pending",
        "date": "09/21/2026",
        "description": null,
        "owner": null,
        "tree_dbh": "15",
        "tree_location": "Left side front yard near street",
        "reason_removal": "Uncorrectable defect",
        "tree_description": "20 degree lean towards the street. 30% dead canopy.",
        "tree_number": "1",
        "species": "Cherry Laurel",
        "comments": "Pink tape",
        "tree_count": 1,
        "trees": [
          {
            "tree_number": "1",
            "species": "Cherry Laurel",
            "tree_dbh": "15",
            "tree_location": "Left side front yard near street",
            "tree_description": "20 degree lean towards the street. 30% dead canopy.",
            "reason_removal": "Uncorrectable defect",
            "comments": "Pink tape"
          }
        ]
      },
      "geometry": {
        "type": "Point",
        "coordinates": [
          -84.385814177548,
          33.816377953509
        ]
      }
    },
    {
      "type": "Feature",
      "properties": {
        "record": "BA-202604821",
        "address": "1344 OAKCREST DR SW, ATLANTA GA 30311",
        "status": "ACA Pending",
        "date": "09/21/2026",
        "description": null,
        "owner": "Terri McCoy",
        "tree_dbh": "18",
        "tree_location": "left side of the driveway in the front yard",
        "reason_removal": "Dying tree",
        "tree_description": "Dying tree",
        "tree_number": "1",
        "species": "pine",
        "comments": null,
        "tree_count": 6,
        "trees": [
          {
            "tree_number": "1",
            "species": "pine",
            "tree_dbh": "18",
            "tree_location": "left side of the driveway in the front yard",
            "tree_description": "Dying tree",
            "reason_removal": "Dying tree",
            "comments": null
          },
          {
            "tree_number": "2",
            "species": "sweetgum",
            "tree_dbh": "20.5",
            "tree_location": "right rear",
            "tree_description": "dying tree",
            "reason_removal": "Dying tree",
            "comments": null
          },
          {
            "tree_number": "3",
            "species": "pine",
            "tree_dbh": "24.5",
            "tree_location": "right rear close to house",
            "tree_description": "dying tree/dangerous tree near the house",
            "reason_removal": "Dying tree",
            "comments": null
          },
          {
            "tree_number": "4",
            "species": "Pine",
            "tree_dbh": "27.5",
            "tree_location": "center of the front yard",
            "tree_description": "dangerous tree near the house",
            "reason_removal": "Other",
            "comments": null
          },
          {
            "tree_number": "5",
            "species": "pine",
            "tree_dbh": "35",
            "tree_location": "left rear close to the house",
            "tree_description": "dying tree",
            "reason_removal": "Dying tree",
            "comments": null
          },
          {
            "tree_number": "6",
            "species": "Pine",
            "tree_dbh": "15.9",
            "tree_location": "left rear",
            "tree_description": "leaning tree",
            "reason_removal": "Uncorrectable defect",
            "comments": null
          }
        ]
      },
      "geometry": {
        "type": "Point",
        "coordinates": [
          -84.495208114071,
          33.723460235596
        ]
      }
    },
    {
      "type": "Feature",
      "properties": {
        "record": "BA-202604810",
        "address": "1819 KING ALFRED DR SW, ATLANTA GA 30331",
        "status": "ACA Pending",
        "date": "09/21/2026",
        "description": null,
        "owner": "Veronica Williams",
        "tree_dbh": "28",
        "tree_location": "Front left",
        "reason_removal": "Significant cavity/area of decay",
        "tree_description": "28 DBH Pine. Large sap section, >15 degree lean at base and rising root plate, decay pocket - 10' up. Poses threat to pedestrians, vehicles in street, people and power lines",
        "tree_number": "1",
        "species": "Pine",
        "comments": null,
        "tree_count": 1,
        "trees": [
          {
            "tree_number": "1",
            "species": "Pine",
            "tree_dbh": "28",
            "tree_location": "Front left",
            "tree_description": "28 DBH Pine. Large sap section, >15 degree lean at base and rising root plate, decay pocket - 10' up. Poses threat to pedestrians, vehicles in street, people and power lines",
            "reason_removal": "Significant cavity/area of decay",
            "comments": null
          }
        ]
      },
      "geometry": {
        "type": "Point",
        "coordinates": [
          -84.512655231641,
          33.70522552105
        ]
      }
    },
    {
      "type": "Feature",
      "properties": {
        "record": "BA-202604815",
        "address": "3297 CASCADE RD SW, ATLANTA GA 30311",
        "status": "ACA Pending",
        "date": "09/21/2026",
        "description": null,
        "owner": null,
        "tree_dbh": "12",
        "tree_location": "driveway",
        "reason_removal": "Dead tree",
        "tree_description": null,
        "tree_number": "1",
        "species": "unknown",
        "comments": null,
        "tree_count": 1,
        "trees": [
          {
            "tree_number": "1",
            "species": "unknown",
            "tree_dbh": "12",
            "tree_location": "driveway",
            "tree_description": null,
            "reason_removal": "Dead tree",
            "comments": null
          }
        ]
      },
      "geometry": {
        "type": "Point",
        "coordinates": [
          -84.496009582691,
          33.721508185389
        ]
      }
    },
    {
      "type": "Feature",
      "properties": {
        "record": "BA-202604807",
        "address": "3 MIDDLE PLANTATION RD NW, ATLANTA GA 30318",
        "status": "ACA Pending",
        "date": "09/21/2026",
        "description": null,
        "owner": null,
        "tree_dbh": "24",
        "tree_location": "located just after entrance",
        "reason_removal": "Dead tree",
        "tree_description": "One 24'' dead Maple located just after entrance to Phase 1",
        "tree_number": "1",
        "species": "maple",
        "comments": "One 24'' dead Maple located just after entrance to Phase 1",
        "tree_count": 5,
        "trees": [
          {
            "tree_number": "1",
            "species": "maple",
            "tree_dbh": "24",
            "tree_location": "located just after entrance",
            "tree_description": "One 24'' dead Maple located just after entrance to Phase 1",
            "reason_removal": "Dead tree",
            "comments": "One 24'' dead Maple located just after entrance to Phase 1"
          },
          {
            "tree_number": "2",
            "species": "pine",
            "tree_dbh": "22",
            "tree_location": "located behind Ironbound and Palace green pl",
            "tree_description": "located behind Ironbound and Palace green pl",
            "reason_removal": "Dead tree",
            "comments": "(2) dead/dying 22'' Pines located behind Ironbound and Palace green pl"
          },
          {
            "tree_number": "3",
            "species": "pine",
            "tree_dbh": "22",
            "tree_location": "behind Ironbound and Palace green pl",
            "tree_description": "Two dead/dying 22'' Pines located behind Ironbound and Palace green pl",
            "reason_removal": "Dead tree",
            "comments": "Two dead/dying 22'' Pines located behind Ironbound and Palace green pl"
          },
          {
            "tree_number": "4",
            "species": "boxelder",
            "tree_dbh": "18",
            "tree_location": "behind Palace Green Pl",
            "tree_description": "Two 18\" leaning Boxelders located behind Palace Green Pl",
            "reason_removal": "Dead tree",
            "comments": "Two 18\" leaning Boxelders located behind Palace Green Pl"
          },
          {
            "tree_number": "5",
            "species": "boxelder",
            "tree_dbh": "18",
            "tree_location": "located behind Palace Green Pl",
            "tree_description": "Two 18\" leaning Boxelders located behind Palace Green Pl",
            "reason_removal": "Dead tree",
            "comments": "Two 18\" leaning Boxelders located behind Palace Green Pl"
          }
        ]
      },
      "geometry": {
        "type": "Point",
        "coordinates": [
          -84.439697752215,
          33.822281311848
        ]
      }
    },
    {
      "type": "Feature",
      "properties": {
        "record": "BA-202604824",
        "address": "1344 OAKCREST DR SW, ATLANTA GA 30311",
        "status": "ACA Pending",
        "date": "09/21/2026",
        "description": null,
        "owner": "Terri McCoy",
        "tree_dbh": "18",
        "tree_location": "left side of the driveway in the front yard",
        "reason_removal": "Dying tree",
        "tree_description": "dying tree",
        "tree_number": "1",
        "species": "pine",
        "comments": null,
        "tree_count": 6,
        "trees": [
          {
            "tree_number": "1",
            "species": "pine",
            "tree_dbh": "18",
            "tree_location": "left side of the driveway in the front yard",
            "tree_description": "dying tree",
            "reason_removal": "Dying tree",
            "comments": null
          },
          {
            "tree_number": "2",
            "species": "sweetgum",
            "tree_dbh": "20.5",
            "tree_location": "right rear",
            "tree_description": "dying tree",
            "reason_removal": "Dying tree",
            "comments": null
          },
          {
            "tree_number": "3",
            "species": "pin",
            "tree_dbh": "24.5",
            "tree_location": "right rear close to house",
            "tree_description": "dying tree/dangerous tree near the house",
            "reason_removal": "Dying tree",
            "comments": null
          },
          {
            "tree_number": "4",
            "species": "Pine",
            "tree_dbh": "27.5",
            "tree_location": "center of the front yard",
            "tree_description": "dangerous tree near the house",
            "reason_removal": "Other",
            "comments": null
          },
          {
            "tree_number": "5",
            "species": "pine",
            "tree_dbh": "35",
            "tree_location": "left rear close to the house",
            "tree_description": "dying tree",
            "reason_removal": "Dying tree",
            "comments": null
          },
          {
            "tree_number": "6",
            "species": "Pine",
            "tree_dbh": "15.9",
            "tree_location": "left rear",
            "tree_description": "leaning tree",
            "reason_removal": "Uncorrectable defect",
            "comments": null
          }
        ]
      },
      "geometry": {
        "type": "Point",
        "coordinates": [
          -84.495208114071,
          33.723460235596
        ]
      }
    },
    {
      "type": "Feature",
      "properties": {
        "record": "26TMP-054608",
        "address": "366 PEACHTREE AVE NE, ATLANTA GA 30305",
        "status": "",
        "date": "09/21/2026",
        "description": null,
        "owner": null,
        "tree_dbh": null,
        "tree_location": null,
        "reason_removal": null,
        "tree_description": null,
        "tree_number": null,
        "species": null,
        "comments": null,
        "tree_count": null,
        "trees": null
      },
      "geometry": {
        "type": "Point",
        "coordinates": [
          -84.375617956455,
          33.835029415301
        ]
      }
    },
    {
      "type": "Feature",
      "properties": {
        "record": "BA-202604812",
        "address": "1735 BREWER BLVD SW, ATLANTA GA 30310",
        "status": "ACA Pending",
        "date": "09/21/2026",
        "description": null,
        "owner": null,
        "tree_dbh": "100",
        "tree_location": "Back yard",
        "reason_removal": "Invasive/undesirable tree",
        "tree_description": null,
        "tree_number": "1",
        "species": "Sycamore",
        "comments": "Tree was planted by the city of Atlanta. They are not appropriate for the area/space and causing structural damage.",
        "tree_count": 2,
        "trees": [
          {
            "tree_number": "1",
            "species": "Sycamore",
            "tree_dbh": "100",
            "tree_location": "Back yard",
            "tree_description": null,
            "reason_removal": "Invasive/undesirable tree",
            "comments": "Tree was planted by the city of Atlanta. They are not appropriate for the area/space and causing structural damage."
          },
          {
            "tree_number": "2",
            "species": "Tulip",
            "tree_dbh": "100",
            "tree_location": "Backyard",
            "tree_description": null,
            "reason_removal": "Invasive/undesirable tree",
            "comments": "Tree was planted by the city of Atlanta. They are not appropriate for the area/space and causing structural damage."
          }
        ]
      },
      "geometry": {
        "type": "Point",
        "coordinates": [
          -84.415601813542,
          33.707200038697
        ]
      }
    },
    {
      "type": "Feature",
      "properties": {
        "record": "BA-202604816",
        "address": "1348 WESTMONT RD SW, ATLANTA GA 30311",
        "status": "ACA Pending",
        "date": "09/21/2026",
        "description": null,
        "owner": "Colt Stout",
        "tree_dbh": "25",
        "tree_location": "rear of the property",
        "reason_removal": "Uncorrectable defect",
        "tree_description": "Leaning tree",
        "tree_number": "1",
        "species": "Pine",
        "comments": null,
        "tree_count": 2,
        "trees": [
          {
            "tree_number": "1",
            "species": "Pine",
            "tree_dbh": "25",
            "tree_location": "rear of the property",
            "tree_description": "Leaning tree",
            "reason_removal": "Uncorrectable defect",
            "comments": null
          },
          {
            "tree_number": "2",
            "species": "Pine",
            "tree_dbh": "22",
            "tree_location": "rear of the property",
            "tree_description": "Dying tree",
            "reason_removal": "Significant cavity/area of decay",
            "comments": null
          }
        ]
      },
      "geometry": {
        "type": "Point",
        "coordinates": [
          -84.437584375115,
          33.718541431443
        ]
      }
    },
    {
      "type": "Feature",
      "properties": {
        "record": "BA-202604828",
        "address": "462 PAGE AVE NE, ATLANTA GA 30307",
        "status": "ACA Pending",
        "date": "09/21/2026",
        "description": null,
        "owner": "Christina Searles Tai",
        "tree_dbh": "15",
        "tree_location": "Right foundation",
        "reason_removal": "Invasive/undesirable tree",
        "tree_description": "too close to foundation and gas meter, undesirable species",
        "tree_number": "1",
        "species": "Cherry Laurel",
        "comments": "Ribbon",
        "tree_count": 1,
        "trees": [
          {
            "tree_number": "1",
            "species": "Cherry Laurel",
            "tree_dbh": "15",
            "tree_location": "Right foundation",
            "tree_description": "too close to foundation and gas meter, undesirable species",
            "reason_removal": "Invasive/undesirable tree",
            "comments": "Ribbon"
          }
        ]
      },
      "geometry": {
        "type": "Point",
        "coordinates": [
          -84.334218088965,
          33.766718204337
        ]
      }
    },
    {
      "type": "Feature",
      "properties": {
        "record": "BA-202604832",
        "address": "1575 MAYFLOWER AVE SW, ATLANTA GA 30311",
        "status": "ACA Pending",
        "date": "09/21/2026",
        "description": null,
        "owner": "Devin Kennedy",
        "tree_dbh": "40",
        "tree_location": "Front of House",
        "reason_removal": "Dying tree",
        "tree_description": null,
        "tree_number": "1",
        "species": "Oak",
        "comments": null,
        "tree_count": 1,
        "trees": [
          {
            "tree_number": "1",
            "species": "Oak",
            "tree_dbh": "40",
            "tree_location": "Front of House",
            "tree_description": null,
            "reason_removal": "Dying tree",
            "comments": null
          }
        ]
      },
      "geometry": {
        "type": "Point",
        "coordinates": [
          -84.439300080825,
          33.728085566553
        ]
      }
    },
    {
      "type": "Feature",
      "properties": {
        "record": "BA-202604829",
        "address": "1054 CRANE RD NE, ATLANTA GA 30324",
        "status": "ACA Pending",
        "date": "09/21/2026",
        "description": null,
        "owner": "Mary Jane Hannah",
        "tree_dbh": "10",
        "tree_location": "left side of yard",
        "reason_removal": "Dead tree",
        "tree_description": "marked with blue tape",
        "tree_number": "1",
        "species": "Poplar",
        "comments": null,
        "tree_count": 3,
        "trees": [
          {
            "tree_number": "1",
            "species": "Poplar",
            "tree_dbh": "10",
            "tree_location": "left side of yard",
            "tree_description": "marked with blue tape",
            "reason_removal": "Dead tree",
            "comments": null
          },
          {
            "tree_number": "2",
            "species": "Poplar",
            "tree_dbh": "10",
            "tree_location": "left side of yard",
            "tree_description": "marked with blue tape",
            "reason_removal": "Dying tree",
            "comments": null
          },
          {
            "tree_number": "3",
            "species": "Poplar",
            "tree_dbh": "10",
            "tree_location": "Right side of yard",
            "tree_description": "marked with Blue Tape",
            "reason_removal": "Dying tree",
            "comments": null
          }
        ]
      },
      "geometry": {
        "type": "Point",
        "coordinates": [
          -84.354365867727,
          33.839748637275
        ]
      }
    },
    {
      "type": "Feature",
      "properties": {
        "record": "BA-202604827",
        "address": "526 MCWILLIAMS RD SE, ATLANTA GA 30315",
        "status": "ACA Pending",
        "date": "09/21/2026",
        "description": null,
        "owner": null,
        "tree_dbh": "47",
        "tree_location": "Front left side of lot",
        "reason_removal": "Dying tree",
        "tree_description": "Multipl fungal conks with bacterial flux; one of two central leaders denuded with multiple scaffold limb failures; canopy loss >50%",
        "tree_number": "1",
        "species": "Oak",
        "comments": null,
        "tree_count": 1,
        "trees": [
          {
            "tree_number": "1",
            "species": "Oak",
            "tree_dbh": "47",
            "tree_location": "Front left side of lot",
            "tree_description": "Multipl fungal conks with bacterial flux; one of two central leaders denuded with multiple scaffold limb failures; canopy loss >50%",
            "reason_removal": "Dying tree",
            "comments": null
          }
        ]
      },
      "geometry": {
        "type": "Point",
        "coordinates": [
          -84.371334165041,
          33.688886873627
        ]
      }
    },
    {
      "type": "Feature",
      "properties": {
        "record": "BA-202604826",
        "address": "73 WARREN ST SE, ATLANTA GA 30317",
        "status": "ACA Pending",
        "date": "09/21/2026",
        "description": null,
        "owner": "THOMAS ANTHONY J SR",
        "tree_dbh": "31",
        "tree_location": "Far back left corner behind house",
        "reason_removal": "Dying tree",
        "tree_description": null,
        "tree_number": "1",
        "species": "oak",
        "comments": null,
        "tree_count": 5,
        "trees": [
          {
            "tree_number": "1",
            "species": "oak",
            "tree_dbh": "31",
            "tree_location": "Far back left corner behind house",
            "tree_description": null,
            "reason_removal": "Dying tree",
            "comments": null
          },
          {
            "tree_number": "2",
            "species": "oak",
            "tree_dbh": "10",
            "tree_location": "to the immediate left of house",
            "tree_description": null,
            "reason_removal": "Dying tree",
            "comments": null
          },
          {
            "tree_number": "3",
            "species": "sweetgum",
            "tree_dbh": "8",
            "tree_location": "to immediate left of house",
            "tree_description": null,
            "reason_removal": "Dying tree",
            "comments": null
          },
          {
            "tree_number": "4",
            "species": "hackberry",
            "tree_dbh": "8",
            "tree_location": "back left of lot",
            "tree_description": "distinctive lean to the tree",
            "reason_removal": "Dying tree",
            "comments": null
          },
          {
            "tree_number": "5",
            "species": "oak",
            "tree_dbh": "10",
            "tree_location": "a few feet to the left of the house",
            "tree_description": null,
            "reason_removal": "Dying tree",
            "comments": null
          }
        ]
      },
      "geometry": {
        "type": "Point",
        "coordinates": [
          -84.326311725923,
          33.751289678141
        ]
      }
    },
    {
      "type": "Feature",
      "properties": {
        "record": "26TMP-062070",
        "address": "440 CALHOUN ST NW, ATLANTA GA 30318",
        "status": "",
        "date": "09/21/2026",
        "description": null,
        "owner": null,
        "tree_dbh": null,
        "tree_location": null,
        "reason_removal": null,
        "tree_description": null,
        "tree_number": null,
        "species": null,
        "comments": null,
        "tree_count": null,
        "trees": null
      },
      "geometry": {
        "type": "Point",
        "coordinates": [
          -84.401581009073,
          33.782817776221
        ]
      }
    },
    {
      "type": "Feature",
      "properties": {
        "record": "BA-202604841",
        "address": "1379 CHATTAHOOCHEE AVE NW, ATLANTA GA 30318",
        "status": "ACA Pending",
        "date": "09/21/2026",
        "description": null,
        "owner": null,
        "tree_dbh": "22",
        "tree_location": "front",
        "reason_removal": "Dead tree",
        "tree_description": "leaning dead tree yellow ribbon",
        "tree_number": "1",
        "species": "sweetgum",
        "comments": null,
        "tree_count": 1,
        "trees": [
          {
            "tree_number": "1",
            "species": "sweetgum",
            "tree_dbh": "22",
            "tree_location": "front",
            "tree_description": "leaning dead tree yellow ribbon",
            "reason_removal": "Dead tree",
            "comments": null
          }
        ]
      },
      "geometry": {
        "type": "Point",
        "coordinates": [
          -84.435902744041,
          33.808629968887
        ]
      }
    },
    {
      "type": "Feature",
      "properties": {
        "record": "BA-202604796",
        "address": "1588 ROGERS AVE SW, ATLANTA GA 30310",
        "status": "Accepted",
        "date": "09/21/2026",
        "description": "DDH",
        "owner": null,
        "tree_dbh": null,
        "tree_location": null,
        "reason_removal": null,
        "tree_description": null,
        "tree_number": null,
        "species": null,
        "comments": null,
        "tree_count": null,
        "trees": null
      },
      "geometry": {
        "type": "Point",
        "coordinates": [
          -84.439621847486,
          33.737219307099
        ]
      }
    }
  ]
}