{
  "type": "FeatureCollection",
  "features": [
    {
      "type": "Feature",
      "properties": {
        "record": "BA-202604891",
        "address": "1342 HILL ST SE, ATLANTA GA 30315",
        "status": "ACA Pending",
        "date": "09/23/2026",
        "description": null,
        "owner": "CALDWELL LOY W",
        "tree_dbh": "54",
        "tree_location": "side yard",
        "reason_removal": "Dead tree",
        "tree_description": "Removal Recommendation: yes- tree is within target radius. Conditions of Concern (photos below): tree has multiple stems with included bark, internal decay in the center of the trunk, multiple large hazardous dead limbs. Tree is dropping dead limbs.",
        "tree_number": "1",
        "species": "Red mulberry (Morus rubra)",
        "comments": null,
        "tree_count": 1,
        "trees": [
          {
            "tree_number": "1",
            "species": "Red mulberry (Morus rubra)",
            "tree_dbh": "54",
            "tree_location": "side yard",
            "tree_description": "Removal Recommendation: yes- tree is within target radius. Conditions of Concern (photos below): tree has multiple stems with included bark, internal decay in the center of the trunk, multiple large hazardous dead limbs. Tree is dropping dead limbs.",
            "reason_removal": "Dead tree",
            "comments": null
          }
        ]
      },
      "geometry": {
        "type": "Point",
        "coordinates": [
          -84.378712355859,
          33.718330819354
        ]
      }
    },
    {
      "type": "Feature",
      "properties": {
        "record": "BA-202604887",
        "address": "384 HOPKINS ST SW, ATLANTA GA 30310",
        "status": "ACA Pending",
        "date": "09/23/2026",
        "description": null,
        "owner": "WINSLOW CLETA",
        "tree_dbh": "18",
        "tree_location": "Right side of home",
        "reason_removal": "Invasive/undesirable tree",
        "tree_description": "Roots intruding toward home to close to proximity",
        "tree_number": "1",
        "species": "Oak",
        "comments": null,
        "tree_count": 3,
        "trees": [
          {
            "tree_number": "1",
            "species": "Oak",
            "tree_dbh": "18",
            "tree_location": "Right side of home",
            "tree_description": "Roots intruding toward home to close to proximity",
            "reason_removal": "Invasive/undesirable tree",
            "comments": null
          },
          {
            "tree_number": "2",
            "species": "Oak",
            "tree_dbh": "28",
            "tree_location": "Left side of home",
            "tree_description": "Canopy has about 30% dieback removal is recommended",
            "reason_removal": "Dying tree",
            "comments": null
          },
          {
            "tree_number": "3",
            "species": "Oak",
            "tree_dbh": "28",
            "tree_location": "Rear of home",
            "tree_description": "Tree has dieback throughout canopy and excessive dead branches towards home",
            "reason_removal": "Dying tree",
            "comments": null
          }
        ]
      },
      "geometry": {
        "type": "Point",
        "coordinates": [
          -84.430571081226,
          33.744508044705
        ]
      }
    },
    {
      "type": "Feature",
      "properties": {
        "record": "BA-202604900",
        "address": "4322 CONWAY VALLEY CT NW, ATLANTA GA 30327",
        "status": "ACA Pending",
        "date": "09/23/2026",
        "description": null,
        "owner": "HUDSON FRANK R",
        "tree_dbh": "22",
        "tree_location": "rear of house",
        "reason_removal": "Uncorrectable defect",
        "tree_description": "*** Remove 22 DBH hickory tree with an approximate 35% lean toward the home. • The significant lean, combined with scaffold limbs extending over the roofline, increases the likelihood of tree or limb failure impacting the residence. • Due to the tree’s orientation and proximity to the home, immediate removal is recommended to reduce the risk of property damage.",
        "tree_number": "1",
        "species": "hickory",
        "comments": null,
        "tree_count": 3,
        "trees": [
          {
            "tree_number": "1",
            "species": "hickory",
            "tree_dbh": "22",
            "tree_location": "rear of house",
            "tree_description": "*** Remove 22 DBH hickory tree with an approximate 35% lean toward the home. • The significant lean, combined with scaffold limbs extending over the roofline, increases the likelihood of tree or limb failure impacting the residence. • Due to the tree’s orientation and proximity to the home, immediate removal is recommended to reduce the risk of property damage.",
            "reason_removal": "Uncorrectable defect",
            "comments": null
          },
          {
            "tree_number": "2",
            "species": "maple",
            "tree_dbh": "10",
            "tree_location": "rear of house",
            "tree_description": "*** Remove 10 DBH maple tree exhibiting a significant hard lean of approximately 35% toward the home. • Due to the severity of the lean and the residence being the primary target, the tree is considered hazardous and designated DDH (Dead, Dying, or Hazardous). • Immediate removal is recommended to mitigate the risk of tree failure and potential damage to the home.",
            "reason_removal": "Uncorrectable defect",
            "comments": null
          },
          {
            "tree_number": "3",
            "species": "poplar",
            "tree_dbh": "32",
            "tree_location": "side of house",
            "tree_description": "*** • Remove 32 DBH poplar tree exhibiting an abnormal curvature at the base of the tree, resulting in a structurally weak lower main stem. • The root system has grown into and around the retaining wall, creating a compromised root structure. Significant erosion within the root zone further raises concerns regarding the tree’s overall stability. • The tree has an approximate 25% lean toward the home, with the majority of the scaffold limbs and canopy weight concentrated on the house side. • The combination of the weakened and curved lower main stem, compromised root structure, erosion, significant lean, and uneven canopy weight toward the residence increases the potential for failure, particularly during high-wind events. • Due to these combined defects and the home being the primary target, the tree is considered hazardous and is recommended for immediate removal.",
            "reason_removal": "Uncorrectable defect",
            "comments": null
          }
        ]
      },
      "geometry": {
        "type": "Point",
        "coordinates": [
          -84.42333578343,
          33.868195401335
        ]
      }
    },
    {
      "type": "Feature",
      "properties": {
        "record": "BA-202604904",
        "address": "440 CALHOUN ST NW, ATLANTA GA 30318",
        "status": "ACA Pending",
        "date": "09/23/2026",
        "description": null,
        "owner": "Imane El Barodi",
        "tree_dbh": "12",
        "tree_location": "Side of the property near the street",
        "reason_removal": "Invasive/undesirable tree",
        "tree_description": "It has grown sideways and blocks the sidewalk for pedestrians.",
        "tree_number": "1",
        "species": "Oak",
        "comments": null,
        "tree_count": 3,
        "trees": [
          {
            "tree_number": "1",
            "species": "Oak",
            "tree_dbh": "12",
            "tree_location": "Side of the property near the street",
            "tree_description": "It has grown sideways and blocks the sidewalk for pedestrians.",
            "reason_removal": "Invasive/undesirable tree",
            "comments": null
          },
          {
            "tree_number": "2",
            "species": "Oak",
            "tree_dbh": "36",
            "tree_location": "Front corner of the house",
            "tree_description": "It is very large and some of the branches are too heavy and pose a threat to the house, parked cars, and pedestrians. We want some branches removed.",
            "reason_removal": "Dying tree",
            "comments": "Either want the entire tree removed or some branches."
          },
          {
            "tree_number": "3",
            "species": "Oak",
            "tree_dbh": "9",
            "tree_location": "Side of house next to neighbor",
            "tree_description": "Don't want to remove the tree, but may need some branches cut that hang above the house.",
            "reason_removal": "Other",
            "comments": null
          }
        ]
      },
      "geometry": {
        "type": "Point",
        "coordinates": [
          -84.401581009073,
          33.782817776221
        ]
      }
    },
    {
      "type": "Feature",
      "properties": {
        "record": "BA-202604885",
        "address": "581 CONWAY FOREST DR NW, ATLANTA GA 30327",
        "status": "ACA Pending",
        "date": "09/23/2026",
        "description": null,
        "owner": null,
        "tree_dbh": "9",
        "tree_location": "Front yard to left of front door",
        "reason_removal": "Dead tree",
        "tree_description": "Dead tree leaning slightly towards house",
        "tree_number": "6",
        "species": "Gleditsia triancanthos",
        "comments": null,
        "tree_count": 4,
        "trees": [
          {
            "tree_number": "6",
            "species": "Gleditsia triancanthos",
            "tree_dbh": "9",
            "tree_location": "Front yard to left of front door",
            "tree_description": "Dead tree leaning slightly towards house",
            "reason_removal": "Dead tree",
            "comments": null
          },
          {
            "tree_number": "14",
            "species": "Liquidambar styraciflua",
            "tree_dbh": "18",
            "tree_location": "Rear of house",
            "tree_description": "Sweetgum with declining canopy visible from front of house and below.",
            "reason_removal": "Dying tree",
            "comments": null
          },
          {
            "tree_number": "26",
            "species": "Prunus sp.",
            "tree_dbh": "14",
            "tree_location": "Right side of driveway",
            "tree_description": "Dieback in canopy and trunk; shared base with Tree 27",
            "reason_removal": "Dying tree",
            "comments": null
          },
          {
            "tree_number": "27",
            "species": "Prunus sp.",
            "tree_dbh": "12",
            "tree_location": "Right side of driveway",
            "tree_description": "Dieback in canopy and trunk; shared base with Tree 26",
            "reason_removal": "Dying tree",
            "comments": null
          }
        ]
      },
      "geometry": {
        "type": "Point",
        "coordinates": [
          -84.405903938807,
          33.876414018415
        ]
      }
    },
    {
      "type": "Feature",
      "properties": {
        "record": "BA-202604889",
        "address": "2426 HOSEA L WILLIAMS DR NE, ATLANTA GA 30317",
        "status": "ACA Pending",
        "date": "09/23/2026",
        "description": null,
        "owner": "MAJOR WALTER C",
        "tree_dbh": "15.39",
        "tree_location": "rear fence line to the right",
        "reason_removal": "Other",
        "tree_description": "Trees with vines, which may result in its death.",
        "tree_number": "1",
        "species": "Oak",
        "comments": null,
        "tree_count": 3,
        "trees": [
          {
            "tree_number": "1",
            "species": "Oak",
            "tree_dbh": "15.39",
            "tree_location": "rear fence line to the right",
            "tree_description": "Trees with vines, which may result in its death.",
            "reason_removal": "Other",
            "comments": null
          },
          {
            "tree_number": "2",
            "species": "oak",
            "tree_dbh": "102.2",
            "tree_location": "rear fence line to the right",
            "tree_description": "Trees with vines, which may result in its death.",
            "reason_removal": "Other",
            "comments": null
          },
          {
            "tree_number": "3",
            "species": "Oak",
            "tree_dbh": "10.87",
            "tree_location": "rear fence line to the right",
            "tree_description": "Trees with vines, which may result in its death.",
            "reason_removal": "Other",
            "comments": null
          }
        ]
      },
      "geometry": {
        "type": "Point",
        "coordinates": [
          -84.307502102397,
          33.751122434599
        ]
      }
    },
    {
      "type": "Feature",
      "properties": {
        "record": "BA-202604890",
        "address": "643 NORFLEET RD NW, ATLANTA GA 30305",
        "status": "ACA Pending",
        "date": "09/23/2026",
        "description": null,
        "owner": "FITZSIMMONS SEAN T",
        "tree_dbh": "16.5",
        "tree_location": "left front of the house",
        "reason_removal": "Unpermitted destruction",
        "tree_description": "Trees beside the walkway that may be damaged as the roots continue to grow.",
        "tree_number": "1",
        "species": "Maple",
        "comments": null,
        "tree_count": 1,
        "trees": [
          {
            "tree_number": "1",
            "species": "Maple",
            "tree_dbh": "16.5",
            "tree_location": "left front of the house",
            "tree_description": "Trees beside the walkway that may be damaged as the roots continue to grow.",
            "reason_removal": "Unpermitted destruction",
            "comments": null
          }
        ]
      },
      "geometry": {
        "type": "Point",
        "coordinates": [
          -84.409404050471,
          33.812591472219
        ]
      }
    },
    {
      "type": "Feature",
      "properties": {
        "record": "BA-202604888",
        "address": "244 CHALMERS DR NW, ATLANTA GA 30318",
        "status": "ACA Pending",
        "date": "09/23/2026",
        "description": null,
        "owner": "Ronnie Byrd",
        "tree_dbh": "15",
        "tree_location": "Rear behind shed",
        "reason_removal": "Uncorrectable defect",
        "tree_description": "tree is covered in vines, lean",
        "tree_number": "1",
        "species": "Boxelder",
        "comments": null,
        "tree_count": 1,
        "trees": [
          {
            "tree_number": "1",
            "species": "Boxelder",
            "tree_dbh": "15",
            "tree_location": "Rear behind shed",
            "tree_description": "tree is covered in vines, lean",
            "reason_removal": "Uncorrectable defect",
            "comments": null
          }
        ]
      },
      "geometry": {
        "type": "Point",
        "coordinates": [
          -84.477272183299,
          33.762367355869
        ]
      }
    },
    {
      "type": "Feature",
      "properties": {
        "record": "BA-202604897",
        "address": "900 KIPLING DR NW, ATLANTA GA 30318",
        "status": "ACA Pending",
        "date": "09/23/2026",
        "description": null,
        "owner": null,
        "tree_dbh": null,
        "tree_location": null,
        "reason_removal": null,
        "tree_description": null,
        "tree_number": null,
        "species": null,
        "comments": null,
        "tree_count": null,
        "trees": null
      },
      "geometry": {
        "type": "Point",
        "coordinates": [
          -84.416737610196,
          33.812723591011
        ]
      }
    },
    {
      "type": "Feature",
      "properties": {
        "record": "BA-202604902",
        "address": "1060 STONEWALL DR SE, ATLANTA GA 30315",
        "status": "ACA Pending",
        "date": "09/23/2026",
        "description": null,
        "owner": "PERRY ROSA M",
        "tree_dbh": "42",
        "tree_location": "back yard",
        "reason_removal": "Dead tree",
        "tree_description": "large dead pine",
        "tree_number": "1",
        "species": "pine",
        "comments": "large dead pine posing a threat to home and neighbors homes",
        "tree_count": 1,
        "trees": [
          {
            "tree_number": "1",
            "species": "pine",
            "tree_dbh": "42",
            "tree_location": "back yard",
            "tree_description": "large dead pine",
            "reason_removal": "Dead tree",
            "comments": "large dead pine posing a threat to home and neighbors homes"
          }
        ]
      },
      "geometry": {
        "type": "Point",
        "coordinates": [
          -84.356860968646,
          33.691942480334
        ]
      }
    },
    {
      "type": "Feature",
      "properties": {
        "record": "BA-202604903",
        "address": "2368 BROWNS MILL RD SE, ATLANTA GA 00000",
        "status": "ACA Pending",
        "date": "09/23/2026",
        "description": null,
        "owner": "Safdar Ali and Hina Farooqui",
        "tree_dbh": "43",
        "tree_location": "Front yard",
        "reason_removal": "Dying tree",
        "tree_description": null,
        "tree_number": "1719",
        "species": "Oak",
        "comments": "We have a really large beautiful tree in our front yard which recently has started dropping large branches. I wanted to know if an arborist could possibly come and take a look at it and advise us on the health of the tree so that we can either take the correct actions or obtain permits if it needs to be cut down.",
        "tree_count": 2,
        "trees": [
          {
            "tree_number": "1719",
            "species": "Oak",
            "tree_dbh": "43",
            "tree_location": "Front yard",
            "tree_description": null,
            "reason_removal": "Dying tree",
            "comments": "We have a really large beautiful tree in our front yard which recently has started dropping large branches. I wanted to know if an arborist could possibly come and take a look at it and advise us on the health of the tree so that we can either take the correct actions or obtain permits if it needs to be cut down."
          },
          {
            "tree_number": "1720",
            "species": "Oak",
            "tree_dbh": "14",
            "tree_location": "Front Yard",
            "tree_description": null,
            "reason_removal": "Dying tree",
            "comments": "Does not look healthy. No foliage at top of tree. Branches falling off."
          }
        ]
      },
      "geometry": {
        "type": "Point",
        "coordinates": [
          -84.373847316284,
          33.689349675898
        ]
      }
    },
    {
      "type": "Feature",
      "properties": {
        "record": "26TMP-062825",
        "address": "4593 LANARK DR SW, ATLANTA GA 30331",
        "status": "",
        "date": "09/23/2026",
        "description": null,
        "owner": null,
        "tree_dbh": null,
        "tree_location": null,
        "reason_removal": null,
        "tree_description": null,
        "tree_number": null,
        "species": null,
        "comments": null,
        "tree_count": null,
        "trees": null
      },
      "geometry": {
        "type": "Point",
        "coordinates": [
          -84.536548099705,
          33.71258669956
        ]
      }
    },
    {
      "type": "Feature",
      "properties": {
        "record": "BA-202604884",
        "address": "923 PIEDMONT AVE NE, ATLANTA GA 30309",
        "status": "ACA Pending",
        "date": "09/23/2026",
        "description": null,
        "owner": "Judy Mills",
        "tree_dbh": "24",
        "tree_location": "Right side front yard",
        "reason_removal": "Dead tree",
        "tree_description": "Dead",
        "tree_number": "1",
        "species": "Hickory",
        "comments": null,
        "tree_count": 1,
        "trees": [
          {
            "tree_number": "1",
            "species": "Hickory",
            "tree_dbh": "24",
            "tree_location": "Right side front yard",
            "tree_description": "Dead",
            "reason_removal": "Dead tree",
            "comments": null
          }
        ]
      },
      "geometry": {
        "type": "Point",
        "coordinates": [
          -84.380921498295,
          33.77986627567
        ]
      }
    },
    {
      "type": "Feature",
      "properties": {
        "record": "BA-202604901",
        "address": "618 CUMBERLAND RD NE, ATLANTA GA 30306",
        "status": "ACA Pending",
        "date": "09/23/2026",
        "description": null,
        "owner": null,
        "tree_dbh": "30",
        "tree_location": "rear of property",
        "reason_removal": "Dead tree",
        "tree_description": "dead/ambrosia beetles",
        "tree_number": "1",
        "species": "red oak",
        "comments": null,
        "tree_count": 1,
        "trees": [
          {
            "tree_number": "1",
            "species": "red oak",
            "tree_dbh": "30",
            "tree_location": "rear of property",
            "tree_description": "dead/ambrosia beetles",
            "reason_removal": "Dead tree",
            "comments": null
          }
        ]
      },
      "geometry": {
        "type": "Point",
        "coordinates": [
          -84.366532029083,
          33.796256850458
        ]
      }
    },
    {
      "type": "Feature",
      "properties": {
        "record": "BA-202604893",
        "address": "387 HILLSIDE DR SW, ATLANTA GA 30310",
        "status": "ACA Pending",
        "date": "09/23/2026",
        "description": null,
        "owner": "Michael Daye",
        "tree_dbh": "4",
        "tree_location": "Backyard",
        "reason_removal": "Diseased",
        "tree_description": null,
        "tree_number": "1",
        "species": "uknown",
        "comments": null,
        "tree_count": 1,
        "trees": [
          {
            "tree_number": "1",
            "species": "uknown",
            "tree_dbh": "4",
            "tree_location": "Backyard",
            "tree_description": null,
            "reason_removal": "Diseased",
            "comments": null
          }
        ]
      },
      "geometry": {
        "type": "Point",
        "coordinates": [
          -84.400616682494,
          33.716928704498
        ]
      }
    },
    {
      "type": "Feature",
      "properties": {
        "record": "BA-202604879",
        "address": "2501 WINSLOW DR NE, ATLANTA GA 30305",
        "status": "ACA Pending",
        "date": "09/23/2026",
        "description": null,
        "owner": "MC DANIEL JOHN T",
        "tree_dbh": "34",
        "tree_location": "back right corner",
        "reason_removal": "Dying tree",
        "tree_description": "One 34'' Tulip Poplar located back right corner of property. Central leader is dead. 35% canopy loss.",
        "tree_number": "1",
        "species": "tulip poplar",
        "comments": "One 34'' Tulip Poplar located back right corner of property. Central leader is dead. 35% canopy loss.",
        "tree_count": 1,
        "trees": [
          {
            "tree_number": "1",
            "species": "tulip poplar",
            "tree_dbh": "34",
            "tree_location": "back right corner",
            "tree_description": "One 34'' Tulip Poplar located back right corner of property. Central leader is dead. 35% canopy loss.",
            "reason_removal": "Dying tree",
            "comments": "One 34'' Tulip Poplar located back right corner of property. Central leader is dead. 35% canopy loss."
          }
        ]
      },
      "geometry": {
        "type": "Point",
        "coordinates": [
          -84.382536383514,
          33.824550490205
        ]
      }
    },
    {
      "type": "Feature",
      "properties": {
        "record": "BA-202604881",
        "address": "2410 ALSTON DR SE, ATLANTA GA 30317",
        "status": "ACA Pending",
        "date": "09/23/2026",
        "description": null,
        "owner": "WOODWARD RHODES INC",
        "tree_dbh": "38",
        "tree_location": "front left",
        "reason_removal": "Diseased",
        "tree_description": "One 38'' Red Oak located front left corner of property. Tree has a heavy lean towards street(power lines) Ganoderma at base. Recent adjacent tree failure impacted the crz",
        "tree_number": "1",
        "species": "red oak",
        "comments": "One 38'' Red Oak located front left corner of property. Tree has a heavy lean towards street(power lines) Ganoderma at base. Recent adjacent tree failure impacted the crz",
        "tree_count": 1,
        "trees": [
          {
            "tree_number": "1",
            "species": "red oak",
            "tree_dbh": "38",
            "tree_location": "front left",
            "tree_description": "One 38'' Red Oak located front left corner of property. Tree has a heavy lean towards street(power lines) Ganoderma at base. Recent adjacent tree failure impacted the crz",
            "reason_removal": "Diseased",
            "comments": "One 38'' Red Oak located front left corner of property. Tree has a heavy lean towards street(power lines) Ganoderma at base. Recent adjacent tree failure impacted the crz"
          }
        ]
      },
      "geometry": {
        "type": "Point",
        "coordinates": [
          -84.30804129713,
          33.745243155436
        ]
      }
    },
    {
      "type": "Feature",
      "properties": {
        "record": "BA-202604899",
        "address": "2691 HEDGEWOOD DR NW, ATLANTA GA 30311",
        "status": "ACA Pending",
        "date": "09/23/2026",
        "description": null,
        "owner": "DOUGLAS CHARLES",
        "tree_dbh": "23",
        "tree_location": "rear of property",
        "reason_removal": "Dead tree",
        "tree_description": "*** 23-inch DBH Pine Tree – Rear of Property Completely remove the 23-inch DBH pine tree located behind the residence. The tree exhibits clear signs of having been dead for more than one year, resulting in significant structural deterioration and creating an extreme risk of failure. Large limbs have already broken and fallen from the canopy, indicating ongoing structural decline. Due to its condition, the tree is highly susceptible to catastrophic failure during high wind events and poses an unacceptable hazard to the residence and surrounding area. Immediate removal is recommended to eliminate the risk.",
        "tree_number": "1",
        "species": "pine",
        "comments": null,
        "tree_count": 4,
        "trees": [
          {
            "tree_number": "1",
            "species": "pine",
            "tree_dbh": "23",
            "tree_location": "rear of property",
            "tree_description": "*** 23-inch DBH Pine Tree – Rear of Property Completely remove the 23-inch DBH pine tree located behind the residence. The tree exhibits clear signs of having been dead for more than one year, resulting in significant structural deterioration and creating an extreme risk of failure. Large limbs have already broken and fallen from the canopy, indicating ongoing structural decline. Due to its condition, the tree is highly susceptible to catastrophic failure during high wind events and poses an unacceptable hazard to the residence and surrounding area. Immediate removal is recommended to eliminate the risk.",
            "reason_removal": "Dead tree",
            "comments": null
          },
          {
            "tree_number": "2",
            "species": "sweetgum",
            "tree_dbh": "13",
            "tree_location": "back left",
            "tree_description": "*** 13-inch DBH Sweetgum – Complete Removal Completely remove the dead 13-inch DBH sweetgum. The tree has no remaining foliage in the canopy, confirming it is dead. Due to its close proximity to the residence, the tree presents a significant hazard. Dead trees rapidly lose structural integrity, making them highly susceptible to limb or whole-tree failure during high wind events. Immediate removal is recommended to eliminate the risk to the home and surrounding property.",
            "reason_removal": "Dead tree",
            "comments": null
          },
          {
            "tree_number": "3",
            "species": "pine",
            "tree_dbh": "23",
            "tree_location": "left side",
            "tree_description": "*** 23-inch DBH Pine – Complete Removal Completely remove the 23-inch DBH pine tree. The tree exhibits numerous signs of pine beetle infestation around the base and significant deterioration of the lower main stem. These conditions have substantially compromised the tree’s structural integrity and increase the likelihood of failure. Due to its close proximity to the residence, failure of the tree could result in significant property damage. Removal is recommended to eliminate the existing risk.",
            "reason_removal": "Diseased",
            "comments": null
          },
          {
            "tree_number": "4",
            "species": "pine",
            "tree_dbh": "26",
            "tree_location": "left side",
            "tree_description": "** 26-inch DBH Pine – Complete Removal Completely remove the 26-inch DBH pine tree. The tree exhibits a pronounced lean toward nearby utility lines and has a large canker/cavity on the lower main stem approximately 5 feet above the base. The defect has compromised an estimated 30% of the tree’s structural wood, significantly reducing its stability and increasing the likelihood of failure. Due to the combination of advanced decay, the tree’s lean, and its close proximity to utility lines, the risk of failure is considered high. Immediate removal is recommended to eliminate the hazard.",
            "reason_removal": "Diseased",
            "comments": null
          }
        ]
      },
      "geometry": {
        "type": "Point",
        "coordinates": [
          -84.476116244822,
          33.75717500856
        ]
      }
    },
    {
      "type": "Feature",
      "properties": {
        "record": "BA-202604895",
        "address": "2604 FORREST WAY NE, ATLANTA GA 30305",
        "status": "ACA Pending",
        "date": "09/23/2026",
        "description": null,
        "owner": "Charles Anglin",
        "tree_dbh": "42",
        "tree_location": "Left of house",
        "reason_removal": "Dying tree",
        "tree_description": "Too close to foundation. Leaves smaller than normal, 20% dead canopy, widely scattered. Dead limbs throughout. Tip die back throughout.",
        "tree_number": "1",
        "species": "Oak",
        "comments": "Orange tape",
        "tree_count": 1,
        "trees": [
          {
            "tree_number": "1",
            "species": "Oak",
            "tree_dbh": "42",
            "tree_location": "Left of house",
            "tree_description": "Too close to foundation. Leaves smaller than normal, 20% dead canopy, widely scattered. Dead limbs throughout. Tip die back throughout.",
            "reason_removal": "Dying tree",
            "comments": "Orange tape"
          }
        ]
      },
      "geometry": {
        "type": "Point",
        "coordinates": [
          -84.37963676443,
          33.826359205702
        ]
      }
    },
    {
      "type": "Feature",
      "properties": {
        "record": "BA-202604898",
        "address": "1189 MECASLIN ST NW, ATLANTA GA 30318",
        "status": "ACA Pending",
        "date": "09/23/2026",
        "description": null,
        "owner": "WilliamMarkDesigns",
        "tree_dbh": "17",
        "tree_location": "Front left corner",
        "reason_removal": "Dead tree",
        "tree_description": "Dead tree, all foliage is from trumpet vine",
        "tree_number": "1",
        "species": "Dead tree",
        "comments": "Orange paint",
        "tree_count": 1,
        "trees": [
          {
            "tree_number": "1",
            "species": "Dead tree",
            "tree_dbh": "17",
            "tree_location": "Front left corner",
            "tree_description": "Dead tree, all foliage is from trumpet vine",
            "reason_removal": "Dead tree",
            "comments": "Orange paint"
          }
        ]
      },
      "geometry": {
        "type": "Point",
        "coordinates": [
          -84.39973985367,
          33.787229103199
        ]
      }
    },
    {
      "type": "Feature",
      "properties": {
        "record": "BA-202604896",
        "address": "3500 PIEDMONT RD NE, ATLANTA GA 30305",
        "status": "ACA Pending",
        "date": "09/23/2026",
        "description": null,
        "owner": "ARI SC NINETEEN LLC  ET AL",
        "tree_dbh": "12",
        "tree_location": "along back entrance",
        "reason_removal": "Significant cavity/area of decay",
        "tree_description": null,
        "tree_number": "1",
        "species": "bradford pear",
        "comments": null,
        "tree_count": 1,
        "trees": [
          {
            "tree_number": "1",
            "species": "bradford pear",
            "tree_dbh": "12",
            "tree_location": "along back entrance",
            "tree_description": null,
            "reason_removal": "Significant cavity/area of decay",
            "comments": null
          }
        ]
      },
      "geometry": {
        "type": "Point",
        "coordinates": [
          -84.377562630871,
          33.849887514885
        ]
      }
    },
    {
      "type": "Feature",
      "properties": {
        "record": "26TMP-063125",
        "address": "1119 VALLEY VIEW RD SE, ATLANTA GA 30315",
        "status": "",
        "date": "09/23/2026",
        "description": null,
        "owner": null,
        "tree_dbh": null,
        "tree_location": null,
        "reason_removal": null,
        "tree_description": null,
        "tree_number": null,
        "species": null,
        "comments": null,
        "tree_count": null,
        "trees": null
      },
      "geometry": {
        "type": "Point",
        "coordinates": [
          -84.351786977361,
          33.691076652962
        ]
      }
    },
    {
      "type": "Feature",
      "properties": {
        "record": "BA-202604878",
        "address": "96 PEACHTREE CIR NE, ATLANTA GA 30338",
        "status": "ACA Pending",
        "date": "09/23/2026",
        "description": null,
        "owner": "GLUSTROM ROBERT C",
        "tree_dbh": "22",
        "tree_location": "front right",
        "reason_removal": "Dead tree",
        "tree_description": "One 22'' dead Foster Holly located front right side of property.",
        "tree_number": "1",
        "species": "foster holly",
        "comments": "One 22'' dead Foster Holly located front right side of property.",
        "tree_count": 1,
        "trees": [
          {
            "tree_number": "1",
            "species": "foster holly",
            "tree_dbh": "22",
            "tree_location": "front right",
            "tree_description": "One 22'' dead Foster Holly located front right side of property.",
            "reason_removal": "Dead tree",
            "comments": "One 22'' dead Foster Holly located front right side of property."
          }
        ]
      },
      "geometry": {
        "type": "Point",
        "coordinates": [
          -84.383422268076,
          33.791818973393
        ]
      }
    },
    {
      "type": "Feature",
      "properties": {
        "record": "BA-202604894",
        "address": "993 WOODBOURNE DR SW, ATLANTA GA 30310",
        "status": "Issued",
        "date": "09/23/2026",
        "description": "Hi Gabriel, . . . I would like to have a permit remove this tree.\" - Eyoel Tewdros",
        "owner": null,
        "tree_dbh": null,
        "tree_location": null,
        "reason_removal": null,
        "tree_description": null,
        "tree_number": null,
        "species": null,
        "comments": null,
        "tree_count": null,
        "trees": null
      },
      "geometry": {
        "type": "Point",
        "coordinates": [
          -84.419810863336,
          33.710071694814
        ]
      }
    }
  ]
}